category,name,latitude,longitude,Zipcode
parking,Big Painted Cave Trail Parking,41.7294214,-121.5122797,
parking,Schonchin Butte Parking,41.7407745,-121.5253368,
parking,Unnamed,37.879472,-122.2261607,94720
parking,Unnamed,33.0474469,-116.4347774,
parking,Unnamed,37.8834599,-122.2447552,94720
parking,Unnamed,41.7310299,-121.5106829,
parking,Unnamed,41.7432257,-121.5452564,
parking,Unnamed,41.7281092,-121.5495945,
parking,Unnamed,41.8180043,-121.5434539,
parking,Unnamed,41.824793,-121.5002526,
parking,Unnamed,41.8331697,-121.4699996,
parking,Wildlife Overlook,41.8364288,-121.4900148,
parking,Unnamed,41.7650031,-121.5566006,
parking,Unnamed,41.757178,-121.567582,
parking,Heppe Cave,41.6958776,-121.53998,
parking,Unnamed,41.691884,-121.5450852,
parking,Unnamed,41.7092642,-121.4779846,
parking,Unnamed,37.2963625,-122.2461607,94020
parking,Hidden Valley Trailhead,40.032706,-124.0247228,
parking,Unnamed,40.3419715,-123.9410863,95571
parking,Unnamed,39.9187042,-123.942713,
parking,Unnamed,37.688978,-119.005621,
parking,Unnamed,39.1759962,-120.8583471,95717
parking,Unnamed,39.2947189,-120.381391,95728
parking,Unnamed,36.9920498,-121.9974197,95065
parking,Horse Camp Trailhead,41.9729772,-123.1776601,
parking,Black Butte Trailhead,41.3727872,-122.340443,
parking,Unnamed,37.9087789,-122.3443273,94804
parking,Unnamed,41.236478,-122.276022,96025
parking,Cook and Green Trailhead (lower),41.9807853,-123.1779965,
parking,Middle Fork Trailhead,41.9736181,-123.2079225,
parking,Cameron Meadows Trailhead,41.9802354,-123.2302039,
parking,Frog Pond Trailhead,41.9950612,-123.2535323,
parking,Unnamed,34.2246767,-118.8795056,91360
parking,Lot D,34.039844,-117.1003729,92399
hotel,Wilbur Hot Springs,39.0387911,-122.4211541,
supermarket,California Oranges,36.1012355,-118.8280675,93265
parking,Unnamed,33.9443513,-118.4062065,90245
parking,Unnamed,34.912622,-120.619088,
parking,Unnamed,34.4563057,-119.6535599,93108
parking,Unnamed,34.4550366,-119.6528417,93108
supermarket,Trader Joe's,37.8455422,-122.252612,94618
parking,Huckleberry Botanic Regional Preserve parking,37.842772,-122.1950991,94516
parking,Unnamed,33.9992225,-118.358,90043
parking,Unnamed,37.8695034,-122.2450259,94720
parking,Unnamed,34.1938085,-118.8815084,91360
supermarket,Saigon City Marketplace,33.7382341,-117.9561985,92655
supermarket,India Cash & Carry,37.3513957,-122.0056924,95051
supermarket,Kumud Groceries,37.3529854,-122.0041823,95051
parking,Unnamed,34.2411815,-118.6718351,93063
parking,Unnamed,34.1156691,-118.4137598,90210
parking,Unnamed,37.8175897,-120.6659218,
parking,Unnamed,37.9570249,-122.3167189,94806
supermarket,Sprouts Farmers Market,32.8516297,-117.2144772,92122
parking,Unnamed,32.6022352,-117.1240744,91932
parking,Unnamed,37.2860896,-121.9395706,95008
parking,Unnamed,37.7521732,-122.4177698,90103
parking,Unnamed,38.8231349,-123.0105023,95425
supermarket,Redwood Valley Market,39.2648404,-123.2043527,95418
parking,Unnamed,39.2917604,-121.0972358,
parking,Unnamed,41.4906582,-121.6166136,
parking,Unnamed,37.6474554,-122.1451588,94545
parking,Unnamed,37.6464441,-122.1470584,94545
parking,Unnamed,41.5829952,-121.5855891,
parking,Unnamed,37.5013641,-119.6214666,
parking,Unnamed,37.9106028,-122.378345,94801
parking,Unnamed,37.8867738,-122.2323381,94720
parking,Unnamed,37.9043493,-122.2677241,94708
parking,Unnamed,39.7672449,-121.7904325,
parking,Unnamed,37.9915578,-122.3557465,94604
parking,Unnamed,37.9890739,-122.3533225,94604
parking,Unnamed,41.6996998,-121.468593,
parking,Unnamed,37.8379671,-122.1873674,94516
parking,Unnamed,37.8840641,-122.1427833,94556
parking,Unnamed,39.7993507,-121.8543495,95973
parking,Waterloo Staging area,37.823508,-122.186818,94516
parking,Unnamed,37.8037179,-122.1774991,94615
parking,Unnamed,37.8034023,-122.1768238,94615
supermarket,Lucky,37.3539748,-121.998114,95051
parking,Unnamed,37.9469346,-122.2658233,94895
parking,Unnamed,37.4145103,-121.9706044,95054
parking,Unnamed,37.4189041,-122.0178824,94089
parking,Unnamed,37.9477642,-122.2665189,94895
parking,Unnamed,37.4470976,-121.9226473,95035
parking,Unnamed,37.4059833,-122.3041287,
parking,Grizzly Flat Trail Parking Area,37.2905815,-122.1544332,
supermarket,Andronico’s,37.3607935,-122.0968991,94024
parking,Unnamed,37.3014007,-122.0759558,
parking,Carr-Feeley Parking Area,39.4018135,-120.6434697,
parking,Unnamed,37.3302814,-121.8697564,95192
parking,Unnamed,37.3300673,-121.868982,95192
parking,Unnamed,37.3306064,-121.8687932,95192
parking,Unnamed,37.3310432,-121.868604,95192
parking,Unnamed,38.8298755,-122.6981324,95426
parking,Unnamed,38.8335824,-122.7180443,95426
supermarket,Windmill Market,36.8411133,-121.5351038,95045
parking,"Area N, Salmon Hole",39.7833636,-121.7458326,
parking,Area P,39.7876059,-121.7390822,
parking,Area R,39.7921908,-121.7392107,
parking,Area Q,39.7898505,-121.7386859,
parking,Convict Lake Day Use Parking,37.5893401,-118.854191,
parking,Unnamed,37.1124252,-121.6431505,95038
parking,Unnamed,38.5693128,-122.423631,94508
supermarket,Cardenas,37.0144001,-121.5830607,95020
supermarket,Nob Hill,37.0144,-121.5850776,95020
supermarket,Gerrard's Market,34.0426024,-117.1840753,92373
parking,Unnamed,38.4884215,-122.5720205,95409
parking,Bull Valley Staging Area,38.0490224,-122.1971082,94525
parking,Unnamed,33.9448469,-118.4020116,90009
parking,Unnamed,33.9431907,-118.4060321,90245
parking,Unnamed,33.943375,-118.4022857,90009
parking,Unnamed,33.9450799,-118.3991751,90009
supermarket,Unnamed,37.5767243,-122.3189018,94401
parking,Unnamed,38.9464262,-120.0981071,
parking,Unnamed,37.7819606,-119.0762761,93529
parking,Unnamed,34.3974194,-117.8221555,93563
mall,Unnamed,37.4719474,-122.2594521,94062
parking,Unnamed,34.2034285,-118.2986959,91501
parking,Unnamed,37.7206267,-122.0983017,94546
parking,Unnamed,32.7500162,-117.1023489,92105
supermarket,Tahoma Market and Deli,39.0685632,-120.130964,96142
supermarket,Trader Joe's,37.2883696,-121.9325822,95008
supermarket,Whole Foods Market,37.2929607,-121.930408,95008
parking,Unnamed,40.929761,-124.1336218,95521
supermarket,Trader Joe's,33.6503583,-117.8375537,92612
supermarket,Albertsons,32.6264844,-117.075597,91910
supermarket,Albertsons,33.1318495,-117.05952,92027
supermarket,Ralphs,32.7942263,-117.254304,92109
supermarket,Minute Mart,32.757146,-117.086522,92105
supermarket,Smart & Final,32.7481139,-117.140395,92163
supermarket,Foodland Iga #3,32.720976,-117.085641,92105
supermarket,Vien Dong Iii,32.784503,-117.169782,92111
supermarket,Sin Lee Food Whole Sale Co.,32.755239,-117.094062,92115
supermarket,Seafood City,32.9137121,-117.131518,92126
supermarket,Albertsons,33.1400088,-117.1384078,92069
supermarket,Lucky Seafood,32.9189539,-117.12427,92126
supermarket,Carnival Supermarket,32.808766,-117.160587,92133
supermarket,Sprouts Farmers Market,33.244442,-117.291178,92057
supermarket,Northgate Supermarket,32.5759506,-117.070391,92154
supermarket,Wisteria Candy Cottage,32.668419,-116.288345,91905
supermarket,Vons,32.7653189,-117.0242861,91941
supermarket,Harvest International Market,32.812549,-117.2001002,92140
supermarket,Ralphs,33.1404803,-117.0428558,92027
supermarket,Harvest Ranch Market #4,32.959484,-117.264857,92014
supermarket,El Super,32.658835,-117.089328,91950
supermarket,Albertsons,32.7393034,-116.937744,92019
supermarket,El Tigre Foods Warehouse,33.368481,-117.249825,92028
supermarket,Pay-Low Super Market,32.698243,-117.027292,92114
supermarket,Albertsons,32.8089693,-116.920103,92021
supermarket,Albertsons,32.708019,-117.008632,91977
supermarket,Albertsons,33.1087912,-117.105855,92029
supermarket,Albertsons,32.7436452,-117.0452275,91945
supermarket,Alpine Ranch Market,32.8350132,-116.7544712,91901
supermarket,Food Giant,32.696312,-117.086173,91950
supermarket,Food 4 Less,32.750884,-117.068158,92115
supermarket,La Jolla Shores Market,32.853574,-117.254215,02037
supermarket,Stumps Apple Market #3,32.741212,-117.22919,92106
supermarket,Albertsons,33.0178029,-117.061518,92128
supermarket,Ralphs,32.769245,-117.054379,92115
supermarket,Salsa Market,32.781016,-116.967177,92020
supermarket,Garden Farms Market,32.64365,-117.083869,91950
supermarket,Smart & Final Extra!,32.8564347,-116.9721883,92071
supermarket,Harvest Ranch Market #2,33.0356349,-117.2381936,92024
supermarket,Hometown Iga #2,32.6401684,-117.0955849,91950
supermarket,Ralphs,32.676575,-117.038896,92139
mall,Cardiff-By-The-Sea Towne Centre Shopping Center,33.0222651,-117.2822594,92007
hotel,River Bend Lodge,33.8619634,-114.5282903,
hotel,Juniper Lodge,41.7601493,-122.061953,96058
hotel,Altadena Lodge,34.1725209,-118.0884025,91107
hotel,Elkhorn Lodge,34.494715,-118.3098011,
hotel,Laurel Springs Lodge,34.50694,-119.7959737,93111
hotel,Breckenridge Lodge,35.4660671,-118.6106436,
parking,Unnamed,39.428972,-120.1632856,
parking,Unnamed,37.0809689,-121.5307058,
parking,Unnamed,37.0885822,-121.5380877,
supermarket,99 Ranch Market,34.1880845,-118.465299,91411
supermarket,Pass Farmers Market,36.9709942,-121.4195769,
parking,Unnamed,39.7654474,-121.7836829,
parking,Unnamed,37.3881752,-122.1425831,94022
parking,Unnamed,37.6713733,-119.5850841,95389
parking,Unnamed,34.5350102,-119.7118417,
parking,Unnamed,37.2358365,-122.4159505,
parking,Powder Mill Trail Parking,37.0154003,-122.0347821,95041
parking,Unnamed,37.5799,-122.35082,94101
supermarket,CC Market,40.5069211,-124.1123834,95562
parking,Graham Hill Trail Parking,37.015558,-122.0348176,95041
parking,La Purisima Mission Parking Place,34.670317,-120.4210743,93436
parking,Skyline Wilderness Park,38.2789662,-122.2494087,94559
parking,Unnamed,37.9618386,-122.4187381,94801
parking,Unnamed,37.2274582,-121.7525424,95139
supermarket,Beach Market,36.9653543,-122.0178469,95061
parking,Unnamed,39.3652453,-120.923436,
parking,Unnamed,39.113748,-121.2708022,
supermarket,Trader Joe's,37.2930603,-121.9942009,95129
parking,Unnamed,39.2095494,-121.0571245,95945
parking,Unnamed,37.5454722,-122.5143497,94037
parking,Unnamed,41.6424971,-122.1676411,
supermarket,Live Oak Super,36.975642,-121.983443,95062
supermarket,Lucky,37.2501724,-121.829265,95123
supermarket,Ralphs,34.1770427,-119.2162359,93041
parking,Unnamed,34.0622688,-118.4629428,90073
parking,Unnamed,41.845177,-121.3912548,
supermarket,El Patio,36.9371467,-121.8627937,
parking,Pillar Point Bluff Trail (POST),37.5113424,-122.5012212,94038
parking,Unnamed,37.512845,-122.5102502,94038
parking,Unnamed,37.5463569,-122.5138605,94037
supermarket,Lion Market,37.3315271,-121.8538537,95122
supermarket,Sprouts,32.7987241,-117.2469667,92109
parking,Unnamed,39.7622731,-121.7909556,95928
supermarket,Sprouts Farmers Market,33.0749554,-117.2387789,92009
parking,Unnamed,37.4493646,-122.4232193,94019
supermarket,Safeway,36.9785814,-121.9086088,95003
parking,Unnamed,36.9611267,-121.8873743,95003
parking,Garnet Peak Trailhead,32.9116135,-116.4612146,
parking,Unnamed,37.0145813,-121.9052641,95003
supermarket,Ocean Beach People's Organic Food Market,32.7495327,-117.242901,92107
parking,Big Bald Rock,39.6460397,-121.3406835,95916
parking,Unnamed,39.7628262,-121.8050431,95928
parking,Unnamed,39.1156087,-121.9374322,95950
supermarket,Groceries for Less,34.0048356,-117.0610138,92320
supermarket,Mollie Stone's,37.7606657,-122.436559,94114
supermarket,Lazy Acres,34.4002857,-119.7216572,93109
supermarket,Vons,34.4025023,-119.723794,93109
parking,Unnamed,41.9459725,-121.5650319,
parking,Unnamed,41.8481518,-121.3895058,
parking,Yost Creek and Fern Lake Trailhead,37.7616982,-119.1132354,93529
parking,Unnamed,37.7731276,-119.1263481,93529
parking,Unnamed,37.7832882,-119.1277059,93529
parking,Unnamed,33.0394457,-116.5923346,92036
parking,Unnamed,37.2821752,-122.149718,
parking,Unnamed,37.3668893,-122.2474715,94020
parking,Unnamed,34.2293249,-119.2576176,93002
supermarket,Ralphs,33.819545,-117.9601612,92804
supermarket,Stater Bros.,33.8242583,-117.9579726,92804
parking,Unnamed,37.8233204,-122.2071845,94602
parking,Unnamed,37.8237204,-122.2070558,94602
supermarket,Save Mart,39.7566905,-121.864132,95973
parking,Unnamed,33.3348709,-116.9196785,
parking,Unnamed,39.7633125,-121.7921919,95928
parking,Unnamed,39.7713484,-121.7827925,
parking,Unnamed,37.2306587,-122.0952206,
parking,Park and Ride,34.1374831,-117.4723372,92220
supermarket,Scotts Valley Market,37.0607155,-122.0065764,95066
hotel,Unnamed,32.8011312,-117.258623,92109
hotel,Crystal Pier Hotel,32.7962129,-117.256704,92109
parking,Unnamed,-0.1891729,-78.4217418,170901
parking,Unnamed,38.0529346,-122.2267346,94525
supermarket,Trader Joe's,38.0091681,-121.3226915,95207
supermarket,Podesto's,38.0114821,-121.3216023,95210
parking,Unnamed,33.6586535,-117.9406737,92627
parking,Unnamed,33.6596036,-117.9403819,92627
parking,MPPC,37.4495974,-122.1881017,94025
parking,Unnamed,37.0531605,-122.0731142,95018
parking,Unnamed,37.0113417,-121.7081228,
parking,Unnamed,37.010747,-121.7150913,95976
supermarket,S & B Market,38.9702317,-123.6872112,95459
parking,Unnamed,34.1596368,-119.2248585,93035
parking,Unnamed,37.0128357,-121.7104754,95976
parking,Unnamed,37.5061184,-122.2779828,94070
parking,Unnamed,39.0890928,-122.7896322,95458
supermarket,Nob Hill Foods,37.5232544,-122.2518725,94065
parking,Unnamed,33.596719,-117.1636053,92563
parking,Unnamed,33.5974781,-117.1653439,95262
parking,Unnamed,33.5949258,-117.1663911,92563
parking,Unnamed,37.0162552,-122.0771746,95064
parking,Beach Access Parking,39.5020052,-123.78689,
supermarket,Food 4 Less,34.0651461,-117.224976,92403
supermarket,Nugget Markets,38.7897526,-121.279782,95678
supermarket,Stater Bros.,34.1341172,-117.5925666,91737
hotel,Marriott's Desert Springs Villas II,33.7490719,-116.359008,92260
supermarket,Bristol Markets,33.7569289,-116.3891806,92260
parking,Cahuilla Hills Park,33.7143113,-116.4004025,92260
supermarket,Albertsons,33.7426752,-116.3054403,92211
hotel,The Beach Cottages,32.79297,-117.255362,92109
hotel,Sheraton Carlsbad Resort and Spa,33.1323974,-117.3101821,92008
supermarket,Liva Food Distributor,32.568926,-117.06431,92173
hotel,Synergy at Mira Bella,32.806763,-117.149407,92123
hotel,"Red Roof Inn - Pacific Beach, San Diego",32.803812,-117.216901,92109
hotel,Escondido Lodge,33.088308,-117.071174,92025
hotel,Howard Johnson Inn And Suites San Diego Area/Chula Vista,32.6391969,-117.097032,91910
parking,Broadway Plaza Centre,32.807066,-116.957027,92022
supermarket,Ralphs,32.9810455,-117.075652,92128
hotel,The Pearl Hotel,32.725349,-117.228983,92106
supermarket,Grocery Outlet,33.147664,-117.198481,92078
supermarket,Unnamed,33.226474,-117.333352,92057
hotel,Sonesta ES Suites,32.990032,-117.075396,92128
hotel,Beachcomber Shores,32.8089152,-117.2571304,92109
parking,RV/Bus,33.744119,-116.538235,92264
supermarket,Smart & Final,32.9154869,-117.1220552,92126
hotel,The Seabird Resort,33.19387,-117.382584,92054
parking,Eishenhower Medical Center,33.7636165,-116.4036425,92276
hotel,Lakehouse Hotel and Golf Resort,33.1248362,-117.2079091,92078
supermarket,Food Bowl Market,32.7220617,-117.1289514,92102
supermarket,Trader Joe's,32.982014,-117.074986,92128
supermarket,Sprouts Farmers Market,32.8374079,-116.9934841,92071
supermarket,Raley's,38.0665187,-122.167967,94510
parking,Earl Carmichael Park Parking,37.3453886,-121.989946,95051
parking,Homestead Shopping Center,37.3383873,-121.9943503,95051
parking,Unnamed,39.0972058,-121.6021727,95991
parking,Unnamed,39.1295246,-121.6005071,95991
parking,Unnamed,39.1301263,-121.6008021,95991
parking,Unnamed,33.7186189,-118.2830418,90733
parking,Unnamed,37.7103216,-122.3885667,94134
parking,Unnamed,34.1808969,-118.2754919,91201
parking,Unnamed,34.3253023,-118.4151221,91340
parking,Unnamed,34.3247126,-118.4158194,91340
parking,Unnamed,34.3250848,-118.4146151,91340
parking,Walker Ranch Trailhead,34.3780534,-118.4425578,91387
supermarket,Ralphs,34.2232947,-118.236819,91214
supermarket,Lotte Market,34.21619,-118.2239344,91020
supermarket,Ralphs,34.1489747,-118.1313255,91101
parking,Caltrain Lawrence Station,37.3706818,-121.9950133,95051
supermarket,Trader Joe's,34.9380455,-120.4209,93454
parking,Unnamed,32.9845871,-116.6770703,
parking,Unnamed,33.0023563,-116.7152899,
hotel,Wyndham Oceanside Pier Resort,33.195074,-117.38377,92054
parking,Unnamed,34.1899742,-119.2327807,93035
parking,Unnamed,37.4951508,-122.3681706,
parking,Dough Flat Trailhead,34.5223401,-118.8955026,
supermarket,Ralphs,34.4359096,-119.803846,93111
parking,Unnamed,34.1543934,-118.9503391,91320
parking,Marshal South Home Trailhead,33.0034487,-116.3898438,
parking,Unnamed,38.1088497,-121.2870752,95241
parking,Unnamed,38.1044427,-121.2809131,95240
parking,Salas Park,38.1062513,-121.2701183,95240
supermarket,S-MART Foods,38.1140855,-121.2811715,95240
parking,Downtown Parking Garage,38.1347341,-121.2718026,94240
parking,Unnamed,38.1147826,-121.2775697,95240
parking,Unnamed,38.1146982,-121.2806113,95240
parking,Unnamed,38.1145884,-121.2840231,95240
parking,Unnamed,38.1146053,-121.2870755,95240
parking,Unnamed,38.1072104,-121.2809278,95240
parking,Unnamed,38.1087427,-121.2784602,95240
supermarket,Star Grocery,37.8547256,-122.2482299,94168
parking,Unnamed,34.4232241,-119.8644116,93106
parking,Unnamed,34.4225426,-119.861944,93106
parking,Unnamed,37.847152,-122.4791697,94965
parking,Unnamed,37.845695,-122.4778765,94965
supermarket,Trader Joe's,34.4389102,-119.728945,93105
parking,Unnamed,32.9629141,-117.2553835,92014
parking,Unnamed,32.9677599,-117.259958,92014
parking,Unnamed,32.8155965,-116.8724797,92021
supermarket,Ralphs,33.6474401,-117.687623,92630
parking,Unnamed,37.3294477,-121.8849695,95113
parking,Franklin Point Trailhead,37.1559569,-122.354455,
parking,Unnamed,37.0051976,-121.7093229,
parking,Unnamed,37.0480218,-121.6563194,
parking,Unnamed,37.0593926,-121.66759,95037
supermarket,Unnamed,34.226259,-118.9868467,93012
supermarket,Safeway,38.0547702,-122.15572,94510
parking,Hidden Valley Trail Head,33.5271353,-117.2840934,92562
supermarket,Foodmaxx,38.649725,-121.326109,95608
hotel,Stanford Inn by the Sea,39.2998045,-123.7908591,95460
parking,Unnamed,37.0168375,-121.6441121,
hotel,Shorebreak Hotel,33.6581642,-118.0026273,92648
supermarket,Westlake IGA Market,38.5545359,-121.7870207,95616
parking,Unnamed,38.5546744,-121.7651364,95616
hotel,The Ranch at Laguna Beach,33.5129223,-117.748146,92651
parking,Unnamed,38.5558765,-121.7306847,95617
parking,Unnamed,38.5531078,-121.7303843,95616
parking,Unnamed,38.5605197,-121.7465376,95616
hotel,Quality Inn & Suites,33.4581738,-117.67164,92624
parking,Unnamed,38.5554158,-121.7492135,95616
parking,Unnamed,34.0172475,-118.2823788,90089
parking,Parking Center,34.0199998,-118.277186,90089
parking,West Campus Cottages Parking,34.4105683,-119.8768389,93106
supermarket,Twain Harte Market,38.0399728,-120.2248706,95383
supermarket,Siêu Thi Thuân Phát El Monte Superstore,34.059963,-118.063463,91733
parking,Redwood Regional Park - Moon Gate,37.8215585,-122.1868728,94516
supermarket,El C Lollo Meat Market,34.0769216,-118.275498,90029
parking,Unnamed,35.3618299,-119.0416775,93304
parking,Folsom Public Garage,38.6767036,-121.1801526,95671
supermarket,Bel Air Supermarket,38.4866182,-121.5351981,95831
supermarket,Nugget Markets,38.4946211,-121.5211208,95831
supermarket,Trader Joe's,37.9377015,-122.0256327,94518
supermarket,Windmill Farms,32.7839251,-117.0596437,92120
supermarket,Albertsons,33.5624303,-117.6461601,92694
parking,Unnamed,33.6191875,-115.9994328,92254
parking,Unnamed,33.1226708,-117.0762474,92025
parking,Unnamed,34.2253425,-118.8758162,91360
parking,Unnamed,34.2004802,-118.8531789,91360
parking,Unnamed,34.200486,-118.849095,91362
parking,Unnamed,34.1988,-118.8537084,91360
parking,Unnamed,34.1995276,-118.855264,91360
parking,Unnamed,34.19943,-118.8542555,91360
parking,Unnamed,34.1980013,-118.8558756,91360
supermarket,Whole Foods Market,34.1878067,-118.8734441,91360
parking,Unnamed,34.2211899,-118.8769564,91360
supermarket,Del Mar Foods,34.0620933,-118.0986244,91770
parking,Unnamed,33.6864555,-117.3685381,92530
parking,Unnamed,33.5987896,-117.7478041,92637
supermarket,Albertsons,33.5282882,-117.717662,92677
hotel,Residence Inn,33.4871804,-117.67385,92675
parking,Mira Loma Kingdom Hall,33.9865839,-117.5100128,91752
parking,Unnamed,37.9490152,-121.974935,94521
parking,Unnamed,37.005983,-121.9071991,95003
supermarket,Stater Bros.,35.6350987,-117.6679394,93555
supermarket,Trader Joe's,33.8111592,-117.5062534,92883
supermarket,Hollister Super Mercado,36.8535456,-121.4205793,95023
parking,Lot C,37.6525286,-122.0532083,94542
parking,Unnamed,37.8275646,-122.5169758,94965
supermarket,Ralphs,34.2605131,-118.326723,91040
supermarket,Super A Foods,34.1012115,-118.0750065,91778
parking,Unnamed,34.2400042,-119.265626,93002
parking,Unnamed,37.545881,-122.5141972,94037
parking,Post Office Parking,37.5421917,-122.5147474,94037
parking,Unnamed,37.5057639,-122.4814901,94018
hotel,Unnamed,37.5037255,-122.4845693,94019
supermarket,Food 4 Less,34.0018252,-118.0883925,90660
supermarket,Cactus Corner Grocery,36.9712258,-121.8196011,95019
parking,Unnamed,37.190865,-121.9921771,95032
parking,Unnamed,33.1982155,-117.3794312,92054
parking,Unnamed,37.9338864,-119.1799055,
supermarket,Gualala Supermarket,38.7675963,-123.5282011,95445
hotel,Residence Inn Oxnard River Ridge,34.2298749,-119.200262,93036
parking,Unnamed,37.0324901,-121.0661529,
parking,Unnamed,39.3333915,-120.2907651,95161
parking,Unnamed,38.5553957,-121.710089,95618
parking,Unnamed,37.9795125,-122.2697164,94564
parking,Unnamed,39.7378357,-122.1718106,95963
parking,Unnamed,33.4832657,-117.0712353,92592
supermarket,Food 4 Less,33.927576,-117.453369,92505
supermarket,Walmart Supercenter,33.9371231,-117.4553945,92503
parking,Staff Parking,33.9129753,-117.1946953,92555
parking,Visitor Parking,33.9109987,-117.1947382,92555
parking,Unnamed,37.0205468,-121.7870384,95976
parking,Marciel Gate,37.7589226,-122.1049557,
supermarket,Trader Joe's,34.0691676,-118.3443578,90036
supermarket,Stater Bros.,34.0353277,-117.0526065,92399
supermarket,Stater Bros.,33.9160206,-117.487558,92505
supermarket,Stater Bros.,33.8971255,-117.4730212,92503
supermarket,Ralphs,33.8954112,-117.4715996,92503
supermarket,Albertsons,33.9098993,-117.436339,92503
supermarket,Stater Bros.,33.944865,-117.436334,92504
supermarket,Food 4 Less,33.9738463,-117.3469037,92521
parking,Sprig parking,37.0041637,-121.6819281,95004
supermarket,Jons,33.8576789,-118.36263,90503
supermarket,Stater Bros.,33.2203403,-117.2434166,92084
parking,Handicapped parking,38.0400521,-122.8019641,94956
hotel,Unnamed,33.1459151,-117.2422697,92081
hotel,TownePlace San Diego Carlsbad Vista,33.1467523,-117.2421452,92081
parking,Unnamed,34.265986,-117.6271741,91759
parking,Unnamed,32.9598228,-116.5803456,
parking,Unnamed,37.5668625,-122.0740896,94555
parking,Unnamed,34.1068035,-118.4151417,90210
supermarket,Buy Low Market,34.0618345,-118.0524514,91733
supermarket,Food Mart,38.0860538,-120.5658153,95222
supermarket,Colusa Market,37.8992663,-122.286681,94707
parking,Unnamed,33.1396985,-117.071509,92027
parking,Unnamed,33.1381668,-117.0717819,92027
parking,East Grove Parking Lot,33.1749349,-117.335692,92008
parking,Batiquitos Trail Parking,33.0930727,-117.2910388,92011
parking,Batiquitos Trail Parking,33.0941041,-117.2798781,92011
parking,Unnamed,37.9274472,-122.5798085,94957
parking,Unnamed,34.0108223,-116.1679482,
supermarket,Gelson's,34.0069262,-118.474835,90405
parking,Unnamed,36.771539,-121.4144736,
parking,Unnamed,34.0993248,-119.0792645,93042
supermarket,Stater Bros.,33.8917222,-117.209334,92551
hotel,Unnamed,33.4617564,-117.6963287,92629
supermarket,Trader Joe's,38.5467537,-121.7614973,95616
supermarket,Nugget Markets,37.919027,-122.5075218,94925
supermarket,Albertsons,33.8435355,-117.574217,92882
parking,Unnamed,33.3291056,-117.1622499,
supermarket,Major Marketplace,33.2954356,-117.221637,92003
parking,Pena Adobe Park,38.3373802,-122.0151082,95696
parking,Unnamed,38.2509331,-120.2594259,
parking,Unnamed,38.2468173,-120.264963,
parking,Unnamed,38.2613672,-120.2769407,95223
parking,Unnamed,38.496359,-119.796285,
parking,Unnamed,33.1339933,-117.0743511,92025
parking,Unnamed,33.1344158,-117.0734672,92025
supermarket,Smart & Final,34.0879126,-118.309646,90004
parking,Unnamed,37.3007008,-121.1040576,
parking,Unnamed,33.1227315,-117.0801651,92025
parking,Unnamed,32.8697974,-116.414545,91948
parking,Unnamed,32.8894885,-116.4410011,91948
parking,Unnamed,32.8891308,-116.4410288,91948
supermarket,Honeybaked,34.1380702,-118.1011844,91107
supermarket,Kachy Produce,37.022562,-121.5769649,95020
parking,Unnamed,37.0820402,-121.8508143,95033
supermarket,FoodMaxx,37.6322694,-122.0964258,94545
parking,Unnamed,34.1230143,-118.1039403,91108
supermarket,Lucky,37.9904425,-122.3024404,94803
supermarket,Grocery Outlet,37.9902136,-122.308104,94803
parking,Unnamed,37.0303035,-122.0590342,95041
parking,Unnamed,33.4857642,-117.0344996,92592
supermarket,Sprouts Farmers Market,34.1356634,-118.216452,90041
parking,Unnamed,33.1158255,-117.1054361,92029
parking,Unnamed,33.1178306,-117.1083167,92029
parking,Unnamed,33.1171602,-117.1082937,92029
parking,Unnamed,34.5047913,-120.2260211,
parking,Unnamed,33.1138635,-117.1068848,92029
supermarket,FoodMaxx,37.2554708,-121.7982197,95138
parking,Unnamed,34.1586845,-118.3299075,91506
parking,Unnamed,34.1592597,-118.3301019,91505
supermarket,India Supermarket,38.7507539,-121.310677,95678
supermarket,Smart & Final,34.2461924,-118.274765,91042
parking,Unnamed,38.9755381,-120.1001584,96142
parking,Unnamed,38.9832053,-120.1069673,96142
parking,Orchard Supply Hardware Park And Ride,37.680278,-121.048772,95350
hotel,Amerika's Best Value Inn,37.66666,-120.99405,95354
parking,Yosemite Creek Parking,37.8503,-119.57355,
hotel,Tioga Lodge,37.9899492,-119.1419348,93541
parking,Julia Pfeiffer Burns State Park,36.159998,-121.6685746,93920
parking,Unnamed,33.1107216,-117.0984209,92029
parking,Unnamed,33.1093533,-117.0977183,92029
parking,Unnamed,33.1087964,-117.0966519,92029
parking,Unnamed,33.1117894,-117.0987352,92029
parking,Unnamed,33.1143831,-117.0995453,92029
parking,Unnamed,33.1101703,-117.0975226,92029
parking,Unnamed,33.1132626,-117.100368,92029
supermarket,Old Town Market,34.8653609,-120.4431452,93455
supermarket,El Rancho Foods,37.0142606,-121.575073,95020
parking,Unnamed,33.8360337,-116.9880715,
parking,Unnamed,33.8311123,-116.9834889,
parking,Unnamed,33.836547,-116.9915896,
parking,Unnamed,33.8328283,-116.9866413,
parking,Unnamed,33.8344953,-116.9849665,
parking,Unnamed,33.8366759,-116.992675,
parking,Unnamed,33.833721,-116.9854576,
parking,Unnamed,33.832323,-116.9850104,
parking,Verdugo Park And Ride,34.2055473,-118.2192778,91011
supermarket,Super Save,37.7367631,-122.3897193,94124
parking,Unnamed,38.517398,-122.0560829,
parking,Galleria Park And Ride,33.9093637,-117.455121,92503
parking,Sweetgrass Lane Park And Ride,33.30038,-117.21833,92003
parking,Penny Pines Trailhead,32.9056994,-116.4576237,
hotel,Unnamed,38.5752356,-121.3053356,95655
supermarket,Lucky,37.7418624,-122.387192,94124
parking,Unnamed,38.049,-122.5327049,94949
supermarket,Pho Tot,37.7168741,-122.4415313,94112
parking,Unnamed,37.7320836,-122.3913619,94124
parking,Unnamed,33.8690501,-117.9604682,92833
parking,Unnamed,33.8687562,-117.9526308,92833
supermarket,Unnamed,33.859883,-117.9573837,92801
parking,Parking structure,33.927384,-117.8766277,92821
parking,Unnamed,33.9105215,-117.8669128,92886
parking,Unnamed,33.9257816,-117.8783926,92821
parking,Unnamed,33.9259463,-117.8763112,92821
parking,Unnamed,33.9277801,-117.8790954,92821
parking,Main Street Vehicles,33.8097767,-117.9205378,92802
parking,Unnamed,38.4978142,-122.8996465,95436
hotel,The Disneyland Hotel,33.8093792,-117.9269321,92802
supermarket,Stater Bros.,33.5923887,-117.121872,92596
supermarket,Foodnet,37.6793441,-122.154365,94579
supermarket,Major Market Grocery Store,33.3753813,-117.2528639,92028
parking,Unnamed,33.9122129,-117.8679806,92886
parking,Unnamed,37.429984,-122.164736,94305
parking,Unnamed,38.3754051,-122.5107823,95442
supermarket,Oceana Market,37.6328853,-122.4879485,94044
parking,Unnamed,38.6247383,-121.2925825,95628
parking,Unnamed,38.6207526,-121.2900344,95670
parking,Unnamed,38.6334245,-121.2731748,95628
parking,Unnamed,38.6321908,-121.2242863,95628
parking,Unnamed,38.6545723,-121.1571188,95630
supermarket,Ralphs,35.3112768,-120.826836,93402
parking,Unnamed,37.9033285,-122.0940811,94549
parking,Unnamed,38.61968,-121.2828397,95670
supermarket,Albertsons,34.8635741,-120.41729,93455
supermarket,Spencer's Fresh Markets,34.8952856,-120.4358303,93455
parking,Unnamed,38.6523469,-121.1778437,95662
parking,Unnamed,38.6456932,-121.1525809,95630
parking,Unnamed,34.1861437,-118.0218444,91024
parking,Unnamed,37.6109775,-122.4960111,94044
parking,Catalina Airport Parking,33.4028985,-118.4153819,
supermarket,Stater Bros.,34.4249352,-117.5735989,92371
supermarket,Albertsons,34.4718046,-117.3657503,92392
supermarket,Shop Smart,40.1202179,-123.8238685,95560
supermarket,Farm Fresh Produce,36.9360488,-121.7443663,95076
parking,South Yuba Trailhead,39.3417505,-120.9719493,
mall,Eastmont Town Center,37.7681798,-122.1764202,94615
supermarket,Stater Bros.,34.5201818,-117.331506,92394
parking,Unnamed,38.5607951,-121.7276191,95617
parking,Unnamed,38.5614663,-121.7155868,95618
parking,Unnamed,38.5866553,-121.8516501,
parking,Unnamed,38.0619414,-122.6414704,94963
parking,Unnamed,32.9092619,-117.1051116,92131
parking,Unnamed,33.127379,-117.0745105,92025
parking,Unnamed,32.9913857,-117.2097702,92091
parking,Unnamed,36.2445941,-121.7752618,
parking,Unnamed,35.6531268,-121.2218111,
parking,Unnamed,35.5633552,-121.0836814,93428
parking,Unnamed,35.4506466,-120.9418244,93430
parking,Unnamed,35.4337865,-120.88654,93430
mall,Bear Valley Center,34.471633,-117.3660971,92392
supermarket,Old Fire House Market,36.888773,-121.6433615,
supermarket,Save Mart,36.6841596,-121.79642,93933
supermarket,Albertsons,34.0484855,-117.1713725,92373
supermarket,Stater Bros.,33.8983315,-117.9111323,92835
parking,Unnamed,37.3442887,-122.2068907,94028
parking,Unnamed,33.1319667,-117.0685336,92027
parking,Whitney Portal Arch Trailhead,36.5953972,-118.1531197,
parking,Unnamed,33.0735305,-117.0526959,92025
parking,Unnamed,33.0774172,-117.0551519,92025
supermarket,Star Market,37.7324364,-120.9487271,95367
supermarket,Grocery Outlet,34.129108,-118.0725061,91775
parking,Unnamed,37.8635807,-122.2467676,94720
parking,Unnamed,37.8641059,-122.2462392,94720
parking,Unnamed,37.8657279,-122.2490233,94720
parking,Unnamed,37.2901419,-122.1541275,
supermarket,Numero Uno Market,33.9598407,-118.2684904,90003
parking,Unnamed,38.6507289,-121.2226576,95662
parking,Unnamed,38.6505739,-121.2214076,95662
parking,Unnamed,38.6504503,-121.2202731,95662
parking,Unnamed,38.6521282,-121.2191921,95662
supermarket,Nob Hill Foods,37.7627649,-121.9515436,94583
parking,Unnamed,38.370123,-123.0742876,
parking,Unnamed,38.363528,-123.0700551,
parking,Unnamed,38.3569703,-123.0671529,
parking,Unnamed,38.3804054,-123.080108,
parking,Unnamed,38.3718473,-123.0758808,
parking,Unnamed,38.3663797,-123.0718361,
parking,Unnamed,32.7876186,-116.8051436,
supermarket,Walmart,33.1357328,-117.1234722,92069
parking,Unnamed,39.3251466,-123.8034448,95460
supermarket,H Mart,32.9187594,-117.1223639,92126
parking,Street Parking,33.5481906,-117.6481178,92694
supermarket,Oliver's Market,38.3279016,-122.6983501,94931
supermarket,Smart & Final Extra!,37.3534132,-122.051227,94087
parking,Unnamed,32.7048866,-117.161334,92101
parking,Unnamed,37.7962176,-122.1313816,94516
parking,Unnamed,37.0969404,-122.2790815,
supermarket,Lassen's Health Food,34.4367215,-119.803473,93111
parking,Unnamed,32.9024424,-116.5823912,91916
parking,Unnamed,32.9022797,-116.5827512,91916
supermarket,Smart & Final,34.1677656,-118.6201209,91364
supermarket,Grocery Outlet,40.7995479,-124.174142,95502
parking,Disability Parking,39.3486989,-123.8236242,95420
hotel,Cambria Beach Lodge,35.572302,-121.112037,93428
hotel,Moonstone Inn,35.5702401,-121.1105847,93428
hotel,The Bluebird Inn,35.563028,-121.085587,93428
hotel,The Villas at Disney's Grand Californian Hotel,33.8069162,-117.9227207,92802
supermarket,Rocca's Market,37.0853142,-121.6110542,95046
supermarket,Walmart,34.1881762,-118.62528,91307
parking,Unnamed,38.7778983,-121.3710471,95747
parking,Unnamed,33.1354552,-117.0793058,92027
parking,Unnamed,37.244995,-122.1099122,
parking,Unnamed,36.9785844,-122.0543403,95064
parking,Unnamed,36.9787541,-122.0539985,95064
parking,Business Parking,37.6477843,-118.9813585,93546
parking,Staging Area,37.6219704,-118.9931404,93546
parking,Staging Area,37.6216069,-118.9708628,93546
parking,Unnamed,38.0816633,-122.9140751,94937
parking,Unnamed,38.7710902,-121.3698634,95747
parking,Unnamed,38.7715666,-121.3705391,95747
parking,Unnamed,34.5055463,-120.2269772,
parking,Unnamed,37.8061712,-122.4693456,94129
supermarket,Manila Oriental Market,37.6512745,-122.4688574,94015
supermarket,Stater Bros.,34.134271,-116.0971482,92277
parking,Unnamed,33.9290169,-117.4397976,92504
parking,Unnamed,33.9299361,-117.4396394,92504
parking,Unnamed,33.9289569,-117.4422599,92504
parking,Unnamed,33.9317387,-117.4465729,92504
parking,Unnamed,33.9308485,-117.444698,92504
parking,Unnamed,33.9323293,-117.3989124,92506
parking,Unnamed,33.9347038,-117.3967881,92506
parking,Unnamed,33.9337847,-117.3971931,92506
parking,Unnamed,33.9334175,-117.3861505,92506
parking,Unnamed,33.9308634,-117.3996823,92506
parking,Unnamed,38.0557373,-122.2378442,94525
supermarket,Smart & Final,32.9507169,-117.063645,92064
parking,Unnamed,34.1430069,-117.9187644,91702
parking,Unnamed,34.7416769,-118.0236614,93535
supermarket,Qwik Serve,37.3930048,-121.0721362,95363
parking,Unnamed,33.1275881,-117.072699,92025
parking,Unnamed,33.1279752,-117.0712935,92027
supermarket,Save-A-Lot,33.6866778,-116.1829995,92236
parking,Parking for Frustration Creek,34.1017778,-116.9662162,92339
supermarket,Mitsuwa Marketplace,34.0051047,-118.4335247,90066
supermarket,Safeway,37.7377092,-122.239576,94502
supermarket,Trader Joe's,36.5965039,-121.8945766,93940
supermarket,County Fair Market,35.2603549,-118.913783,93241
supermarket,Albertson's,34.1626916,-118.0690713,91107
parking,Unnamed,36.9904595,-121.9064301,95003
parking,Piney Woods,36.5156554,-121.9462622,93922
parking,San Rafael Club House,33.7988352,-118.2948889,90710
parking,Unnamed,33.7753644,-117.8587436,92686
parking,Unnamed,33.9028487,-117.8861774,92834
parking,Unnamed,33.8735393,-117.8732761,92870
parking,Unnamed,33.8739847,-117.8709131,92870
parking,Central Place Garage,37.334608,-121.887249,95113
supermarket,Woodminster Market,37.811192,-122.1971997,94613
supermarket,Food 4 Less,38.4755431,-121.4492316,95823
parking,Noe Valley Farmer's Market,37.7514932,-122.4290278,94114
hotel,DoubleTree by Hilton Hotel Campbell - Pruneyard Plaza,37.2893734,-121.933495,95008
parking,South Fork trailhead parking lot,34.1614054,-116.8723226,92305
supermarket,Raley's,37.7124846,-121.4325929,95377
parking,Unnamed,38.6534381,-121.3481476,95841
parking,Unnamed,38.6528045,-121.3481058,95841
parking,Unnamed,38.6531287,-121.346408,95841
parking,Unnamed,38.6532041,-121.348897,95841
supermarket,Sprouts Farmers Market,38.6798103,-121.270794,95610
parking,Unnamed,37.2872059,-121.9424831,95008
hotel,Crowne Plaza Palo Alto,37.4059857,-122.121416,94306
parking,California Flight Academy,32.8253827,-116.974692,92022
supermarket,Mercado California,37.2592886,-121.8077654,95111
parking,Unnamed,34.2036823,-118.1589023,91011
parking,Unnamed,34.202227,-118.1579716,91001
parking,Unnamed,33.13351,-117.1533341,92096
parking,Unnamed,33.1340579,-117.1552225,92096
parking,Unnamed,33.1397426,-117.0548096,92027
parking,Unnamed,37.5346338,-119.6512829,
supermarket,Sprouts Farmers Market,34.235462,-119.036844,93010
parking,Unnamed,33.753077,-116.7227801,92549
supermarket,Foods Co,34.93507,-120.437607,93454
parking,Unnamed,35.2500462,-120.6251953,93401
parking,Unnamed,35.250048,-120.6252368,93401
parking,Unnamed,38.1194226,-122.2090254,94591
supermarket,Save Mart,38.4252352,-121.413422,95758
hotel,Water's Edge,37.8731755,-122.4563742,94920
supermarket,Woodland Market,37.8751977,-122.4598234,94920
supermarket,La Princesa Market,34.9624556,-120.435416,93454
supermarket,El Super,34.1186297,-118.1962954,90042
supermarket,Albertsons,34.4623278,-118.5566385,91354
parking,Unnamed,39.2908421,-121.0977566,
supermarket,Save Mart,38.6798655,-121.229027,95662
parking,Unnamed,40.3526064,-123.9238078,95571
parking,Unnamed,37.2768062,-120.845888,95374
parking,Unnamed,33.6577398,-118.000389,92648
parking,Canyon Creek Trailhead,39.5170254,-121.0114699,
hotel,Harrah's Rincon Casino & Resort,33.2673211,-116.9553613,
hotel,Quality Inn & Suites,34.9513041,-120.416098,93454
parking,Unnamed,32.9953248,-117.0550524,92128
parking,Unnamed,32.9966448,-117.0539459,92128
parking,Unnamed,32.9976408,-117.056975,92128
parking,Unnamed,38.5637691,-121.7261437,95617
parking,Unnamed,38.1038505,-122.2783418,94592
parking,Unnamed,38.8838886,-120.3557825,
parking,Unnamed,38.8816588,-120.3557343,
supermarket,Albertsons,35.6449202,-117.679369,93555
supermarket,Albertsons,35.616678,-120.68083,93446
supermarket,Walmart,35.6124485,-120.6816742,93446
parking,Unnamed,37.4078883,-122.1522468,94304
parking,Unnamed,36.9952523,-122.0603364,95064
parking,Unnamed,37.9423761,-122.5451891,94904
parking,Unnamed,37.9158204,-122.3835228,94801
supermarket,Center Market,33.2575622,-116.3800057,92004
hotel,Unnamed,33.2560298,-116.398725,92004
hotel,Unnamed,33.4747616,-117.720366,92629
parking,Unnamed,34.1515695,-118.7821035,91377
hotel,Nick's Cove Cottages,38.1988486,-122.920488,94940
parking,"Public, pay parking lot",38.2002861,-122.9214214,94971
parking,Nick's Cove customer Parking,38.2002124,-122.9204424,94940
parking,Ridge Park Trailhead,33.6057972,-117.8017492,92667
parking,Unnamed,35.14271,-116.104379,
parking,Unnamed,33.7178133,-118.280216,90731
parking,Unnamed,36.4573874,-121.7371142,93924
supermarket,Zanotto's Market Sunnyvale,37.3501764,-122.0495621,94087
supermarket,New India Bazaar,37.3508028,-122.0494746,94087
parking,Unnamed,37.6245382,-118.9456406,93546
parking,Unnamed,38.3293349,-119.6351119,
parking,Unnamed,33.7157793,-117.9366734,92708
parking,Unnamed,33.7353335,-116.6960429,92599
parking,Unnamed,41.7025316,-121.5184076,
parking,Unnamed,41.703115,-121.5191125,
parking,Unnamed,41.703118,-121.5158526,
parking,Unnamed,41.7049096,-121.5173902,
parking,Unnamed,41.7057759,-121.5159168,
parking,Unnamed,41.7070563,-121.5122855,
parking,Unnamed,41.7079156,-121.5147703,
parking,Unnamed,41.7085787,-121.5122198,
parking,Unnamed,41.7092003,-121.5144299,
parking,Unnamed,41.7102219,-121.5118493,
parking,Unnamed,41.7103051,-121.5138544,
parking,Unnamed,41.7130071,-121.5109422,
parking,Unnamed,38.0667273,-122.194218,94569
parking,Unnamed,38.0620157,-122.1930852,94569
parking,Unnamed,38.0644695,-122.1934363,94569
parking,Unnamed,36.3631933,-121.9001192,
parking,Unnamed,34.2274757,-118.9312021,91320
parking,Unnamed,38.1684474,-122.2001768,94589
parking,Doorknob Snowmobile park,41.6715486,-121.562951,
parking,Little Medicine Lake,41.5881926,-121.6108935,
parking,Unnamed,41.5798671,-121.5874449,
parking,Unnamed,34.2232685,-118.8289181,
parking,Unnamed,34.2325535,-118.8388608,91360
supermarket,WinCo Foods,39.1257715,-121.6367471,95933
parking,Lake Siskiyou Trail Parking,41.2858971,-122.3237568,96067
parking,Sandstone Hills Trail Parking,34.1874747,-118.7857515,91377
parking,Unnamed,34.1861287,-118.7714457,91377
parking,Unnamed,34.1811668,-118.7716228,91377
parking,Unnamed,34.1849261,-118.77057,91377
parking,Rock Ridge Open Space Trail Head Parking,34.1909127,-118.7603106,91377
parking,Unnamed,34.1654811,-118.9578462,91320
supermarket,Raley's,37.6884059,-121.0108125,95350
parking,Unnamed,34.1671038,-118.9433097,91320
supermarket,Ralphs,34.1840627,-118.3395852,91505
parking,Unnamed,36.3609115,-121.8224325,
parking,Hanging Rock Parking,36.5493814,-118.7683908,
parking,Unnamed,34.2254713,-118.8802235,91360
supermarket,Sender's Market,38.2284773,-120.5408459,95246
parking,Unnamed,38.7655207,-121.3467506,95747
supermarket,Market at Seventh College,32.8875979,-117.242098,92093
parking,Unnamed,38.9690747,-122.7918082,95451
supermarket,El Super,36.7423058,-119.7709994,93702
supermarket,One Stop,38.3526631,-120.9360392,95640
parking,Main Parking,38.5661569,-121.2993682,95655
parking,Overflow Parking,38.5668113,-121.2994914,95655
supermarket,Target,37.2649958,-121.918775,95124
supermarket,Grocery Outlet,37.2707721,-121.9072464,95124
supermarket,Lucky,37.2628961,-121.932567,95124
supermarket,Smart & Final,37.2648198,-121.916305,95124
supermarket,International Food Bazaar,37.2720452,-121.93308,95124
supermarket,Boba Tea House,34.2351727,-118.5277448,91330
parking,Unnamed,33.3395982,-116.7877755,
supermarket,Fairfax Market,37.9883736,-122.590597,94930
supermarket,United Market,37.9769358,-122.5534189,94960
supermarket,Cardenas Markets,37.9613153,-122.5002485,94901
parking,Unnamed,33.4627897,-117.6892984,92629
parking,Big Pine High School Parking,37.161206,-118.2891509,92513
supermarket,Carrolls Market,37.1656987,-118.2893348,92513
supermarket,Stater Bros.,34.129528,-117.8827593,91702
hotel,Unnamed,35.4492994,-120.9057413,93430
parking,Unnamed,32.9777625,-116.5246036,
hotel,Unnamed,34.2795586,-118.4703787,91345
parking,Unnamed,36.98118,-122.0501038,95064
parking,Unnamed,39.129086,-120.7998408,
parking,Unnamed,39.1302633,-120.7905911,
parking,Unnamed,39.1411778,-120.7868342,
supermarket,Murphy's,40.8844162,-124.0909244,95503
parking,Unnamed,37.025074,-122.2151538,95017
parking,Unnamed,39.337215,-121.3268429,
parking,Unnamed,39.3341675,-121.3238656,
parking,Unnamed,39.3321282,-121.3227069,
parking,Unnamed,41.277549,-122.3330525,96067
parking,Claremont Wilderness Park South Parking,34.1390039,-117.706921,91711
parking,Unnamed,36.9983364,-122.0518118,95064
parking,Pay Station,36.9954957,-122.056887,95064
parking,Unnamed,36.9950268,-122.0552705,95064
parking,Unnamed,36.99921,-122.0633935,95064
parking,Unnamed,36.9942875,-122.0643806,95064
parking,Unnamed,36.9940988,-122.0647239,95064
parking,Unnamed,36.9936577,-122.061634,95064
parking,Unnamed,36.9994926,-122.0580023,95060
parking,Unnamed,36.9904956,-122.0686721,95064
parking,Unnamed,36.9919053,-122.0676663,95064
parking,Unnamed,36.9980214,-122.0570034,95064
parking,Unnamed,36.9979592,-122.0562476,95064
parking,Unnamed,36.9980339,-122.0570879,95064
parking,Unnamed,37.7745429,-119.0869347,93529
parking,Unnamed,36.9992413,-122.0664291,95064
parking,Unnamed,36.9925962,-122.064337,95064
parking,Unnamed,36.9900382,-122.0659785,95064
parking,Unnamed,36.9876973,-122.0556472,95064
parking,114,37.0003593,-122.0587068,95064
parking,Unnamed,37.0009829,-122.0574097,95064
parking,Unnamed,37.0016927,-122.0575081,95064
parking,Unnamed,37.0017522,-122.0580198,95064
parking,Unnamed,37.0018526,-122.0591851,95064
parking,Unnamed,37.0022905,-122.059201,95064
parking,Unnamed,37.0032977,-122.0587206,95064
parking,Unnamed,36.9966639,-122.0618404,95064
parking,Unnamed,37.0004326,-122.0540672,95064
parking,Unnamed,37.0020837,-122.0535928,95064
parking,Unnamed,36.9995927,-122.0508939,95064
parking,Unnamed,36.9928438,-122.0675464,95064
parking,Unnamed,36.9916267,-122.0685544,95064
parking,Unnamed,36.991047,-122.0680713,95064
parking,Unnamed,36.9908793,-122.0687032,95064
parking,Unnamed,36.9909345,-122.0678795,95064
parking,Unnamed,36.9790914,-122.0517287,95064
parking,Unnamed,36.9791858,-122.0544941,95064
parking,Unnamed,36.9798061,-122.0535035,95064
parking,Unnamed,36.9804875,-122.0519803,95064
parking,Unnamed,36.9991105,-122.0562856,95064
parking,Unnamed,36.9982281,-122.0542376,95064
parking,Unnamed,36.9977991,-122.0536338,95064
parking,Unnamed,37.0017015,-122.0620885,95064
parking,Unnamed,37.0014156,-122.0629426,95064
parking,Unnamed,37.0010503,-122.0582499,95064
parking,Unnamed,38.1022749,-122.538967,94945
parking,Unnamed,36.9913111,-122.0639456,95064
parking,Poplar Street Public Access,33.5495801,-117.78504,92652
parking,Unnamed,36.9885543,-122.0552732,95064
parking,Unnamed,35.8928625,-121.4610477,
parking,Unnamed,39.0994832,-120.9255248,95713
parking,Unnamed,39.1002148,-120.9239756,95713
parking,Unnamed,39.1009954,-120.9237673,95713
parking,Unnamed,37.256116,-122.407671,94060
parking,Unnamed,39.1071151,-120.8600003,
parking,Unnamed,39.1071453,-120.8601442,
parking,Unnamed,39.108515,-120.8591764,
parking,Unnamed,39.1101005,-120.8578209,
parking,Unnamed,39.111141,-120.8567906,
supermarket,Food 4 Less,34.6905767,-118.17356,93536
supermarket,Raley's,38.6574654,-121.509945,95835
parking,Unnamed,36.9956955,-122.056925,95064
mall,Our Sons Plaza,34.6895937,-118.1642441,93539
parking,Unnamed,36.9948331,-122.0553589,95064
parking,Unnamed,36.9908931,-122.0520805,95064
parking,Unnamed,36.9990917,-122.0635654,95064
parking,Unnamed,36.9982054,-122.062573,95064
parking,Unnamed,36.9953702,-122.0602864,95064
parking,Unnamed,37.0013452,-122.0608671,95064
parking,Unnamed,36.9952917,-122.0658292,95064
parking,Unnamed,36.9940575,-122.0648207,95064
parking,Unnamed,36.9912856,-122.0684148,95064
parking,Unnamed,36.999751,-122.0579023,95060
parking,Unnamed,36.9989373,-122.0664407,95064
parking,Unnamed,36.992198,-122.0648261,95064
parking,Unnamed,36.9806071,-122.0487489,95064
parking,Unnamed,37.0000597,-122.0646544,95064
parking,Unnamed,36.9981577,-122.0643647,95064
parking,Unnamed,36.996129,-122.0549363,95064
parking,Unnamed,36.9966814,-122.0525689,95064
parking,Unnamed,36.9944696,-122.055563,95064
parking,Unnamed,36.997729,-122.0525514,95064
supermarket,Palm Deli,36.976468,-121.8865145,95003
parking,Unnamed,36.9952456,-122.061376,95064
parking,Unnamed,36.9952403,-122.0620955,95064
supermarket,Valencia Farmers Market,37.7522423,-122.4205203,94143
supermarket,Grocery Outlet,37.4190516,-122.124512,94306
parking,Unnamed,36.9809058,-122.051951,95064
supermarket,San Bruno Supermarket,37.7303902,-122.4051055,94134
parking,Unnamed,36.9971455,-122.050992,95064
parking,Unnamed,36.9991411,-122.0619403,95064
parking,Unnamed,36.9725642,-122.0515478,95061
supermarket,Lucky,37.2288852,-121.8858459,95120
parking,Unnamed,36.9936382,-122.0541957,95064
supermarket,Valencia Whole Foods,37.7570365,-122.4209796,94143
parking,Unnamed,36.999455,-122.0224544,95061
supermarket,Buddies Market,37.7346227,-122.4337115,94112
parking,Unnamed,36.9959591,-122.0547592,95064
parking,Unnamed,36.9977584,-122.0507581,95064
parking,Unnamed,36.9979175,-122.0516224,95064
supermarket,Bel Air,38.4965543,-121.509933,95831
supermarket,SF Supermarket,38.4724152,-121.44876,95823
supermarket,Lucky,37.692665,-121.7750444,94551
supermarket,Raley's,37.5190529,-120.8471228,95382
supermarket,Save Mart,37.5160404,-120.850421,95382
parking,Unnamed,38.2337555,-122.6371139,94952
hotel,Gerstle Park Inn,37.9647222,-122.5350547,94904
parking,Unnamed,37.624395,-121.759102,94550
supermarket,Bel Air,38.6118907,-121.496488,95833
supermarket,Lion,37.3191154,-121.9746084,95129
supermarket,Mercado Loco,38.5781665,-121.5502033,95691
parking,Unnamed,32.7979994,-116.9042571,92019
parking,Unnamed,32.8768453,-116.9117129,92040
parking,Unnamed,36.0138647,-121.4370169,
parking,Unnamed,36.032477,-121.4726744,
parking,Unnamed,38.0473885,-122.2210202,94525
parking,Unnamed,35.7985363,-121.34784,
supermarket,99 Ranch Market,38.49457,-121.4570444,95824
parking,Unnamed,36.8680631,-121.8186015,
parking,Unnamed,36.8687667,-121.8187052,
parking,Unnamed,36.8708138,-121.8205762,
parking,Unnamed,36.8739023,-121.8226004,
parking,Unnamed,36.8949195,-121.8341454,
parking,Unnamed,36.8970246,-121.8354243,
parking,Unnamed,32.9494207,-117.2466505,92014
parking,Unnamed,32.9497321,-117.2458369,92014
supermarket,Sprouts Farmers Market,37.2927181,-121.992366,95129
supermarket,Cookie Crock Market,35.5631923,-121.0919261,93428
parking,Unnamed,40.664099,-122.4399768,96089
supermarket,Super A,34.1033676,-118.2360136,90065
parking,Unnamed,32.906782,-116.5830304,
supermarket,Trader Joe's,34.1380129,-118.0121045,91016
parking,College Cove,41.068267,-124.1489841,
parking,Unnamed,36.9812983,-122.048915,95064
supermarket,Savemart,38.559607,-121.7577404,95616
parking,Mad River Bluffs,40.942164,-124.1267261,95519
parking,Unnamed,34.1236711,-117.1944876,92346
parking,Unnamed,34.1222278,-117.1947987,92346
parking,Salvador Canyon Trailhead,33.3969293,-116.4769217,
supermarket,FoodMaxx,37.9559165,-122.0416269,94520
supermarket,Los Osos Mexican Market,35.3118622,-120.832629,93402
parking,Unnamed,35.1213712,-120.6289254,93433
parking,Unnamed,35.1211233,-120.629413,93433
parking,Unnamed,40.8726603,-124.1520723,
supermarket,FoodMaxx,38.1234059,-122.236462,94589
parking,Unnamed,37.4731261,-122.2359197,94061
parking,Unnamed,40.50096,-122.5229722,
parking,China Gardens Trail,40.5071436,-122.395621,96001
parking,Unnamed,38.5699261,-123.3187798,
parking,Henderson Open Space,40.5694759,-122.3717956,96001
parking,Unnamed,38.8573745,-122.418517,
supermarket,Trader Joe's,38.6724297,-121.1558851,95630
supermarket,Walmart Supercenter,38.6683603,-121.1675262,95630
parking,Unnamed,38.8087548,-122.3749722,
parking,Happy Valley Cemetery,40.4674928,-122.4550783,
parking,Unnamed,41.8150136,-124.0427634,
parking,Unnamed,41.8133825,-124.0445498,
parking,Unnamed,36.339722,-117.4686056,
parking,Unnamed,40.8844336,-123.962903,95525
supermarket,Trader Joe's,34.1429858,-118.3933469,91604
parking,Unnamed,36.9371819,-121.8653095,95003
parking,Unnamed,36.9842878,-122.0332152,95061
parking,Unnamed,38.8352349,-121.3106849,95765
parking,Unnamed,40.1891233,-120.6036758,
parking,Unnamed,40.1882558,-120.5857046,
parking,Unnamed,37.3663184,-122.0134728,95086
hotel,Aztec Hotel,34.151536,-118.0057963,91016
parking,Unnamed,40.1847666,-120.5803529,
supermarket,Ben Lomond Market,37.0890844,-122.0892896,95005
supermarket,Sierra Gateway Market,35.758069,-118.418772,93238
parking,Unnamed,37.9301459,-122.6811462,94924
supermarket,Albertsons,33.8313152,-117.8886498,92806
supermarket,Sequoia Produce,36.3254898,-119.1046608,93221
parking,RV Storage Club,36.3249539,-119.0816581,93221
parking,Unnamed,36.3979175,-118.9503836,93271
parking,Unnamed,37.0293525,-121.8212548,95976
parking,Unnamed,37.0502762,-121.8105093,95976
parking,Unnamed,37.0819515,-121.8506693,95033
parking,Team Disney Burbank Parking,34.1587299,-118.3257033,91506
parking,ES03 parking,37.2132266,-122.0233149,95030
supermarket,Food 4 Less,33.8020061,-117.9377578,92802
parking,Unnamed,39.091335,-121.5444309,
parking,Green Valley Trailhead,39.1950674,-120.7974762,95714
supermarket,Mendoza Market,36.3194389,-121.242553,93927
parking,Unnamed,32.9014593,-116.5832599,91916
parking,Unnamed,34.0006817,-116.6123988,92282
supermarket,Clements Ridge Produce,38.1984954,-121.0692126,95227
supermarket,Stehly Farms Market,32.7714723,-117.2016863,92110
supermarket,Super A Foods,34.1198066,-118.2013052,90042
parking,Unnamed,37.4578527,-122.2878802,94062
parking,Unnamed,34.3050358,-118.8987045,93021
parking,Unnamed,32.8786975,-116.4380373,91948
parking,Unnamed,32.8856937,-116.4324422,91948
parking,Unnamed,32.8794859,-116.4459069,91948
parking,Agua Dulce Equestrian Trailhead,32.8538995,-116.4353943,91948
hotel,Unnamed,33.1398264,-117.2454073,92081
parking,Unnamed,38.8824953,-121.3071524,95648
parking,Unnamed,34.8159974,-119.1020501,
supermarket,Grocery Outlet,37.5300618,-121.98297,94538
supermarket,Bob's Market,34.0121025,-118.4670218,90405
parking,Unnamed,38.7898833,-123.5601632,95445
parking,Unnamed,33.9277156,-117.8521461,92821
parking,Unnamed,35.976729,-118.596086,
parking,Unnamed,35.9769793,-118.5937741,
parking,Unnamed,36.4135923,-119.0938224,93286
parking,Unnamed,38.1316214,-122.8914001,94940
parking,Unnamed,37.5496813,-122.0896594,94555
supermarket,Lucky,37.5559096,-121.9520093,94537
supermarket,Bolinas Market,37.9097842,-122.6850941,94924
parking,Downtown Disney Service Parking,33.809272,-117.923268,92802
parking,Unnamed,37.9207004,-122.6917459,94924
supermarket,FoodMaxx,37.9652976,-121.781917,94531
parking,Lynch Canyon Trail Head Parking,39.0043772,-122.3911046,
parking,Cowboy Camp,38.998579,-122.3543103,
parking,High Bridge Trail Head Parking,38.9568473,-122.3436021,
parking,Redbud Trail Head Parking,38.9871811,-122.5397367,
parking,Unnamed,35.0369396,-118.2852614,93501
supermarket,Luck 7 Supermercado,37.3456591,-121.8481844,95116
supermarket,Wolfsen's Meat Market,37.2529026,-120.9969485,95322
supermarket,Stater Bros.,33.7889598,-117.8177251,92869
parking,Unnamed,33.7426588,-116.3495342,92210
parking,Unnamed,33.7418641,-116.3485396,92210
parking,Unnamed,32.8495987,-116.4340572,91948
parking,Unnamed,32.8571263,-116.4236534,91948
parking,Unnamed,34.1546571,-118.3249472,91522
parking,Unnamed,34.1545581,-118.3246162,91522
parking,Unnamed,34.155614,-118.3237377,91506
parking,Unnamed,34.154464,-118.3251346,91522
parking,Unnamed,34.1544825,-118.3245923,91522
parking,Unnamed,37.052216,-122.0736959,95018
parking,Unnamed,32.8912347,-117.1382926,92126
supermarket,Ralphs,34.1644476,-118.256508,91202
parking,Unnamed,33.7305773,-114.5127944,
parking,Unnamed,39.3206727,-121.0160508,
parking,Unnamed,39.3269247,-121.0447648,
parking,Unnamed,33.9484339,-117.5769353,92880
supermarket,Raley's,38.6766382,-121.8012661,95695
parking,Unnamed,33.8366474,-117.9001777,92805
parking,Unnamed,36.7598706,-118.9018162,93628
parking,Marvin Pass Trailhead,36.7408653,-118.7383283,
parking,Unnamed,32.9031645,-116.4554202,91948
supermarket,Food Source,38.6827463,-121.4552798,95673
parking,Unnamed,33.5465384,-117.793272,92651
supermarket,Corral Market & Deli,36.5783697,-121.727323,93908
supermarket,Ralphs,34.0317653,-118.290833,90007
supermarket,Indian Groceries,38.6701019,-121.5046585,95835
supermarket,Natraj Indian Foods,38.6498924,-121.5104683,95834
parking,Oridina Connector Staging Area,37.8999085,-122.2104328,94563
hotel,Unnamed,34.2382872,-116.9410258,92315
hotel,Quality Inn - Monterey Beach Dunes,36.6993722,-121.805041,93933
hotel,Sanctuary Beach Resort,36.6999863,-121.8061198,93933
hotel,Our Peace of Mammoth - condo rental,37.6476414,-118.987715,93546
supermarket,Nob Hill,37.2376501,-121.832311,95123
supermarket,Western Pacific Filipino Grocery,37.388986,-122.0046114,94085
parking,Unnamed,38.5176985,-121.7528037,95616
supermarket,O'Brian's Market,37.7316163,-120.9600001,95367
supermarket,Save Mart,37.713534,-120.9568004,95367
parking,Unnamed,34.0106321,-116.1685914,
parking,Unnamed,34.0107286,-116.1683209,
supermarket,Rancho San Miguel Markets,38.5472861,-121.455906,95817
supermarket,FoodMaxx,38.4948653,-121.46112,95824
supermarket,Grocery Outlet,37.3383046,-121.883998,95113
supermarket,La Tiendita,32.8274466,-117.2052704,92117
parking,Unnamed,37.8716947,-122.224246,94563
parking,Daily Permit Parking Dispenser ($2 Fee/Day),33.5480274,-117.6653641,92694
parking,Daily Permit Parking Dispenser ($2 Fee/Day),33.548166,-117.664569,92694
parking,Unnamed,37.9433237,-122.4108762,94801
parking,Unnamed,38.0271369,-119.0846705,
parking,Skylandia Parking,39.1868911,-120.1104969,96145
parking,Unnamed,36.9355495,-121.8641194,
parking,Unnamed,36.9576533,-121.8642444,95003
parking,Unnamed,38.6959902,-119.8434539,
supermarket,Thriftway,41.2132282,-122.2720452,96025
supermarket,Nitta Ranch,38.8175619,-121.219647,95650
parking,Unnamed,38.5274736,-121.8044785,95616
supermarket,Grocery Outlet,37.7415785,-122.405368,94124
supermarket,Ralphs,34.0178788,-117.59212,91761
supermarket,Sprouts Farmers Market,33.6542966,-117.645924,92691
parking,Unnamed,38.7720489,-121.3724917,95747
parking,Unnamed,38.7724906,-121.3731994,95747
parking,Unnamed,38.7717258,-121.3736291,95747
supermarket,Unnamed,37.4805753,-122.2175731,94063
parking,Unnamed,38.8005328,-121.2839229,95765
supermarket,Market World,33.8231996,-118.341167,90505
supermarket,Save Mart,36.1351305,-120.360718,
supermarket,Walmart Neighborhood Market,36.807126,-119.680832,93611
supermarket,Mitsuwa Marketplace,37.3149469,-121.9782,95129
supermarket,Nijiya Market,32.8142761,-117.1539803,92111
supermarket,Hankook,37.3515939,-122.001344,94087
parking,Unnamed,38.7783906,-121.3715731,95747
parking,Unnamed,38.778395,-121.3733234,95747
parking,Unnamed,38.7784519,-121.3726359,95747
supermarket,Five Markets,37.7529431,-122.408716,94110
supermarket,Chavez Supermarket,37.470651,-122.2033108,94061
supermarket,Pena Meat and Food Market,37.4720461,-122.2047252,94061
supermarket,Marina Food,37.4934798,-121.9298209,94539
parking,Unnamed,38.7432136,-121.3124775,95678
parking,Unnamed,37.2080141,-122.3330962,
parking,Unnamed,41.7135001,-121.5076376,
parking,Unnamed,41.7135625,-121.5076896,
supermarket,Big Food Saver,34.0632749,-118.1030018,91770
parking,Unnamed,37.0284746,-121.7433217,95976
parking,Unnamed,37.028767,-121.7419028,95976
parking,Unnamed,37.0294852,-121.7425851,95976
parking,Unnamed,37.0298949,-121.7424643,95976
parking,Unnamed,36.954559,-122.0624938,95064
supermarket,HK Market,34.074174,-118.308883,90004
parking,Unnamed,36.9611018,-121.8882272,95003
parking,Unnamed,36.96411,-121.8893612,95003
supermarket,Ralphs,32.7285191,-117.226322,92106
parking,Unnamed,37.0366436,-122.0162551,95066
parking,Unnamed,37.9258069,-121.7505192,94513
parking,Unnamed,36.9763397,-121.8863744,95003
parking,Unnamed,32.8351696,-117.0363664,92119
parking,Unnamed,32.8353927,-117.037287,92119
parking,Unnamed,38.7745599,-121.3674712,95747
parking,Unnamed,38.7747204,-121.3671599,95747
parking,Unnamed,36.9484003,-121.8642957,95003
parking,Unnamed,36.9487591,-121.8645045,95003
parking,Unnamed,36.9492052,-121.8647159,95003
parking,Unnamed,36.9497084,-121.8649246,95003
parking,Unnamed,37.2444089,-122.1091456,
parking,Unnamed,37.245127,-122.1097679,
parking,Unnamed,37.2459476,-122.1104304,
parking,Unnamed,37.2555205,-122.1178285,
parking,Unnamed,37.9123482,-121.885238,94157
parking,Unnamed,36.9650073,-122.022718,95061
parking,Unnamed,37.1305697,-121.9586282,95033
parking,Unnamed,37.0482621,-121.9638791,95065
parking,Unnamed,37.041848,-121.9853286,95065
parking,Unnamed,34.0909398,-117.8167184,91773
parking,Unnamed,36.4979176,-117.2270786,
supermarket,Walmart Neighborhood Market,33.199721,-117.3749031,92054
supermarket,Save Mart,38.0786638,-120.55566,95222
parking,Tower climb Carson trail,38.0149918,-120.5254959,
parking,Cal U Parking,40.0668551,-79.8848158,15419
supermarket,Trader Joe's,33.8689672,-118.058037,90703
supermarket,Mulberries' Market,37.825051,-122.232837,94611
parking,Unnamed,38.317863,-123.032329,94923
parking,Unnamed,38.3174,-123.032435,94923
parking,El Pueblo Inn,38.294073,-122.474791,95409
supermarket,Walmart Neighborhood Market,33.845619,-118.038726,90623
parking,Unnamed,33.5478251,-117.7821692,92652
supermarket,Raley's,38.4540842,-122.7713992,95403
parking,Salito's and Bar Bocce parking,37.859655,-122.485405,94965
parking,Unnamed,36.857572,-121.8129248,
parking,Unnamed,33.7054005,-116.9935911,92543
parking,Unnamed,36.9704485,-121.9822014,95062
parking,Bridge Spot,38.0463348,-122.129088,94510
parking,Unnamed,38.0869384,-122.1127222,
parking,Julia Pfeiffer Burns State Park,36.1588914,-121.6692249,93920
supermarket,Monte Vista Food Center,37.8254386,-122.2534898,94611
hotel,Calmada Private Resort & Boutique Hotel,34.1876423,-116.4999802,92268
parking,Unnamed,36.9349303,-121.7962511,95019
parking,Unnamed,38.297486,-122.286468,94559
parking,Unnamed,38.297346,-122.287806,94559
parking,Unnamed,39.269814,-121.025554,95959
parking,Unnamed,39.269034,-121.027104,95959
parking,Unnamed,39.269713,-121.027281,95959
parking,Willo parking,39.268343,-121.05672,95959
parking,Unnamed,39.266035,-121.032897,95959
parking,Unnamed,39.266512,-121.030983,95959
parking,Unnamed,39.286075,-120.944095,
parking,Unnamed,39.286991,-120.945364,
supermarket,La Hacienda Supermarket,37.5761369,-122.3205471,94401
supermarket,Safeway,37.336179,-122.0347351,95014
parking,Unnamed,37.4461756,-121.8558473,95035
parking,Broadway Market Parking,38.275385,-122.460615,95476
parking,Broadway Market Parking,38.275698,-122.460788,95476
parking,Unnamed,38.296395,-122.475102,95476
parking,Unnamed,38.293022,-122.474702,95476
parking,Unnamed,38.29777,-122.475923,95476
parking,Unnamed,38.298747,-122.475778,95476
parking,LMB Upper Parking,37.0115234,-121.933661,95073
parking,Unnamed,41.9772118,-122.4426977,
parking,Unnamed,38.4959158,-123.0053232,95446
hotel,Unnamed,35.1639178,-120.6885852,93449
parking,Unnamed,37.1024094,-122.1217967,95007
parking,Unnamed,33.5328643,-117.3927965,
parking,Unnamed,33.5322954,-117.3929903,
parking,Parks Creek Trailhead,41.3428729,-122.5377022,
hotel,Unnamed,33.9824083,-118.4575418,90292
hotel,Unnamed,35.1318967,-120.6057351,93433
hotel,Inn at Avila Beach,35.178504,-120.731961,93424
parking,Unnamed,37.5241511,-122.5163805,94038
parking,Unnamed,35.1908617,-120.4571737,
parking,Unnamed,35.2062472,-120.4633672,
supermarket,Nature's Health Food and Cafe,33.814211,-116.528506,92264
parking,Unnamed,37.0157291,-122.200621,95017
parking,Unnamed,37.2351739,-122.0619219,
parking,Unnamed,38.5519376,-122.5219387,
parking,Unnamed,38.5714442,-122.5549332,94515
parking,Unnamed,34.2081976,-118.8826004,91360
parking,Unnamed,34.2088298,-118.8839335,91360
parking,Unnamed,34.2072782,-118.8840935,91360
parking,Unnamed,34.2082264,-118.8840354,91360
parking,Unnamed,34.2082132,-118.8814283,91360
parking,Unnamed,34.2064242,-118.8844286,91360
parking,Unnamed,34.2085258,-118.8846738,91360
parking,Parking Structure (56),32.8162633,-117.0028122,92020
parking,Unnamed,37.2497084,-122.0693871,
parking,Unnamed,37.2505342,-122.0683149,
parking,Unnamed,37.2507564,-122.0686886,
supermarket,State Foods Supermarket,36.9854987,-120.6384304,93620
supermarket,Star Super Market,36.7520544,-120.3880001,93640
supermarket,Garcia's Market,36.7485731,-120.3876976,93622
parking,Unnamed,34.040288,-116.1977645,
supermarket,Super Save,36.9752393,-120.0581264,93638
parking,Unnamed,37.3382982,-119.0039151,93642
supermarket,Albertsons,35.125645,-118.469385,93561
supermarket,Superior (market),33.8556925,-118.1667143,90805
supermarket,Arteaga's,37.9325555,-121.2838261,95206
supermarket,La Superior,37.972345,-121.2678189,95205
parking,Unnamed,38.5511632,-122.5171733,94574
parking,Unnamed,34.1250847,-116.7668805,
hotel,Unnamed,35.180017,-120.735416,93424
supermarket,99 Ranch Market,37.5535619,-122.2571467,94404
supermarket,Bel Air,38.6252538,-121.2635602,95670
supermarket,Davis Ranch,38.4935621,-121.1695904,95683
supermarket,The Farm Bowl,38.0202712,-121.2035253,
supermarket,Sprouts Farmers Market,32.7943974,-117.192527,92117
parking,Unnamed,37.4448619,-122.402819,94019
parking,Unnamed,37.2946801,-122.0816201,
parking,Unnamed,33.1154892,-117.2622737,92009
parking,Unnamed,37.7829679,-119.0725943,93529
parking,Bermgarten Parking,39.3363841,-120.2222076,95161
parking,Unnamed,37.8767437,-119.3942142,
supermarket,The Kebab Shop,32.9190676,-117.1215733,92126
hotel,Unnamed,35.5575734,-121.077848,93428
parking,Unnamed,37.8698358,-119.6490209,
supermarket,Loma Linda Market Juice Bar,34.0508525,-117.2595942,92350
supermarket,Fresco Community Market,34.1048359,-118.183443,90042
supermarket,Cost Less Food,37.776124,-120.854776,95361
supermarket,Big Boy,37.794941,-120.985255,95320
parking,Glacier Meadows Trailhead,39.3406918,-120.3399842,95724
hotel,Burton Inn,35.5624384,-121.0819684,93428
hotel,Unnamed,35.562733,-121.0824605,93428
parking,Unnamed,40.9516677,-123.6260252,95573
parking,Unnamed,41.5102019,-122.3670097,
parking,Unnamed,40.3658166,-120.6518545,96130
parking,Unnamed,40.4820634,-122.3016511,96007
parking,Unnamed,40.524849,-122.3738194,96001
parking,Unnamed,40.087508,-120.9144419,95934
parking,Unnamed,39.5323186,-121.4720981,95966
parking,Unnamed,39.7172352,-120.5478839,96106
parking,Unnamed,39.0014741,-122.7523566,95451
parking,Unnamed,38.9517012,-122.7188232,95451
parking,Unnamed,39.0263187,-121.0467309,95602
parking,Unnamed,38.9659918,-121.0709884,95602
parking,Unnamed,38.6811234,-121.0475448,95762
parking,Unnamed,38.7005496,-121.0093148,95672
parking,Unnamed,38.7250861,-121.1952114,95746
parking,Unnamed,38.6929577,-121.3240399,95842
parking,Unnamed,38.4345827,-122.8447731,95444
parking,Unnamed,38.3141639,-122.5003215,95476
parking,Unnamed,38.2912057,-122.0724219,94534
parking,Unnamed,38.2565786,-122.1703558,94534
parking,Unnamed,38.0161184,-122.6618664,94963
parking,Unnamed,37.9097488,-122.5381998,94941
parking,Unnamed,38.2567455,-120.3274177,95223
parking,Unnamed,38.1630058,-120.4090916,95247
parking,Unnamed,38.0107285,-120.303822,95370
parking,Unnamed,34.433153,-119.6156249,93108
parking,Unnamed,34.4350031,-119.6105419,93067
parking,Unnamed,34.6010891,-118.0644033,93550
parking,Unnamed,34.8803281,-116.957971,
parking,Unnamed,34.5777336,-117.3587428,92368
parking,Unnamed,34.4918016,-117.2669178,92395
parking,Unnamed,34.4473962,-117.2368069,92308
parking,Unnamed,34.5283691,-117.2267954,92307
parking,Unnamed,33.7852406,-118.2897566,90744
parking,Unnamed,34.1403905,-117.9465874,91010
supermarket,Sprouts Farmers Market,38.6193357,-121.3983183,95821
parking,Unnamed,34.045536,-117.7693363,91766
parking,Unnamed,34.1372762,-117.7845978,91773
parking,Unnamed,34.1386266,-117.7674553,91750
parking,Unnamed,34.1482648,-117.7535634,91750
parking,Unnamed,34.1527358,-117.3206828,92405
parking,Unnamed,34.0710024,-117.3593163,92316
parking,Unnamed,33.9856732,-117.4586015,92509
parking,Unnamed,33.8069233,-117.5361751,92883
parking,Casta del Sol Golf Course,33.6170068,-117.6494139,92692
hotel,La Paloma,33.3419725,-118.3283672,90704
parking,Unnamed,33.7220141,-116.9898808,92543
parking,Unnamed,32.771064,-117.0172736,91941
parking,Unnamed,33.7987583,-116.4326692,92276
parking,Unnamed,38.7741695,-121.3663394,95747
parking,Unnamed,41.5267733,-124.0792363,45548
parking,Unnamed,37.7595216,-120.8423777,95361
parking,Unnamed,36.3731199,-121.9060298,
parking,Unnamed,36.3800827,-121.9019101,
parking,Unnamed,36.3831312,-121.9012556,
parking,Unnamed,36.4021109,-121.9076466,
parking,Unnamed,36.4011908,-121.9067099,
parking,Unnamed,36.3910973,-121.9019049,
parking,Unnamed,36.3879145,-121.9011791,
parking,Unnamed,36.3857343,-121.9006513,
parking,Unnamed,36.3663577,-121.899898,
parking,Unnamed,36.3691321,-121.9018557,
parking,Unnamed,36.3589124,-121.9004617,
parking,Unnamed,36.3573324,-121.9028167,
parking,Unnamed,36.3562055,-121.902358,
parking,Unnamed,36.3455182,-121.8939224,
parking,Unnamed,36.3444086,-121.8920031,
parking,Unnamed,36.3476735,-121.8962154,
parking,Unnamed,36.3482377,-121.8965563,
parking,Unnamed,36.3509947,-121.8979433,
parking,Unnamed,36.3519767,-121.8977361,
parking,Unnamed,36.3317836,-121.8876654,
parking,Unnamed,37.3299539,-118.5793141,
parking,Unnamed,37.3274614,-118.5757057,
supermarket,Smart & Final,33.8347955,-118.117734,90713
supermarket,Sprouts Farmers Market,33.8356956,-118.117745,90713
supermarket,Lucky,37.3291817,-121.966786,95050
supermarket,Unnamed,40.5308106,-121.5622266,
parking,Unnamed,38.796646,-119.9741497,
parking,Unnamed,38.8646394,-119.9896671,96150
supermarket,Save Mart,35.1227278,-118.468393,93561
supermarket,Grocery Outlet,36.7397308,-119.781514,93721
parking,Middle Bar Trail Access Point,38.2986194,-120.7502644,
parking,Unnamed,33.9458299,-118.3907534,90009
parking,Cooks Mesa Mokelumne Coast to Crest Trial Acess,38.2182193,-120.884437,95225
parking,Camanche South South Shore Staging Area,38.2137889,-120.9170492,95225
parking,Campo Seco Staging Area,38.2301159,-120.8308701,
parking,Rich Gulch Trail Access Point,38.2860171,-120.7572811,
parking,Unnamed,37.9080194,-122.3442712,94804
supermarket,Hilmar Market,37.4108749,-120.848937,95324
supermarket,Westside Grocery,37.3606024,-120.7403361,95334
parking,Donner Summit California State Snopark,39.33911,-120.343283,95724
hotel,Oasis Villa Resort,33.795619,-116.5022151,92264
parking,Unnamed,32.6471668,-116.9311347,91915
supermarket,FoodMax,37.6877467,-122.1352281,94580
parking,Parking Terraces,37.1572245,-122.2032424,
parking,Unnamed,37.1590566,-122.2057036,
parking,Unnamed,36.072382,-121.5966377,
parking,Unnamed,36.9809223,-122.0478994,95064
parking,Unnamed,36.9809887,-121.9200298,95003
parking,Unnamed,36.9811043,-121.9197134,95003
parking,Unnamed,36.9814335,-121.9213314,95003
parking,Unnamed,36.9815199,-121.9191343,95003
parking,Unnamed,36.9816602,-121.9208852,95003
parking,Unnamed,36.9818401,-121.9205071,95003
parking,Unnamed,36.9819092,-121.9217958,95003
parking,Unnamed,36.9821271,-121.9224591,95003
parking,Unnamed,36.9729116,-121.9108581,95003
parking,Unnamed,36.9738477,-121.9121101,95003
parking,Unnamed,36.9741343,-121.9120391,95003
parking,Unnamed,36.9815338,-122.056467,95064
parking,Unnamed,32.8773313,-117.2507982,92093
parking,Unnamed,35.990809,-118.3653913,
supermarket,Pokerville Market,38.4719985,-120.8508113,95669
parking,Unnamed,34.0680432,-118.2702458,90026
supermarket,Save Mart,37.7981463,-121.238931,95337
hotel,Wine and Roses,38.1464315,-121.3073423,95258
parking,Unnamed,36.9792156,-121.9986519,95062
parking,Gumboot PCT Parking,41.2086089,-122.5194527,
parking,Unnamed,36.2887077,-121.8511847,
supermarket,Viva,38.6448411,-121.4586691,95838
supermarket,Besan’s International Market,37.6238849,-122.411046,94066
parking,Gray Pine Flat,38.7140376,-123.031277,
parking,No Name Flat,38.7143057,-123.035709,
parking,Lone Rock,38.7152711,-123.045991,
supermarket,Ralphs,33.1306589,-117.166728,92078
parking,Unnamed,39.5080178,-123.5163955,
parking,Lower Gorge Parking,37.498273,-118.5654656,
parking,Unnamed,41.2751237,-122.3440492,
parking,Unnamed,41.2785168,-122.343061,
parking,Unnamed,41.2773396,-122.3428357,
parking,Unnamed,41.2770574,-122.3452067,
parking,Historic Life-Saving Service Cemetery Parking,38.094302,-122.9292568,94937
parking,Unnamed,35.3675539,-120.8665151,93442
parking,Unnamed,35.4492277,-120.9267097,93430
parking,Unnamed,35.4511383,-120.9436994,93430
parking,Unnamed,35.4536282,-120.9509726,93430
parking,Unnamed,35.4550852,-120.9550396,93430
parking,Unnamed,35.4586129,-120.9615038,93430
parking,Unnamed,35.45439,-120.9539261,93430
supermarket,JT Trading Post,34.1352165,-116.3168797,92277
hotel,Unnamed,34.1345354,-116.31165,92295
parking,Unnamed,38.7834239,-121.2139612,95677
supermarket,Tahoe Central Market,39.2365317,-120.0236702,96143
parking,Unnamed,38.781319,-121.2051694,95677
parking,Unnamed,41.318407,-122.3065779,96067
hotel,Unnamed,32.6408101,-117.097487,91910
parking,Lot D,38.5309812,-121.6251931,
parking,Unnamed,35.6511157,-121.2099435,
parking,Unnamed,35.675931,-121.2845367,
parking,Unnamed,37.3127992,-122.0896322,94024
parking,Unnamed,38.666518,-121.1631318,95630
parking,Unnamed,37.8995587,-121.8733991,94157
parking,Unnamed,34.2387614,-116.9488657,92333
supermarket,Pacifica Farmers Market,37.6508172,-122.4917934,94044
supermarket,Sun Valley Market,37.613574,-122.4863381,94044
supermarket,Sun Valley Fine Food,37.5828389,-122.4753837,
parking,Unnamed,39.1988481,-123.7673942,95410
parking,Unnamed,35.7651044,-121.3202195,
supermarket,Stater Bros.,34.0715538,-117.1401034,92374
parking,Unnamed,39.3408279,-120.3476353,95724
supermarket,Grocery Outlet,37.9755488,-120.378671,95370
supermarket,Safeway,37.9737519,-120.3620445,95370
parking,Unnamed,37.6445989,-122.4929931,94044
supermarket,best buy market,36.3134312,-119.3059128,93279
parking,Disneyland Hotel Service Parking,33.8084037,-117.926852,92802
supermarket,Walmart Neighborhood Market,34.1343361,-117.241934,92404
parking,Unnamed,37.6357855,-122.4822062,94044
supermarket,Super Mercado,37.6100056,-120.9940854,95358
parking,Unnamed,39.2630178,-120.6567936,95715
parking,Unnamed,38.7405065,-121.2298759,95661
supermarket,Valu Food Wholesalers,34.1149585,-118.0730234,91780
supermarket,Mr. G's Country Store,36.5429603,-119.831597,93609
supermarket,Ralphs,34.1053054,-118.0640557,91780
parking,Unnamed,37.667074,-122.0952121,94541
supermarket,6001 California Market (Appel & Dietrich),37.7839057,-122.4819672,94121
parking,Unnamed,41.8117587,-124.1085365,
parking,Unnamed,41.8020675,-124.0850664,
parking,Rest Area CA-1,35.8143765,-121.3590278,
supermarket,Carniceria El Brinquito,38.3198633,-122.4862731,95476
supermarket,Carniceria La Favorita,38.3186485,-122.4852867,95476
parking,Miwok Park,38.1152571,-122.6040769,94947
parking,Unnamed,40.4981043,-121.4277073,
parking,Curtz Lake Trailhead,38.7268734,-119.7899837,96120
hotel,Hotel & Cabins office,37.1110124,-119.319566,93664
parking,Kareem Lot / The Forum,33.9574427,-118.3401551,90292
supermarket,Maxim Market,37.334235,-121.856191,95122
supermarket,Story Supermarket,37.3329372,-121.85246,95122
supermarket,Good Luck Market,37.7427662,-122.479296,94116
parking,Unnamed,37.3700686,-122.0810099,94040
mall,Gateway Towne Center,33.8780513,-118.2198945,90220
parking,Unnamed,39.3082791,-122.7146816,
parking,Fishing pier access,39.3034342,-122.7088873,
parking,Unnamed,39.3036879,-122.713368,
parking,Unnamed,36.620062,-118.8092622,
supermarket,Tân Lập Supermarket,37.309198,-121.8474255,95111
parking,Unnamed,35.5936334,-121.1114098,93452
parking,Unnamed,35.5946233,-121.1095238,93452
parking,Unnamed,35.5993223,-121.1244929,93452
supermarket,Sierra City Store,39.565626,-120.63623,96125
parking,Unnamed,36.7106858,-118.8170111,
supermarket,Bharat Bazaar,37.3673611,-121.9972717,95051
hotel,Unnamed,32.7896603,-117.2527155,92109
supermarket,Đại Thành Supermarket,37.3303684,-121.88439,95113
supermarket,Aptos Natural Foods,36.9817188,-121.9106418,95003
parking,Unnamed,33.8471955,-118.1174126,90713
supermarket,Grocery Outlet,34.181428,-118.874504,91360
mall,The Shops at Heavenly Village,38.9561222,-119.9423711,96151
supermarket,Lucky,37.3230314,-121.827985,95122
supermarket,Lion Supermarket,37.3211458,-121.823828,95122
supermarket,Sprouts Farmers Market,37.3094073,-121.810676,95121
supermarket,Maxim Market,37.3099684,-121.8111454,95121
supermarket,Nob Hill,38.3241936,-122.2859373,94558
parking,Unnamed,37.0850225,-122.0753754,95005
supermarket,Seoul Korean Market,34.2189597,-118.230913,91020
supermarket,Liquors,34.2051835,-118.2245819,91020
parking,Unnamed,33.66983,-116.6743715,92561
parking,Unnamed,40.0326086,-122.1173598,96090
supermarket,Raley's,38.5829954,-121.514748,95605
supermarket,Arteaga's,38.5904104,-121.5256748,95605
supermarket,Grocery Outlet,37.9669929,-121.2735073,95205
supermarket,Yolo Fruit Stand,38.5615898,-121.6441703,95618
parking,Unnamed,39.2890623,-120.6916297,95715
parking,Bear Creek Trailhead,39.3097624,-120.6652792,95715
supermarket,Holiday Market,40.3074201,-121.2298894,96020
supermarket,Walmart Neighborhood Market,33.833236,-117.995057,92801
parking,Unnamed,38.0642974,-122.6469877,
parking,Unnamed,38.0588885,-122.6550095,94963
parking,Office Parking,34.3753498,-118.5247186,91321
parking,Heritage Junction Parking,34.3748887,-118.5238622,91321
parking,Unnamed,33.8828874,-117.9521568,92833
supermarket,Superior Super Warehouse,34.0220378,-117.9582938,91745
parking,Unnamed,33.7890368,-117.035503,92582
supermarket,Gazzail's Supermarket,37.7677359,-122.1774582,94615
parking,Unnamed,35.5280474,-120.6804741,93465
hotel,Tradewinds Airport Hotel,33.9451952,-118.3485826,90304
hotel,Unnamed,35.448054,-120.9034591,93430
parking,Unnamed,38.1745479,-122.6101118,
parking,Unnamed,38.1777056,-122.6020401,
parking,Unnamed,34.0335002,-117.2084177,92318
supermarket,Ralphs,34.1872297,-118.912394,91320
supermarket,Trader Joe's,34.2190603,-118.869057,91360
supermarket,Unnamed,34.186352,-118.9257244,91320
supermarket,Rubin's Market,37.749437,-122.413623,90103
supermarket,La Princesa Market,36.6794137,-121.6050655,93905
supermarket,El Rey Market,36.6768911,-121.6123431,93905
supermarket,Foods Co,36.6715281,-121.625783,93905
supermarket,Oak Park Market,36.7337604,-121.6370489,93906
supermarket,Super King,38.0080914,-121.310022,95207
parking,Unnamed,36.9997035,-122.0527585,95064
parking,Unnamed,36.999741,-122.0520447,95064
supermarket,Food 4 Less,34.0419614,-118.3100256,90019
supermarket,Sebastopol Community Market,38.403178,-122.8200165,95472
supermarket,F.E.E.D. Sonoma,38.4033929,-122.8213721,95472
parking,Unnamed,41.2899786,-122.2917476,96067
parking,Unnamed,33.7984178,-117.9161041,92802
supermarket,Fil Am Oriental Mart,33.8011662,-116.4577073,92234
supermarket,Unnamed,34.1861507,-118.9292867,91320
supermarket,Walmart Supercenter,33.0691844,-117.266312,92024
supermarket,El Nopalito,33.0370247,-117.2801537,92007
parking,Unnamed,34.545689,-119.7755074,
supermarket,Trader Joe's,34.1930814,-118.6255657,91307
parking,Unnamed,38.5522515,-121.7081936,95618
parking,Unnamed,33.7464498,-116.7108842,92549
parking,Unnamed,38.0239904,-119.253751,
hotel,Hotel Angels,9.9317317,-84.0680421,10104
hotel,Abril Hostel,9.9329927,-84.0655029,10101
hotel,Ara Macao Inn,9.9317302,-84.0669027,10104
hotel,Casa 69,9.9316803,-84.0676266,10104
supermarket,Good Neighbor European Deli Market,38.6592576,-121.3510341,95841
parking,Unnamed,37.2562111,-122.3703883,94060
parking,Unnamed,37.6198251,-119.0068541,93546
parking,Unnamed,37.9300583,-119.1538463,93541
hotel,Marriott's Shadow Ridge I-The Villages,33.7829534,-116.3845562,92211
hotel,Marriott's Shadow Ridge II - The Enclaves,33.7823649,-116.384363,92211
parking,Unnamed,38.5669977,-120.4413133,
parking,Unnamed,38.4906279,-120.2921593,
parking,Unnamed,38.9706751,-120.3908448,
parking,Unnamed,39.0510173,-120.4683877,
parking,Unnamed,39.0672923,-120.4402822,
parking,Unnamed,39.0736044,-120.4149568,
parking,Unnamed,39.0005948,-120.3146876,
parking,Unnamed,38.9996074,-120.3225812,
parking,Unnamed,38.9994868,-120.3260139,
parking,Unnamed,38.9932457,-120.3285534,
parking,Unnamed,38.8465458,-120.2367073,
parking,Unnamed,38.7064759,-120.0883019,95646
parking,Unnamed,38.7061716,-120.0882638,95646
parking,Unnamed,37.6545496,-118.8350208,
parking,Unnamed,37.6564943,-118.8320301,
parking,Unnamed,38.8898509,-120.3862791,
parking,Unnamed,38.8700613,-120.4413637,
parking,Unnamed,38.8430921,-120.4076523,
parking,Unnamed,38.8974751,-120.283093,
parking,Unnamed,38.8198262,-120.3165556,
parking,Unnamed,38.8199892,-120.3146978,95720
parking,Unnamed,38.8316498,-120.3492587,
parking,Unnamed,38.9419918,-120.512707,
parking,Unnamed,39.0645549,-120.5611937,
parking,Unnamed,38.9460338,-120.3867379,
parking,Unnamed,39.1238641,-120.4243143,
parking,Unnamed,39.1240272,-120.4251091,
parking,Unnamed,39.123512,-120.4242817,
parking,Unnamed,38.9101966,-120.6620954,
parking,Unnamed,38.7537833,-120.2665323,95720
supermarket,Vons,36.795317,-119.68425,93611
supermarket,SaveMart,36.8101207,-119.6737704,93619
parking,Unnamed,38.7733323,-120.2894272,95720
parking,Unnamed,38.7687446,-120.4472756,
parking,Unnamed,38.7699327,-120.4478336,
parking,Unnamed,34.1213612,-117.7853112,91750
parking,Unnamed,38.951569,-120.0860654,
parking,Unnamed,38.9627148,-120.0794319,
parking,Unnamed,38.9334282,-120.0455145,96158
parking,Unnamed,38.9253316,-122.3313185,
parking,Unnamed,38.938892,-122.3390922,
parking,Unnamed,38.0958168,-122.8872751,94937
parking,Turkey Flats,33.9016292,-115.8348914,
parking,Unnamed,39.4375543,-122.9688766,95649
parking,Unnamed,37.4510045,-119.6363012,
parking,Unnamed,37.3975722,-119.565068,
parking,Unnamed,37.3924381,-119.587224,
parking,Unnamed,37.3491259,-119.5913181,93604
parking,Unnamed,37.2938951,-119.5320934,93669
parking,Unnamed,37.2794866,-119.515454,93643
parking,Unnamed,37.3986849,-119.5100015,
parking,Mammoth Trailhead Parking Lot,37.5454796,-119.2295589,
parking,Unnamed,37.5477516,-119.2645524,
parking,Unnamed,37.3519086,-119.1759159,
parking,Unnamed,37.3537472,-119.2241731,
parking,Unnamed,37.3814371,-119.2330715,
parking,Unnamed,37.4149786,-119.1747402,
parking,Unnamed,36.2081359,-121.7375256,
parking,Unnamed,36.2083794,-121.7353496,
parking,Unnamed,36.1345447,-121.6466322,
parking,Unnamed,36.0840384,-121.4009531,
parking,Unnamed,40.9772559,-121.5580159,96016
parking,Unnamed,35.9040476,-121.4611993,
parking,Unnamed,35.9055687,-121.4622604,
parking,Unnamed,35.8360029,-121.3918786,
parking,Blackwood Canyon SNO-Park,39.1140331,-120.158582,96141
parking,Unnamed,35.7189827,-118.4348601,93285
hotel,Residence Inn San Diego Downtown/Bayfront,32.716881,-117.172031,92101
supermarket,San Marcos Market,33.1436138,-117.1658426,92096
supermarket,Lucky,37.6822024,-122.127139,94580
parking,Unnamed,35.8521347,-118.5169532,
supermarket,Ralphs,34.257992,-118.5983606,91311
parking,Unnamed,34.2764114,-118.8883504,93021
parking,Unnamed,37.3146705,-118.1811811,
parking,Unnamed,38.1226732,-122.2590716,94590
parking,Unnamed,34.5797849,-119.9575337,
parking,Unnamed,34.0350754,-116.1079419,
parking,Unnamed,33.8740625,-118.0932937,90703
parking,Unnamed,37.5156903,-118.7125123,
supermarket,Pala Mesa Market,33.3326131,-117.1620916,
parking,Unnamed,37.8096157,-122.2015918,94602
supermarket,Cardenas,33.5548652,-117.19527,92562
parking,Unnamed,34.6488237,-119.3853635,
parking,Unnamed,34.6647435,-119.3747818,
parking,Unnamed,34.6639249,-119.3732187,
parking,Unnamed,34.6607568,-119.375563,
parking,Unnamed,34.6579549,-119.3777356,
hotel,Unnamed,33.1643694,-117.344145,92008
hotel,The Westin Carlsbad Resort & Spa,33.1295138,-117.3089164,92008
parking,Unnamed,33.823811,-116.5314457,99262
parking,Unnamed,34.0087567,-118.4130482,90066
hotel,Unnamed,32.8521688,-117.2571827,92037
parking,Unnamed,34.0442125,-117.3320897,92324
parking,Unnamed,33.985371,-117.3064083,92521
parking,Unnamed,33.9810367,-117.2902662,92557
parking,Unnamed,33.9660031,-117.2653801,92557
parking,Unnamed,33.9677273,-117.2658869,92557
parking,Unnamed,33.2235283,-116.7527911,92070
parking,Unnamed,33.2252635,-116.7544309,92070
parking,Unnamed,33.2287682,-116.7576858,92070
parking,Unnamed,33.2525773,-116.7615689,
parking,Unnamed,33.2524042,-116.7596007,
hotel,Unnamed,34.1927085,-118.5715064,91371
parking,Unnamed,41.6996387,-123.0428309,96085
parking,Unnamed,32.7994246,-116.759759,91901
parking,Unnamed,33.9274321,-117.3968616,92506
parking,Unnamed,38.7738579,-121.3664948,95747
hotel,Century Palm Springs,33.8141509,-116.5349703,99262
hotel,Palm Springs Hotel & Residences / The Resort / Mondrian,33.8266742,-116.53261,92262
hotel,Villa Rosa Inn,33.8032988,-116.5406936,99262
hotel,Casitas Laquita Inn,33.8015872,-116.5422508,92234
parking,Unnamed,37.3264477,-121.8826159,95192
supermarket,Walmart Neighborhood Market,35.3533911,-118.947655,93307
parking,Public Parking,34.0422503,-118.253259,90014
hotel,oceana,34.0214108,-118.5062859,90402
hotel,Venice Admiral Suites,33.9963389,-118.4810035,90291
hotel,Glendeven Inn & Lodge,39.2781046,-123.7903722,95456
parking,Unnamed,33.8291956,-118.0421797,90630
parking,Unnamed,33.8304211,-118.0421046,90630
parking,Unnamed,41.3633161,-124.0240716,95555
hotel,Unnamed,38.9596971,-119.9472327,96151
hotel,Parkside Lone Pine Lodge,38.9608731,-119.9466554,96151
hotel,Tahoe Keys Resort,38.9310462,-120.0049841,96152
supermarket,Smart & Final,35.1221903,-120.6057461,93420
hotel,SpringHill Suites San Diego Downtown/Bayfront,32.7168861,-117.17178,92101
supermarket,Bazaar,34.1792692,-118.5358,91356
hotel,租房子,33.9870413,-117.8925164,91748
hotel,Quality Inn Near Long Beach Airport,33.7902851,-118.1543377,90804
hotel,Unnamed,33.8059011,-117.9142604,92802
hotel,Unnamed,33.884245,-118.3957762,90266
hotel,Unnamed,33.8991744,-118.4169313,90266
supermarket,County Market,37.9946448,-121.781537,94531
supermarket,Supermercado Mi Pueblo,37.7795816,-122.2292107,94601
supermarket,Whole Foods Market,38.4423572,-122.6745352,95405
hotel,the vendange,36.5626695,-121.9154584,92921
hotel,Unnamed,32.7588903,-117.1821737,92108
hotel,Unnamed,32.7610029,-117.1731873,92103
hotel,Unnamed,32.7592826,-117.1690262,92108
hotel,Unnamed,32.7746343,-117.1421177,92108
hotel,Unnamed,32.7851843,-117.2532726,92109
hotel,Unnamed,33.9839067,-118.4576632,90292
parking,Teutonia Peak Trailhead,35.3162637,-115.5525264,
parking,Unnamed,40.9013688,-124.0690645,95521
supermarket,Denise's Farmers Market,37.7786675,-121.317455,95300
supermarket,Casa Maria,37.753871,-122.416268,90103
parking,Unnamed,33.8687212,-118.1163005,90713
supermarket,Greenspot Market,34.0712263,-117.0993453,92359
parking,Unnamed,36.9908597,-122.0030887,95062
parking,Unnamed,36.9912976,-122.0033267,95062
parking,Unnamed,37.1757455,-122.2076292,
supermarket,Santa Fe,36.6941688,-121.6529657,93906
supermarket,Superior Grocers,34.0883604,-117.9590756,91706
parking,Joe's Parking,34.0415648,-118.2523435,90014
mall,Monterey Shore Shopping Center,33.8030201,-116.3908315,92211
parking,Southern California Flower Market Parking Garage,34.0410904,-118.250186,90014
hotel,Beachside Inn,38.9379724,-120.039446,96158
supermarket,El Super,34.0867188,-117.9664702,91706
hotel,Dorrington Hotel,38.301019,-120.2771625,95223
parking,Unnamed,34.0448556,-117.2131914,92318
parking,Unnamed,34.0444063,-117.2129602,92373
parking,Unnamed,34.044763,-117.2137407,92318
parking,Unnamed,34.0461909,-117.2161279,92318
parking,Unnamed,34.0461465,-117.2157014,92318
parking,Unnamed,34.0461865,-117.2153339,92318
parking,Unnamed,34.0460442,-117.2145011,92318
parking,Unnamed,34.0462231,-117.2142597,92318
parking,Unnamed,34.0463098,-117.2144005,92318
parking,Unnamed,34.045562,-117.214025,92318
supermarket,La Reina Supermarket,37.8125392,-121.2767898,95330
supermarket,Sierra Hills Market,38.1378861,-120.457094,95247
supermarket,Sierra Hills Natural Foods,38.13822,-120.4574172,95247
parking,Unnamed,34.2840576,-117.3528374,92325
parking,Unnamed,34.2751459,-117.3089332,92322
parking,Unnamed,34.2766714,-117.3129464,92322
parking,Unnamed,34.273473,-117.3012635,92322
parking,Unnamed,34.3051258,-117.3106186,92325
supermarket,Dehoff's Key Market,37.466883,-122.2417672,94062
supermarket,El Charro Supermarket,37.7788521,-122.2250463,94601
parking,Unnamed,40.3029144,-120.3670257,
mall,Price Center,32.6831708,-115.5014924,92231
mall,Unnamed,32.6933943,-115.4841378,92231
supermarket,Trader Joe's,33.8185754,-118.386094,90277
supermarket,Numero Uno Markets,34.04638,-118.2836939,90075
supermarket,Food 4 Less,32.6804215,-115.5015159,92231
hotel,Hotel 1550,37.6120095,-122.402696,94066
supermarket,Rays Food Place,41.4573132,-122.8938868,96027
supermarket,Mean Gene's Market,41.5512207,-122.9020127,96037
supermarket,Seaid Valley Store,41.8421928,-123.1962556,96086
supermarket,Ray's Food Place,41.0630259,-123.68692,
hotel,Tsewenaldin Inn and Lounge,41.0623363,-123.6859569,
supermarket,Wiley's Supermarket,40.5536542,-123.1800036,96041
supermarket,Parry's Market,41.7998738,-123.376844,
supermarket,Orleans Market,41.3020359,-123.5398022,95556
supermarket,Trinity Center General Store,40.9844935,-122.7052492,96091
supermarket,Erewhon,33.9897279,-118.4622025,90291
supermarket,Vallarta,34.083305,-117.968609,91706
parking,Unnamed,38.1308559,-122.4737031,
parking,Unnamed,37.6529533,-119.0007078,93546
parking,Unnamed,38.4672309,-123.0115548,95462
parking,Unnamed,40.3418397,-123.9370658,95571
supermarket,La Amapola Market,34.0705005,-117.934355,91790
hotel,Mayacamas Ranch,38.5708054,-122.6531112,
parking,Unnamed,34.2033818,-118.2959734,91501
parking,Unnamed,38.3388326,-122.3898558,95452
parking,Unnamed,39.037257,-120.1263069,96142
hotel,Shelter Cove Beachcomber Inn,40.0250601,-124.0672284,95589
parking,Unnamed,40.6970548,-124.2755283,95551
supermarket,Guadalajara Market,37.3970986,-122.0232823,94085
parking,Unnamed,32.7393291,-114.8849228,
parking,Unnamed,33.3280148,-115.9460122,92275
hotel,Lawrence Motel,33.9940694,-118.4721511,90291
hotel,Arrowhead Pine Rose Cabins,34.2382347,-117.2369441,92392
parking,Unnamed,38.8913549,-121.0757612,95603
supermarket,Grocery Outlet,38.5096119,-121.5412946,95831
supermarket,Claros Italian Market,34.1401894,-118.0307174,91006
parking,Unnamed,32.73139,-117.2066429,92147
parking,Overflow Parking,33.1761679,-115.61497,
supermarket,Boron Food Mart,34.9998474,-117.6490823,93516-1645
hotel,Unnamed,34.4341705,-119.7180359,93101
parking,Unnamed,33.3455638,-116.9171118,
supermarket,rose market,37.3126236,-122.0334083,95014
supermarket,Nugget Markets,37.8992939,-122.5002025,94920
parking,Unnamed,40.5327625,-121.5635071,
supermarket,Vicente Foods,34.0524007,-118.4738424,90049
parking,Unnamed,37.8607357,-119.434798,
supermarket,Market,40.266463,-123.8727712,95554
parking,Unnamed,34.301177,-116.8854814,92314
parking,Unnamed,34.3003636,-116.8815951,92314
supermarket,Trader Joe's,37.937841,-122.5149545,94904
supermarket,Woodlands Market,37.9522715,-122.550052,94904
parking,Unnamed,37.2740936,-122.2852649,94021
supermarket,Foods Co,37.9345786,-122.356971,94804
supermarket,Arteagas Food Center,37.3123007,-121.9040832,95125
hotel,Johnny McNally's Lodge,35.9269302,-118.4937392,93238
hotel,Hotel Bellanca,33.344958,-118.3271075,90704
hotel,Pavillon Hotel,33.3430604,-118.324969,90704
hotel,Unnamed,33.9255996,-118.3780931,90304
parking,Unnamed,34.7117344,-120.5784542,93437
parking,Unnamed,34.7113111,-120.5820162,93437
parking,Unnamed,34.7048153,-120.5800903,93437
parking,Unnamed,34.7086983,-120.5909265,93437
parking,Unnamed,34.6769172,-120.4969215,
parking,Unnamed,37.1825179,-122.2097873,
hotel,Hotel la Molienda,7.3474761,-72.9458381,
hotel,Hotel El Santuario,7.3472769,-72.9463092,
supermarket,Lassens Natural Foods & Vitamins,35.2948635,-120.6699953,93407
parking,Gene Marshall Piedra Blanca Trailhead Parking,34.677828,-119.3091552,
supermarket,Las Montañas Supermarket,37.963083,-122.032755,94519
parking,Unnamed,34.5198344,-119.6216685,
supermarket,Bolinas ave Market & Liquor,37.9697304,-122.5613371,94957
parking,Unnamed,37.9429997,-119.0027335,
parking,Parking Lot,33.8003771,-117.9976215,90680
parking,Unnamed,32.9299275,-117.0010835,92145
parking,Unnamed,39.9131682,-120.2063089,
parking,Unnamed,39.9300858,-120.5089372,
parking,Unnamed,37.9358378,-120.3721602,
supermarket,Grocery Outlet,36.6879217,-121.797912,93933
parking,Unnamed,33.3815474,-116.5952391,
supermarket,Solano Market,37.9896271,-122.0414748,94520
parking,Unnamed,39.729093,-121.0124833,95981
mall,Ignacio Center,38.0690002,-122.5409795,94949
mall,Pacheco Plaza,38.0669646,-122.5427713,94949
supermarket,Smart & Final Extra!,33.8718868,-118.3257785,90504
parking,Unnamed,32.8176355,-117.0597692,92120
parking,Unnamed,38.7977038,-121.3329359,95747
parking,Unnamed,38.7981238,-121.3321612,95747
parking,Unnamed,38.7980599,-121.3323112,95747
parking,Unnamed,38.7978137,-121.3327498,95747
parking,Unnamed,38.7978591,-121.3326431,95747
parking,Unnamed,38.7971404,-121.3333149,95747
parking,Unnamed,38.7976402,-121.3333148,95747
parking,Unnamed,38.7971123,-121.3322345,95747
parking,Unnamed,38.7978243,-121.332568,95747
parking,Unnamed,41.1409548,-124.157448,95570
mall,Plaza Bonita,37.9633131,-122.0327683,94519
parking,Unnamed,37.0136376,-122.0360001,95064
parking,Unnamed,33.0701191,-114.6870528,
parking,Unnamed,33.0230814,-114.6095604,
parking,Unnamed,33.9851583,-116.652634,
supermarket,Mi Pueblito Market,37.7528358,-122.4183448,90103
supermarket,Del Valle Produce,38.0343242,-121.9614961,
parking,The Dish parking,37.4106579,-122.1604958,94304
parking,Unnamed,39.8036543,-120.4755666,96122
parking,Unnamed,37.0021634,-122.0142141,95062
parking,Unnamed,37.0016655,-122.0326945,95061
supermarket,Grocery Outlet,37.7797491,-122.487636,94121
supermarket,Walmart Neighborhood Market,34.0012181,-117.8095652,91765
supermarket,Norelpom Natural Foods,40.5542001,-123.1857301,96041
hotel,Marina Del mar condominiums and vacation rentals,33.2041348,-117.3920951,92054
supermarket,Raley's,38.3366712,-121.954517,95687
parking,Unnamed,33.0035519,-117.2724127,92075
parking,Unnamed,36.3956858,-116.838705,
supermarket,Bo's Altadena Market,34.1956892,-118.1503213,91001
hotel,Dancing Coyote Beach,38.0977465,-122.852013,94937
supermarket,Safeway,37.8347336,-122.248783,94611
supermarket,Save Mart,38.0178015,-121.321243,95210
supermarket,Smart & Final Extra!,38.0198085,-121.322596,95210
supermarket,Grocery Outlet,38.2809103,-122.290877,94559
parking,Unnamed,33.1120743,-117.3231455,92011
supermarket,Seaside Market,33.0220057,-117.2820777,92007
supermarket,New California Market,37.7840258,-122.4788199,94121
parking,Unnamed,34.1107086,-117.4440003,92336
parking,Car Parking Juniper,34.1125522,-117.4407368,92336
parking,Unnamed,36.7033152,-119.5495165,93657
parking,Unnamed,32.6828778,-117.001383,91902
parking,Unnamed,36.99636,-122.1731182,95017
parking,Unnamed,38.1715568,-122.2471806,94503
parking,Unnamed,38.1682221,-122.2447983,94503
supermarket,Del Valle Supermercado,37.9542722,-122.0424318,94519
hotel,McGee Creek Lodge,37.585993,-118.7832168,93546
supermarket,Lucky,37.9906166,-121.82394,94509
parking,Unnamed,33.0095179,-117.2672044,92075
supermarket,Silver Creek Community Market,37.2879333,-121.780682,95138
supermarket,Lucky,37.315107,-121.7901923,95148
parking,Unnamed,38.7521239,-121.3087551,95678
supermarket,OakShoreGro,32.6802268,-116.5123297,91906
parking,Unnamed,38.0185282,-121.8202788,94509
parking,Unnamed,33.0989957,-116.469958,
parking,Unnamed,33.096824,-116.4754122,
parking,Unnamed,33.0129843,-116.4536434,
supermarket,Lakshmi Bazaar,37.3088946,-121.9949523,95129
parking,Unnamed,33.029513,-114.6371117,
hotel,Unnamed,36.2876592,-119.1357126,93221
supermarket,Lucky,37.4567615,-122.2297184,94061
supermarket,dd's Discounts,37.3049149,-121.9231145,95126
hotel,Unnamed,35.1249821,-117.9440821,93505
supermarket,Safeway,37.3059439,-121.8906989,95125
supermarket,T&K Food,33.7464425,-117.960637,92844
supermarket,Lucky,38.4426503,-122.6861153,95405
parking,Unnamed,38.6866035,-121.2909961,95610
parking,Unnamed,38.6866091,-121.2908156,95610
parking,Unnamed,38.6864114,-121.2907315,95610
parking,Unnamed,38.6865851,-121.2910812,95610
supermarket,Young's Payless IGA,37.938171,-120.604447,95228
parking,Unnamed,35.0911541,-119.6306364,
parking,Unnamed,37.168145,-122.317658,
supermarket,Smart & Final Extra!,33.9766395,-117.5743409,91752
supermarket,Ralphs,34.1517997,-118.0246613,91006
parking,Unnamed,33.0466214,-116.333011,
parking,Unnamed,33.9530796,-117.5705033,92880
supermarket,Albertsons,33.9594979,-117.591573,92880
supermarket,Ralphs,34.4457583,-118.5521026,91354
parking,Unnamed,33.9859305,-117.5507356,91752
hotel,The Inn at Spanish Bay,36.6121567,-121.9426502,93950
supermarket,Superior,33.7466052,-117.8965434,92703
supermarket,SF Supermarket,33.7611353,-117.956442,92844
supermarket,Bel Air,38.4220022,-121.4454761,95758
parking,Unnamed,37.1011867,-122.27795,
hotel,Hotel Clariana,37.3370316,-121.8881026,95113
hotel,Unnamed,38.5523286,-121.454139,95817
parking,Unnamed,32.8462295,-117.0242987,92071
parking,Unnamed,35.5737428,-115.4317957,
hotel,Northstar Lodge by Welk Resorts,39.275704,-120.1226796,
supermarket,Vons,34.2055759,-118.221471,91020
supermarket,Pavilions,33.6266048,-117.8485703,92660
supermarket,Desert Market,34.8636278,-116.8848053,92327
supermarket,hankook,37.3517059,-122.001804,95051
parking,Unnamed,37.2528363,-122.217908,
parking,Unnamed,37.2525011,-122.2169828,
parking,Unnamed,37.2526038,-122.2166128,
parking,Overflow Parking,37.25483,-122.2164395,
parking,Overflow Parking,37.2560085,-122.2164664,
hotel,Hotel Metropole,33.3445755,-118.32727,90704
supermarket,Lucky,36.5426092,-121.9057099,93921
parking,Unnamed,38.0689317,-120.5402792,95222
parking,Unnamed,38.3399306,-119.8053492,95314
parking,Unnamed,38.3253588,-122.0075565,95696
parking,Unnamed,38.3269581,-122.0075378,95696
mall,Urban Optics,35.2810486,-120.6603616,93410
mall,Mission Mall,35.2796073,-120.6639681,93401
mall,The Network Shopping Center,35.2798562,-120.6635399,93401
parking,Unnamed,38.3108093,-119.7456016,95314
supermarket,Grocery Outlet,38.9206975,-119.992198,96152
supermarket,Walmart,38.704024,-120.8290516,95667
parking,Unnamed,36.9811518,-122.0535102,95064
hotel,Meadow View Inn,38.6105172,-120.5065119,95636
parking,Unnamed,34.0522604,-118.298453,90064
parking,Unnamed,34.0520194,-118.299787,90005
parking,Roble Field Garage,37.4263375,-122.1759606,94305
parking,Unnamed,37.0523677,-118.2268313,
supermarket,ALDI,34.1232915,-118.0564398,91007
hotel,Unnamed,34.4197088,-118.4504344,01387
hotel,Webber Lake Hotel,39.4905481,-120.4151942,
parking,Unnamed,41.2834948,-122.4916414,
parking,Unnamed,37.0620886,-122.1479729,94050
parking,Unnamed,37.0613117,-122.1486354,94050
supermarket,Apni Mandi Farmers Market,37.4184353,-121.874888,95035
supermarket,Groceries,32.709523,-117.063034,92114
supermarket,Ralphs,34.0700195,-118.3436347,90036
supermarket,Food 4 Less,32.7081744,-117.085983,92102
hotel,Airbnb Brita,32.8288569,-117.2660188,92037
parking,Unnamed,37.1193834,-122.1565292,95006
hotel,"Yosemite West Lodging, Inc.",37.651404,-119.7227716,95389
parking,Unnamed,37.4262368,-119.5963264,
supermarket,Los Angeles AFB Commissary,33.9173376,-118.3816915,90245
supermarket,Sprouts Farmers Market,34.0873062,-118.344424,90038
parking,Unnamed,32.8062471,-116.9847745,92020
parking,Parking lot,32.8064272,-116.9862069,92020
supermarket,Grocery Outlet,36.8653702,-119.740142,03619
parking,Unnamed,32.7990695,-117.0360065,92119
parking,Unnamed,32.8035475,-117.0359028,92119
parking,Unnamed,32.7910496,-117.0446951,92119
parking,Unnamed,32.7906911,-117.0470499,92119
parking,Unnamed,32.7908488,-117.049874,92120
parking,Unnamed,41.436714,-122.3853336,96094
parking,Unnamed,41.4394564,-122.3812252,96094
hotel,Deer Mountain Lodge,41.5859902,-122.1937237,
parking,Unnamed,32.7935635,-117.0667399,92120
parking,Unnamed,32.7943337,-117.0657985,92120
supermarket,Dai Thanh Supermarket,37.3967363,-121.873594,95132
parking,Unnamed,40.7290518,-122.8069563,96093
supermarket,Vons,35.1197857,-120.610072,93433
parking,Unnamed,38.7311645,-121.3653103,95843
supermarket,Commissary (military only),36.6448437,-121.8120196,93955
supermarket,Target,33.6495776,-117.8390276,92612
hotel,Olympic Village Inn,39.2001213,-120.239023,96146
supermarket,Trader Joe's,34.0719907,-118.3618302,90036
supermarket,Harvest Market,38.1226968,-122.603007,94945
parking,Unnamed,37.0569784,-121.9615594,95065
parking,Unnamed,35.6688108,-118.3055882,93283
parking,Unnamed,32.8296898,-117.0783193,92124
parking,Unnamed,32.8290927,-117.0770889,92124
parking,Unnamed,32.8289861,-117.0767729,92124
parking,Unnamed,32.9776734,-116.932441,
supermarket,Patel indian Grocery,37.7716357,-121.9474766,94583
parking,Unnamed,37.3919808,-122.2488771,
parking,Unnamed,34.1610062,-118.0689564,91107
hotel,Valentina Suites,35.1428326,-120.641494,93449
supermarket,Trader Joe's,34.0257159,-118.2848075,90089
parking,Plum Canyon Trailhead,33.1103073,-116.4316484,
parking,Unnamed,37.1009177,-122.2780357,
supermarket,Pearson's Grocery,41.1846369,-123.705266,
supermarket,Grocery Outlet,33.3687336,-117.24982,92028
parking,Palmero Parking,37.321446,-121.902133,95110
supermarket,Walmart Neighborhood Market,38.6170218,-121.3990868,95821
supermarket,Trader Joe's,38.6185413,-121.400195,95821
parking,Unnamed,34.0927887,-116.1542433,
parking,Unnamed,32.8027775,-117.026028,92119
parking,Unnamed,41.2835961,-122.3302895,96067
parking,Unnamed,41.2858833,-122.3291712,96067
supermarket,ALDI,32.6508781,-117.0894418,91950
supermarket,On the Blvd Market,34.6980992,-118.1410887,93534
supermarket,Save Mart,38.4807614,-121.410185,95823
parking,Unnamed,32.6302101,-116.9385545,91915
supermarket,Save Mart,38.4248364,-121.373098,95624
parking,Unnamed,36.9958511,-121.9880709,95065
supermarket,Walmart Neighborhood Market,33.9185466,-118.013281,90638
supermarket,Walmart Neighborhood Market,34.2344724,-118.448672,91402
supermarket,Walmart Neighborhood Market,33.8483863,-118.263479,90746
supermarket,Walmart Supercenter,32.962431,-115.545833,92227
supermarket,Walmart Neighborhood Market,33.745448,-116.979639,92543
supermarket,Walmart Neighborhood Market,38.350599,-121.951128,95687
supermarket,Walmart Neighborhood Market,37.3161402,-121.8713473,95112
supermarket,Walmart Neighborhood Market,38.680872,-121.787924,95695
supermarket,Walmart Supercenter,34.071943,-117.963494,91706
supermarket,Walmart Neighborhood Market,34.2757157,-118.707704,93063
supermarket,Walmart Neighborhood Market,35.434523,-119.022288,93308
supermarket,Walmart Neighborhood Market,35.3701262,-119.1474617,93314
supermarket,Walmart Neighborhood Market,35.411874,-119.112528,93312
supermarket,Walmart Neighborhood Market,34.0471887,-117.949791,91744
supermarket,Walmart Supercenter,34.102622,-117.909601,91722
supermarket,Walmart Supercenter,35.391531,-118.960829,93306
supermarket,Walmart Supercenter,35.298796,-119.029215,93307
supermarket,Grocery Outlet,38.6760568,-121.7587008,95695
parking,Unnamed,33.8052702,-118.0590314,90720
hotel,The Cottage Inn,39.1418718,-120.1543864,96145
supermarket,Stater Bros.,34.1343034,-117.2077413,92346
supermarket,Food 4 Less,34.1343346,-117.225236,92346
parking,Unnamed,37.4155004,-122.3145032,
parking,Unnamed,37.0450131,-122.0675093,95018
parking,Unnamed,37.044495,-122.0670587,95018
parking,Unnamed,37.0301435,-122.1015224,95060
supermarket,Baja Ranch Market,34.1583986,-118.1406943,91188
parking,Unnamed,37.3921746,-121.4895466,95440
parking,Unnamed,34.1278936,-117.2388411,92404
parking,Unnamed,34.128227,-117.2331019,92369
parking,Unnamed,33.9127825,-117.2890638,92518
parking,Sand Flat Trailhead,41.359187,-122.246971,
supermarket,Imwalle Gardens,38.4336678,-122.7311992,95401
parking,Unnamed,38.5770766,-121.3294534,95827
parking,Unnamed,38.5741053,-121.3308348,95827
parking,Unnamed,38.574185,-121.3316207,95827
parking,Unnamed,38.5734972,-121.3297378,95827
parking,Unnamed,38.5729771,-121.3297458,95827
parking,Unnamed,38.5684737,-121.3600947,95864
parking,Unnamed,35.3771518,-117.980478,
supermarket,Grocery Outlet,34.4375876,-119.7261554,93105
parking,Unnamed,37.7604324,-121.9502576,94583
parking,Unnamed,37.7613747,-121.9483723,94583
parking,Unnamed,39.7689745,-120.5237424,96106
parking,Unnamed,39.7689188,-120.5241528,96106
parking,Unnamed,39.7681911,-120.525097,96106
parking,Unnamed,39.7683704,-120.5251586,96106
parking,Unnamed,39.7692549,-120.5238444,96106
supermarket,Save Mart,37.5930719,-120.9399246,95307
parking,Unnamed,33.9688372,-118.4271893,90096
parking,Unnamed,33.9686848,-118.4263874,90202
parking,Unnamed,34.4521463,-118.6360958,91384
parking,Unnamed,33.6042365,-117.174521,95262
parking,Unnamed,37.8120316,-122.1975688,94613
parking,Unnamed,37.4720652,-122.2174059,94061
parking,Unnamed,37.6471439,-122.1191029,94545
parking,Unnamed,37.7714387,-122.2550884,94501
parking,Unnamed,37.7705891,-122.2552518,94501
supermarket,Seafood City Market,38.122467,-122.2575771,94590
supermarket,El Super,34.04151,-118.1918603,90063
parking,Gray Rock Lakes Trailhead,41.2220182,-122.4421752,
parking,South Soapstone Trailhead,41.1772874,-122.4083387,
parking,Soapstone Trailhead,41.2039576,-122.4473875,
parking,Red Barn Trailhead,41.1522025,-122.3402631,96017
parking,Unnamed,41.1484105,-122.3213924,96017
parking,Unnamed,41.1498476,-122.3064834,96017
parking,Unpaved Circle parking,37.6135621,-120.9257195,95319
supermarket,Food 4 Less,33.9706149,-118.1656423,90201
supermarket,Trader Joe's,34.4284056,-118.5381487,91350
parking,Unnamed,33.6814179,-117.88443,92626
parking,Unnamed,34.0076476,-118.8067063,
supermarket,Vallarta,36.7874014,-119.752607,93726
hotel,River Terrace Inn,38.3050542,-122.2831207,94559
parking,Unnamed,32.5758114,-116.6681152,91980
parking,pear parking,33.0142641,-117.0855442,92127
parking,Unnamed,32.6056682,-116.8439259,
parking,Unnamed,32.6446132,-116.8567742,
supermarket,Save Mart,37.9746122,-120.365691,95370
parking,Unnamed,38.7523202,-121.3556488,95747
parking,Unnamed,34.406248,-119.7349015,93109
parking,Unnamed,33.812459,-118.1674038,90755
supermarket,Unnamed,33.9176645,-117.9666117,90631
supermarket,La Bodega,33.7824892,-118.1577069,90804
parking,Unnamed,37.0437307,-122.065045,95018
parking,Unnamed,37.0437446,-122.065477,95018
parking,Unnamed,37.0438902,-122.06543,95018
parking,Unnamed,37.0440882,-122.065202,95018
parking,Unnamed,37.0442745,-122.064569,95018
parking,Boat/RV Parking,37.0476827,-122.0659617,95018
supermarket,Smart & Final,37.9569805,-122.5066316,94901
parking,Unnamed,34.2494834,-118.2537595,91214
supermarket,Smart & Final,33.8018525,-117.943391,92840
supermarket,Stater Bros.,33.7170308,-117.9353115,92708
supermarket,Food 4 Less,32.8157132,-115.572594,92243
parking,Lot D,32.8270837,-115.5057913,92251
parking,Unnamed,32.6272842,-117.1066039,91932
parking,Unnamed,36.9605161,-122.0622665,95064
parking,Unnamed,33.2733357,-117.2918921,92057
parking,Unnamed,33.6995836,-117.9989407,92648
parking,Unnamed,33.9318178,-117.5999665,92878
supermarket,El Sol Market,32.7953109,-115.5822245,92243
parking,Unnamed,37.6149928,-122.0286222,94587
parking,Unnamed,37.6142167,-122.0277127,94587
supermarket,Apple Tree Supermarket,32.7466896,-117.250436,92017
parking,Unnamed,36.0339999,-121.4704017,
mall,Ojai Arcade,34.4479333,-119.2448829,93023
supermarket,Pierre Lafond,34.4374967,-119.6316755,93108
parking,Unnamed,33.6586541,-118.002934,92648
hotel,Unnamed,32.7541895,-117.2494519,92017
supermarket,Olive Tree Market,32.7429768,-117.2493095,92017
supermarket,Chautauqua Natural foods,40.1004939,-123.793468,95542
supermarket,SF Supermarket,38.5207448,-121.513205,95822
supermarket,Sprouts Farmers Market,34.0201735,-117.811487,91765
parking,Unnamed,37.763441,-122.484251,94122
hotel,Nautical,41.9901303,-124.2083172,95567
parking,Manchester Grand Hyatt San Diego Parking Garage,32.7102014,-117.1676682,92101
supermarket,Grocery Outlet,38.6123145,-121.4996454,95833
parking,Unnamed,37.2629881,-119.70466,
parking,Unnamed,32.8575383,-117.1852012,92122
supermarket,T & Y Market,38.6195711,-121.4577017,95815
hotel,Weaverville Hotel,40.7339859,-122.940732,
parking,Mission Trails Regional Park - West Sycamore Parking Lot,32.9295607,-117.0013872,92145
parking,Unnamed,32.915775,-116.9376882,
parking,Unnamed,32.9144496,-116.9345006,
parking,Unnamed,41.6094011,-124.1046121,75548
parking,Unnamed,41.5989705,-124.1007253,75548
parking,Unnamed,41.5995345,-124.100132,75548
parking,Unnamed,41.5982002,-124.100412,75548
parking,Unnamed,41.5938839,-124.0988687,75548
mall,Napa Town Centre,38.299346,-122.2864826,94559
supermarket,Stater Bros.,34.4040865,-118.4649144,91321
supermarket,Safeway,39.7623124,-121.8226255,95926
parking,Unnamed,32.8338879,-117.0042656,92071
parking,Unnamed,32.8340936,-117.0048282,92071
supermarket,FoodMaxx,39.131269,-123.196676,95482
parking,Unnamed,36.6067859,-118.7478304,93262
supermarket,Northgate Market,33.8377529,-117.8885064,92806
supermarket,Valley Farm Market,32.7518076,-117.001918,91977
hotel,Anaheim Marriott,33.799045,-117.918297,92802
parking,Unnamed,32.6858574,-116.5222301,91906
parking,Unnamed,32.6871888,-116.5266668,
parking,Unnamed,32.6895857,-116.524877,
parking,Lot 70,34.4249941,-119.8597884,93117
parking,Lot 70,34.4250145,-119.8625744,93117
supermarket,Cal Mart Beer & Wine Food Store,34.0251267,-118.2787842,90007
parking,USC Parking,34.0238824,-118.2801114,90007
parking,Unnamed,37.8349836,-122.248566,94168
hotel,Sandyland Reef Inn,34.405247,-119.532591,93013
supermarket,Trader Joe's,34.1597397,-118.254494,91207
parking,Unnamed,35.9732829,-116.2742302,92384
parking,ParkSJ 3rd and Santa Clara Garage,37.3364875,-121.8882499,95113
hotel,Jessica's,38.6625992,-121.3498944,95841
supermarket,El Super,36.7145386,-121.6257986,93906
supermarket,Trader Joe's,32.8008673,-117.240676,92109
parking,Unnamed,39.7710489,-121.6112326,95969
parking,Unnamed,37.059715,-121.6651364,
supermarket,Grocery Outlet,34.6386353,-120.454502,93436
supermarket,Grocery Outlet,32.7917039,-117.0804109,92120
parking,Unnamed,39.2772191,-123.7838706,95456
parking,Fern Canyon Trailhead Parking,39.2767312,-123.781002,95456
hotel,Inn at Schoolhouse Creek,39.2634339,-123.7837144,95456
parking,Unnamed,39.2762156,-123.7919067,95456
parking,Unnamed,39.2062612,-123.7688898,95410
parking,Unnamed,39.1599489,-123.5653014,95466
parking,Unnamed,39.1558735,-123.5934769,95463
parking,Unnamed,39.2062612,-123.7688898,95410
parking,Unnamed,39.2380901,-123.7726923,95410
parking,Unnamed,33.5277766,-117.2844708,92562
supermarket,ALDI,34.1112641,-117.7628001,91750
supermarket,Sprouts Farmers Market,34.1187895,-117.7775267,91750
parking,Unnamed,38.8785996,-121.068775,95603
parking,Unnamed,38.8793252,-121.0685071,95603
parking,Unnamed,38.8783355,-121.068004,95603
parking,Unnamed,38.8789171,-121.0684828,95603
parking,Unnamed,38.8787466,-121.0681869,95603
parking,Unnamed,37.4249569,-122.1647622,94305
parking,Unnamed,37.060425,-122.0799248,95018
parking,Unnamed,37.0572096,-122.0757804,95018
parking,Unnamed,41.3344683,-122.3083865,96067
parking,Unnamed,33.4408456,-116.512295,
parking,Unnamed,33.7379481,-118.2861835,90732
supermarket,Tambuli Market,33.8308313,-118.2787064,90745
supermarket,Seafood City Supermarket,33.8321595,-118.2797865,90503
supermarket,Nugget Markets,38.6782103,-121.7806092,95695
parking,Unnamed,34.225041,-118.2371479,91214
parking,Unnamed,37.0211454,-122.0840639,95060
parking,Unnamed,36.6209654,-121.937409,93950
supermarket,Nugget Markets,38.0673861,-122.5429813,94949
supermarket,Brunos Market & Deli,36.5559686,-121.91981,93923
parking,Unnamed,36.9806033,-121.9925784,95062
supermarket,Food 4 Less,34.1683201,-118.1335686,91104
supermarket,Vons,32.7824334,-117.0323362,91942
supermarket,Safeway,37.9358665,-121.6991427,94513
parking,Big Rock Trail Parking,32.8299984,-117.017845,92119
supermarket,Ralphs,34.1686743,-119.1786533,93033
supermarket,Buzz's Mini Market,34.8983983,-117.0274895,92311
parking,Unnamed,36.5017008,-121.938248,93922
parking,Glenwood Preserve Parking,37.0794308,-122.0009654,95066
supermarket,Smart & Final Extra!,33.9444788,-117.415976,92504
supermarket,H Mart,33.8865234,-117.995151,90621
parking,Unnamed,37.4524885,-122.1825784,94025
supermarket,Albertsons,34.5860756,-118.1488577,93551
parking,Unnamed,38.0299127,-120.3892594,95370
hotel,El Gran Meson,7.3479902,-72.9465427,
supermarket,Alta Vista,33.9445874,-117.4150902,92504
supermarket,Big Valley Market,41.1211812,-121.1438823,96009
parking,Unnamed,35.3676427,-117.6356636,93528
supermarket,Vinh Phat,38.5156065,-121.437392,95824
parking,Unnamed,37.4266245,-122.1496595,94036
parking,Unnamed,37.4265372,-122.1497312,94036
parking,Unnamed,37.4267073,-122.1498303,94036
parking,Unnamed,36.4949837,-121.173,
parking,Unnamed,36.9950755,-121.9875687,95065
supermarket,Food Mart,34.9040506,-116.8871547,92398
parking,Unnamed,36.9920785,-121.9841529,95062
parking,Unnamed,36.9925926,-121.9836071,95062
parking,Unnamed,36.9932332,-121.9832852,95062
supermarket,Naturalia,34.3862722,-117.383329,92344
parking,Unnamed,36.9783561,-121.9036873,95003
parking,Unnamed,36.9783229,-121.9037638,95003
parking,Unnamed,36.9782683,-121.9042137,95003
parking,Unnamed,37.0976257,-122.1146847,95007
supermarket,ALDI,33.948041,-118.1637503,90650
mall,Barstow Shopping Center,34.8954708,-117.0064078,92311
supermarket,Raley's,38.744421,-121.1732264,95746
mall,Unnamed,34.8972726,-117.0086823,92311
supermarket,Smart & Final,38.4101169,-121.3771784,95624
hotel,Days Inn,33.9252297,-116.9024926,92220
parking,Unnamed,41.8649299,-123.2577596,96086
supermarket,New Leaf Market,36.978451,-121.9004238,95003
hotel,Tuck Hotel,34.0425115,-118.2539737,90014
parking,Unnamed,37.395022,-122.0794713,94041
parking,Unnamed,37.3950647,-122.0794465,94041
parking,Unnamed,37.3930368,-122.077359,94041
parking,Unnamed,37.392939,-122.0774308,94041
supermarket,Community Market,38.4587923,-122.7178105,95404
parking,Unnamed,32.5779888,-116.6284338,91980
parking,Unnamed,37.0306349,-122.0628191,95041
parking,Unnamed,38.6516246,-123.3995426,95497
parking,Unnamed,38.6518267,-123.3997183,95497
parking,Unnamed,37.0289062,-121.7430352,95976
supermarket,Grocery Outlet,35.6435681,-120.6879039,93447
supermarket,Grocery Outlet,34.1274847,-117.8911878,91742
supermarket,Shan Market,38.6087878,-121.4764031,95833
supermarket,Foods Co,36.328981,-119.676244,93230
supermarket,Sprouts Farmers Market,34.4422916,-119.832381,93117
supermarket,Real Produce International Market,37.4267193,-122.1484924,94036
parking,Unnamed,33.6716007,-117.806208,92614
supermarket,Primo Market,32.8390419,-117.0986005,92124
supermarket,Raley's,38.5485859,-121.3948422,95826
hotel,Home2 by Hilton,34.4953747,-117.330046,92392
parking,Unnamed,37.3936616,-122.0769506,94041
parking,Unnamed,32.8000259,-117.0918748,92120
parking,Unnamed,32.8003633,-117.0917812,92120
parking,Unnamed,37.3934981,-122.077056,94041
parking,Unnamed,39.7537626,-120.5987723,96103
parking,Unnamed,38.772283,-121.3969586,95747
parking,Unnamed,34.1429378,-118.0289554,91006
parking,Unnamed,34.2049218,-118.2950631,91501
supermarket,FoodMaxx,39.1223639,-121.5698139,95901
parking,Unnamed,39.5668378,-120.6059931,96125
supermarket,New Indian Market,37.5894335,-122.0708725,94587
parking,SFO TNC Staging Lot 3,37.6336527,-122.400694,94128
parking,Unnamed,38.8298085,-121.2692745,95765
supermarket,Ralphs,34.1199104,-117.5570447,91730
supermarket,Follow Your Heart Market,34.2012849,-118.6038774,91303
supermarket,Seafood City,37.5913511,-122.0699485,94587
supermarket,Shalimar,37.590052,-122.0681849,94587
supermarket,Island Pacific Super,37.5884873,-122.0690418,94587
parking,Unnamed,36.9976225,-122.0535179,95064
parking,Dunes Camp Overflow Parking,36.8904835,-121.8323399,
parking,Unnamed,36.8846953,-121.8283588,
parking,Unnamed,36.8842102,-121.8272846,
parking,Unnamed,37.2392374,-122.0695785,95070
supermarket,Smart & Final,32.6519525,-117.089819,91950
parking,Unnamed,33.887088,-118.159741,90723
hotel,Hillside lodge,38.5106101,-122.9864216,95446
parking,Unnamed,37.0852192,-122.0536731,95041
supermarket,Lucerne Valley Market and Hardware,34.4406496,-116.9450629,92356
parking,Parking Lot E,37.4296145,-122.0737246,94043
parking,Unnamed,32.7669908,-116.9820293,91941
parking,Unnamed,37.3348067,-119.57073,93604
parking,Unnamed,38.7876214,-121.3914268,95747
supermarket,Jons Fresh Marketplace,34.1719269,-118.2896597,91201
supermarket,Safeway,38.4463273,-122.7414687,95401
supermarket,Smart & Final Extra!,32.7126802,-117.010981,91977
supermarket,FoodMaxx,38.6260817,-121.4989867,94834
parking,Day use parking lot,38.4282508,-119.9915528,
supermarket,Bristol Farms,33.9610857,-118.4191847,90045
parking,Unnamed,35.1745921,-120.707779,93424
parking,Unnamed,35.2994902,-120.8628997,93402
parking,Unnamed,35.299418,-120.8638814,93402
parking,Pullout,40.5585883,-121.5316629,
supermarket,Smart & Final,32.8210907,-117.1010455,92124
supermarket,Smart & Final Extra!,38.5970115,-121.381395,95864
parking,Unnamed,34.035737,-117.6369,91761
parking,Unnamed,32.9064766,-116.5842386,
supermarket,Vallarta,34.5806271,-118.0959283,93550
supermarket,Super Grocers,34.5788575,-118.0921708,93550
supermarket,Stater Bros.,34.5592187,-118.043715,93552
supermarket,Stater Bros.,34.5593868,-118.0834951,93550
supermarket,Food 4 Less,34.5594476,-118.0862806,93550
parking,Unnamed,38.8597369,-121.288609,95648
parking,Unnamed,38.8602503,-121.2878523,95648
supermarket,Smartsville Grocery,39.2071117,-121.2976831,95977
parking,Unnamed,37.0432704,-122.0487942,95041
parking,Unnamed,37.0427802,-122.0495506,95041
parking,Unnamed,38.0221181,-119.2615475,
supermarket,Canyon Lake Market,33.6726501,-117.2532172,92587
parking,Unnamed,34.0370212,-117.6636539,91762
supermarket,Grocery Outlet,32.7566327,-117.0801171,92115
parking,Unnamed,34.0318374,-117.6496635,91761
parking,Unnamed,34.0325698,-117.6288307,91761
parking,Unnamed,34.0321901,-117.6670466,91710
parking,Unnamed,34.0323966,-117.6698082,91782
parking,Unnamed,34.0323356,-117.667434,91762
parking,Unnamed,34.0319957,-117.6646908,91762
supermarket,Smart & Final,34.1540178,-118.7947329,91377
hotel,Studio 6,37.3021048,-120.5015562,95341
parking,Unnamed,37.0460263,-121.8051105,95976
parking,Unnamed,38.4526805,-122.9418643,95444
parking,Unnamed,39.6578995,-120.649556,
parking,Unnamed,37.0468973,-122.0666617,95018
supermarket,168 Market,33.9876631,-117.8720266,91748
parking,Unnamed,37.1163223,-122.1566067,95006
parking,Unnamed,38.5643494,-121.5193755,95818
supermarket,Sprouts Farmers Market,33.8574579,-118.0785393,90703
parking,Unnamed,33.7947644,-118.3717921,90274
supermarket,Manila Oriental Market,37.3241867,-121.795032,95148
supermarket,Chavez Supermarket,37.3128686,-121.809789,95121
parking,Unnamed,34.2371417,-116.840455,92386
parking,Unnamed,37.0226584,-122.0867032,95060
parking,Unnamed,37.5093507,-118.5753342,
parking,Unnamed,37.4911098,-118.5635216,
supermarket,Vons,34.1499864,-118.00202,91016
hotel,Unnamed,34.1413312,-118.0202017,91016
parking,Unnamed,34.0194917,-117.9875807,91745
parking,Unnamed,34.0192444,-117.987257,91715
parking,Unnamed,34.0193673,-117.9871257,91745
parking,Unnamed,37.0015074,-122.1795827,95017
parking,Unnamed,33.6639771,-117.8260281,92612
parking,Unnamed,33.6638451,-117.8261557,92612
parking,Unnamed,33.6646026,-117.8255005,92612
parking,Unnamed,34.0094697,-116.0557804,
parking,Unnamed,36.9829549,-121.9408125,95010
parking,Unnamed,36.9831836,-121.9407263,95010
parking,Unnamed,36.9836521,-121.9428341,95010
parking,Unnamed,36.9831502,-121.9385502,95010
parking,Unnamed,33.6273452,-117.9089858,92660
parking,Unnamed,35.100112,-118.292698,93502
supermarket,Grocery Outlet,32.6526909,-117.091309,91950
parking,Unnamed,37.0413356,-121.7365663,95976
mall,Foundry Square,40.5814386,-122.3914204,96001
supermarket,Trader Joe's,34.1277939,-118.089652,91107
supermarket,Monarch Beach Market,33.4886929,-117.7109441,92629
supermarket,Acton Market,34.4685864,-118.1976456,93510
parking,Unnamed,38.4515927,-121.4186722,95823
parking,Cascade Canal Trail Parking,39.2409682,-120.998472,95959
supermarket,Indo-Pak Halal Market,37.375307,-121.8734317,95133
supermarket,Vons,34.287455,-118.7156188,93063
parking,Unnamed,37.4058512,-121.9747492,95054
supermarket,Pioneer Point Market,35.7886198,-117.3612436,93562
supermarket,Grocery Outlet,37.9539711,-122.0610372,94523
supermarket,Muang Lao Market,32.7120077,-117.0933203,92102
supermarket,Food 4 Less,36.6931226,-121.5958593,93905
parking,Unnamed,34.1393476,-119.1851972,93041
hotel,"Highlands Inn, A Hyatt Residence Club",36.50197,-121.937108,93923
parking,Unnamed,33.7006346,-116.374753,92260
supermarket,Food 4 Less,34.0250901,-118.3077277,90018
supermarket,Namaste Plaza,32.9181184,-117.1268652,92126
supermarket,Anh Minh,33.7455914,-117.9474572,92843
parking,Unnamed,36.6753058,-121.660335,93901
hotel,The Getaway,36.5554331,-121.919815,93923
parking,Unnamed,37.5878833,-122.4940112,94044
supermarket,Compton's Market,38.5786553,-121.4478562,95816
parking,Unnamed,33.2224411,-117.3882971,92055
parking,Unnamed,33.2232891,-117.3887298,92055
parking,Unnamed,33.2229157,-117.3900875,92055
supermarket,Livonia Glatt Market,34.0550794,-118.3865588,90035
parking,Unnamed,36.2384403,-121.8132982,
parking,Schooner Gulch Trailhead Parking,38.8688333,-123.6534893,95468
parking,Bowling Ball Beach Trailhead Parking,38.8691719,-123.6536723,95468
parking,Moat Creek Parking,38.8823759,-123.6736856,95468
parking,Unnamed,41.1367809,-124.1524467,95570
parking,Unnamed,38.0218688,-122.261428,94547
parking,Unnamed,37.9889865,-122.0861339,94523
parking,Unnamed,33.8367293,-117.9105233,92801
parking,Unnamed,33.8366051,-117.9110388,92805
supermarket,Raley's,38.2459304,-122.0218487,94533
mall,Fargo Crossing Shopping Center,36.3584575,-119.6546887,93230
supermarket,Raley's,39.71658,-121.7930655,95928
parking,Unnamed,37.670133,-122.0544888,94540
supermarket,El Super Grocery Market,32.7487674,-117.099454,92105
supermarket,Sprouts Farmers Market,37.3812401,-121.8981526,95131
supermarket,Oliver's Market,38.4748102,-122.6734976,95405
supermarket,Mother's Nutritional Center,34.1197828,-117.3140732,92411
supermarket,El Super,34.1227,-117.3215781,92411
supermarket,Jimmy's Food Store,34.1217115,-117.3235343,92411
parking,Unnamed,34.2017046,-118.3970663,91605
parking,Miller Boat Launch,38.2000781,-122.9214347,94971
supermarket,Grocery Outlet,38.5527092,-121.7297074,95616
supermarket,Trader Joe's,34.1800766,-118.9537136,91320
supermarket,ALDI,34.0759387,-117.2025701,92403
supermarket,Unnamed,40.5686916,-122.361854,96002
parking,Unnamed,40.5691636,-122.3265356,96002
parking,Unnamed,37.1320607,-121.6192589,95038
parking,Unnamed,34.2091699,-118.2094393,91020
supermarket,Unnamed,37.733742,-120.9354079,95367
supermarket,Unnamed,37.7346278,-120.9354384,95367
supermarket,Unnamed,37.7342484,-120.9368328,95367
supermarket,La Plaza Market,37.3406056,-121.8622465,95116
supermarket,Ralphs,34.2226187,-118.397751,91352
parking,Unnamed,33.6987822,-117.2438885,92587
supermarket,Smart & Final,33.1896559,-117.36012,92054
parking,Unnamed,39.2481991,-120.0140101,96143
parking,Unnamed,39.0200235,-122.0565203,95912
parking,Unnamed,39.0199922,-122.0559382,95912
supermarket,Sprouts Farmers Market,38.1001257,-121.2685596,95240
supermarket,Raley's,38.1289472,-121.3085952,95241
supermarket,Grocery Outlet,38.1289628,-121.2586636,95240
supermarket,S-mart Foods,38.1292671,-121.2811234,95241
parking,Unnamed,38.4828801,-121.4438528,95823
parking,Unnamed,38.483615,-121.4446199,95823
parking,Unnamed,38.6129653,-120.1940867,
parking,Leona Canyon Regional Open Space,37.7753584,-122.145787,94615
parking,Unnamed,38.7066368,-123.4246814,95497
supermarket,Dollar General Market,38.678334,-121.7837335,95695
supermarket,Superior Grocers,34.0097166,-118.1130682,90640
hotel,Unnamed,34.1265533,-117.2877771,92405
parking,Unnamed,32.8891412,-117.1050764,92131
parking,Unnamed,38.6963174,-119.8447164,
parking,Unnamed,32.8967021,-117.1082201,92131
parking,Unnamed,32.8971089,-117.1109154,92131
parking,Unnamed,32.8964456,-117.1106537,92131
parking,Unnamed,32.8970255,-117.1107289,92131
parking,Unnamed,38.7066739,-123.4258354,95497
parking,Unnamed,37.8886651,-122.3154794,94850
parking,Unnamed,37.878512,-119.950597,
parking,Unnamed,41.9428345,-123.0094984,
parking,Brentwood City Hall Parking Garage,37.9347219,-121.6937888,94513
parking,Unnamed,39.8753548,-120.4883777,96122
parking,Bear Lakes Trailhead,41.1944632,-122.65163,
parking,Unnamed,37.9588379,-122.611688,94930
parking,Unnamed,37.9540855,-122.6002295,94930
hotel,Indian springs,38.581398,-122.5748958,94515
supermarket,Cal Mart,38.5802795,-122.578976,94515
hotel,Motor Lodge,38.5872324,-122.5763733,94515
hotel,The Bungalows at Calistoga,38.5831471,-122.5771775,94515
hotel,Dr. Wilkinson's Hot Springs Resort,38.580703,-122.5784745,94515
hotel,Cottage Grove Inn,38.5824528,-122.5768033,94515
parking,Cook and Green Pass Trailhead,41.9419148,-123.1451753,
parking,Unnamed,37.8646493,-121.9304109,94528
parking,Unnamed,34.4128972,-119.8585233,93117
parking,Unnamed,38.5469802,-121.3516921,95827
hotel,Canyon Creek resort,38.5146785,-122.0934436,
parking,Unnamed,38.3958531,-121.3699955,94624
parking,Unnamed,38.4607321,-121.5056589,95832
parking,Unnamed,38.6810417,-121.1538792,95630
parking,Unnamed,38.6819043,-121.1551613,95671
parking,Unnamed,39.6782244,-123.790974,95488
parking,Seaside Beach,39.5587867,-123.7655734,
parking,Stockdale Road Park and Ride,35.3538984,-119.040976,93309
parking,Unnamed,37.4346928,-122.2442139,94602
supermarket,Jensen's Minute Shoppe,34.2543017,-117.1731436,92321
hotel,Residence Inn,33.9749961,-118.4576159,90292
parking,Crossroads,39.0058415,-123.22239,
supermarket,India Cash & Carry,37.3049819,-122.0316708,95129
parking,Unnamed,38.6922506,-119.9857532,
parking,Bear Hut and Garden Dome Parking,39.0046762,-123.2225675,
parking,Unnamed,38.7961861,-121.3335855,95747
parking,Lower Dome Parking,39.003402,-123.221339,
supermarket,Grocery Outlet,34.2107795,-119.193304,93031
parking,Unnamed,38.3826756,-119.8259416,
parking,Unnamed,37.7578058,-119.0265307,
parking,Glass Creek Meadow Trailhead,37.7477346,-119.0236044,93529
parking,Unnamed,37.7489646,-119.0244077,
parking,Unnamed,33.521422,-117.6650954,92675
parking,Unnamed,32.8617891,-116.9151565,92040
parking,Unnamed,38.807296,-121.2351152,95677
supermarket,Grocery Outlet,34.2708514,-119.170721,93004
parking,Unnamed,38.7855474,-120.6554534,
supermarket,La Esperanza Ranch Market,34.1087446,-117.3119375,92411
hotel,Blue Lake Casino Hotel,40.88589,-123.9990637,95525
parking,Unnamed,38.7939398,-120.6294888,95726
supermarket,Zam Zam Market,33.9079408,-118.3615865,90250
parking,Unnamed,34.1380138,-118.2132452,90041
supermarket,Nick's Hi-Way Market,36.760302,-121.7522599,95012
supermarket,Primavera Market,36.7675325,-121.7602167,95012
supermarket,Santa Fe Foods,36.7613637,-121.7541351,95012
supermarket,Santa Cruz Market,34.2783913,-119.2710059,93001
parking,Unnamed,37.9385405,-119.2503279,
hotel,Tahoe Edgelake Beach Club,39.2381054,-120.0362344,96148
parking,Unnamed,37.9101258,-118.9959492,
supermarket,FoodMaxx,35.3412164,-119.051032,93309
parking,Unnamed,37.2140074,-122.1754883,
parking,Unnamed,34.2272833,-116.8673615,92315
parking,Unnamed,37.0577158,-122.2246599,95017
parking,Unnamed,38.1048811,-121.569601,95641
parking,Unnamed,38.8292777,-121.2634527,95765
parking,Unnamed,38.8377248,-121.2606119,95765
supermarket,Thanh Long Maria Market,33.7602319,-117.912403,92703
parking,Unnamed,37.8254193,-122.2024064,94602
mall,Swiss Chalet Village,38.924344,-119.9867975,96152
supermarket,Little Japan Market,40.7819787,-124.1637291,95501
parking,Unnamed,38.8298314,-121.2650608,95765
parking,Unnamed,38.51129,-121.3995429,95828
supermarket,Foodland Market,34.4187604,-119.716466,93101
parking,Unnamed,38.4649078,-123.1245122,
parking,Unnamed,32.9699695,-117.2397858,92014
hotel,Vagabond House Inn,36.5578323,-121.922222,92921
hotel,Pine Inn,36.5552604,-121.924172,92921
hotel,Lamp Lighter Inn,36.5548871,-121.92589,93921
hotel,Normandy cottage,36.554894,-121.9255519,93921
hotel,Normandy inn,36.5549094,-121.924861,93921
parking,Unnamed,34.8715618,-117.0262918,92311
supermarket,Senter Foods,37.2832264,-121.824838,95111
supermarket,Lucky 7 Supermarket,37.3568775,-121.863601,95116
parking,Unnamed,33.9925227,-116.0659295,
parking,Unnamed,33.9925196,-116.0661188,
parking,Unnamed,33.9923731,-116.0658975,
parking,Unnamed,33.9921164,-116.0656256,
supermarket,Shell Gas Station,37.4663801,-122.2421097,94062
parking,Staging Area Trail Parking,34.0231421,-118.0369225,90601
parking,Unnamed,32.9518556,-117.2349178,92014
hotel,Lighthouse Pointe Resort,38.9308653,-123.7096015,95468
parking,Unnamed,38.3938372,-120.6535458,95665
supermarket,Marinwood Market,38.0326369,-122.5389255,94903
supermarket,ALDI,34.3815461,-118.5405348,91321
parking,Unnamed,38.7752668,-123.0623691,
parking,Unnamed,38.7013595,-123.0932349,
parking,Unnamed,38.6865253,-123.0149923,
parking,Unnamed,34.4276018,-119.0913769,
supermarket,Super India,37.313363,-121.7924822,95121
supermarket,Chavez Supermarket,37.24927,-121.84509,95123
supermarket,Pinecrest General Store,38.1919432,-119.9967018,95364
parking,Unnamed,37.792079,-119.1239163,93529
parking,Unnamed,36.9079844,-121.8082524,95019
supermarket,Robert's Market,35.3418772,-118.9316768,93307
supermarket,Penzeys Spices,38.4432908,-122.6866812,95405
supermarket,Seafood City,37.4168516,-121.87689,95035
supermarket,Daly City Market,37.6929363,-122.4751495,94015
supermarket,Cardenas,34.0395808,-117.652523,91782
hotel,Unnamed,39.3279282,-120.2440635,96160
hotel,Martis Camp Lodge,39.2777164,-120.1467844,
parking,Unnamed,36.3264578,-119.3488523,93291
supermarket,Tambuli Seafood Market #1,34.0913194,-118.291448,90029
parking,Unnamed,37.3345185,-119.5691791,93604
supermarket,Erewhon,34.0922375,-118.282296,90029
supermarket,Amazon Fresh,34.2736056,-118.555041,91326
parking,Amazon Parking Lot,33.995845,-117.5549437,91752
supermarket,Ralphs,34.00228,-118.3933931,90230
parking,Unnamed,34.6881773,-118.1602633,93539
parking,Unnamed,33.9620625,-118.2212709,90280
supermarket,Whole Foods Market,34.0224397,-118.4379298,90064
parking,Unnamed,33.7453714,-118.1178861,90803
supermarket,Sprouts Farmers Market,33.1764097,-117.3250281,92008
parking,Unnamed,35.3208027,-120.8481071,93402
parking,Unnamed,35.3210373,-120.8481222,93402
parking,Unnamed,41.8186681,-122.1254182,
parking,Unnamed,41.8186781,-122.1256462,
hotel,Residence Inn San Jose North/Silicon Valley,37.4218466,-121.979031,95002
hotel,Fairfield San Jose North/Silicon Valley,37.4217529,-121.978174,95002
hotel,Unnamed,33.7215827,-118.0750655,90742
parking,Unnamed,35.3003052,-120.8626463,93402
supermarket,Tropicana Foods,37.338048,-121.844235,95122
supermarket,Sprouts Farmers Market,34.1894659,-118.6241632,91307
supermarket,Asian Food Market,38.4662021,-122.7497212,95403
supermarket,Arteagas Food Center,37.3607134,-121.959036,95050
hotel,Unnamed,34.8654204,-120.449554,93455
parking,Drop-off,39.2759314,-120.1218398,
parking,Lot J,33.8828597,-118.328345,90506
parking,Lot K,33.88315,-118.327428,90506
supermarket,Tri-County Produce,34.4185219,-119.6737289,93103
supermarket,Mesa Produce,34.4025192,-119.7249451,93109
supermarket,Pauma Valley Trading Center,33.3030745,-116.977328,92061
supermarket,Nob Hill Foods,37.367154,-121.9950318,95051
supermarket,Tiranga Super Market,37.3528003,-121.9891728,95051
parking,Unnamed,33.8335481,-117.9144881,92804
parking,Unnamed,33.8369518,-117.9079852,92805
parking,Unnamed,33.8368371,-117.9100569,92801
parking,Unnamed,37.1611132,-121.6338812,95037
supermarket,Nugget Markets,38.7938133,-121.3262573,95747
supermarket,Vintage Grocers,34.031185,-118.8425605,
parking,Unnamed,38.7156235,-123.0607752,
parking,Unnamed,38.7142166,-123.0560052,
supermarket,FoodMaxx,37.3238848,-121.8205002,95122
parking,Unnamed,36.3703387,-121.8949125,
supermarket,Rose International Market,37.3857145,-122.0845163,94040
supermarket,Montecito Village Grocery,34.4382103,-119.6337171,93108
parking,Unnamed,34.2870428,-117.3590068,92325
supermarket,Whole Foods Market,34.0535107,-118.4673608,90049
supermarket,Ray's Food Place,40.5958658,-124.146066,95546
parking,Unnamed,32.9943615,-116.542576,92036
hotel,Marriott Westin Resort,33.1300341,-117.308983,92008
hotel,Adobe Inn,36.5529962,-121.9228815,93921
parking,Unnamed,37.5416043,-122.2433041,94065
parking,Unnamed,34.1618648,-118.3130097,91506
supermarket,Superior Grocers,34.0968574,-118.2078307,90065
parking,Unnamed,38.7897471,-121.3260455,95747
parking,Unnamed,38.7896897,-121.3280149,95747
parking,Unnamed,38.7896839,-121.3283334,95747
parking,Unnamed,38.7910088,-121.3262232,95747
parking,Unnamed,38.7909973,-121.326372,95747
parking,Unnamed,38.7911709,-121.3263626,95747
parking,Unnamed,38.7910925,-121.326431,95747
parking,Unnamed,38.791175,-121.3283515,95747
parking,Unnamed,38.7911761,-121.3280162,95747
parking,Unnamed,38.7901423,-121.3280699,95747
parking,Unnamed,41.796604,-124.2234153,
parking,Unnamed,41.7767356,-124.248907,
supermarket,ALDI,33.8185477,-116.4928255,92276
supermarket,ALDI,33.1127791,-117.1039186,92029
supermarket,ALDI,33.2079607,-117.2819851,92056
parking,Jellys Ferry Trailhead,40.3183913,-122.1888819,
parking,Unnamed,40.2776185,-122.1913295,
parking,Unnamed,37.6644562,-122.4938806,94015
supermarket,Grocery Outlet,37.6619214,-121.855933,94566
supermarket,Smart & Final,32.7624754,-117.0635731,92115
parking,Unnamed,34.0827269,-117.8517056,91724
parking,Unnamed,41.214163,-124.1029491,
supermarket,ALDI,36.8378683,-119.68617,93611
supermarket,H Mart,37.7103977,-122.46765,94132
supermarket,ALDI,34.1962436,-119.1961757,93031
supermarket,ALDI,34.470114,-117.2572732,92307
supermarket,ALDI,33.8902294,-117.5632998,92880
supermarket,ALDI,34.2801249,-118.7186124,90363
supermarket,ALDI,34.1842684,-118.1310397,91001
supermarket,ALDI,33.8878637,-118.1262463,90706
supermarket,ALDI,33.7900384,-117.960027,92841
supermarket,ALDI,34.0269858,-117.837351,91789
supermarket,Safeway,37.3704508,-121.8815992,95133
parking,Main Parking Lot,33.6544062,-117.8134246,92612
parking,Unnamed,34.5923971,-118.1744611,
supermarket,Super King Markets,34.1846903,-118.1591498,91109
supermarket,Yaoya-san,37.9109924,-122.3077327,94530
supermarket,Basic Foods,36.5148443,-121.4363572,93926
supermarket,Smart & Final,34.0439907,-118.3790634,90035
supermarket,Ani Grocery,34.1680952,-118.28635,91201
supermarket,Jalisco Market,36.5074409,-121.4440564,93926
supermarket,Taylor Farms,36.5066014,-121.4443136,93926
supermarket,Nielsen Bros. Market,36.5539577,-121.9216184,93921
supermarket,Patton's Market,36.5703799,-121.5182445,93925
supermarket,Amigos Market,36.5695511,-121.5171442,93925
supermarket,Golden Market,34.1635125,-118.256736,91207
parking,Unnamed,37.2771556,-118.9753099,
parking,Unnamed,37.0084088,-121.70229,
parking,Unnamed,37.0113832,-121.7060903,
parking,Unnamed,37.2367221,-119.2383876,93634
parking,Unnamed,36.595678,-121.8923479,93940
parking,Unnamed,37.3366639,-119.4198873,
parking,Unnamed,37.4147079,-119.494552,
parking,Unnamed,32.7342001,-116.940956,91978
parking,Unnamed,38.8946214,-121.3291682,95648
parking,Unnamed,38.8959283,-121.3286009,95648
parking,Unnamed,36.7374526,-118.2650703,
supermarket,North Park Produce,32.781012,-116.95664,92020
parking,Unnamed,37.8760581,-119.4101027,
parking,Unnamed,38.5469382,-121.7584006,95616
supermarket,Safeway,38.6751471,-121.028389,95762
parking,Hobo Gulch Trailhead Parking,40.9264821,-123.1535874,
supermarket,Jimbo's,32.9498404,-117.2338155,92014
parking,Unnamed,38.5509775,-121.7684261,95616
parking,Unnamed,39.4295119,-122.1870983,
parking,Unnamed,39.4294477,-122.1870098,
parking,Unnamed,38.8876632,-121.2582815,95648
supermarket,Mother's Nutritional Center,34.076822,-117.4350432,92335
parking,Overflow Lot,37.0413568,-122.0695543,95018
supermarket,Trader Joe's,33.7906764,-118.3302815,90505
hotel,Pelican Inn & Suites,35.5746481,-121.1126063,93428
parking,Unnamed,36.1677922,-118.4788424,
parking,Unnamed,36.1657655,-118.4793386,
parking,Unnamed,36.1663458,-118.4791347,
parking,Unnamed,38.5748935,-121.4610069,95816
parking,Unnamed,41.1852368,-121.0288321,
parking,Unnamed,41.199803,-121.0284276,
parking,Unnamed,41.198316,-121.0443188,96006
parking,Unnamed,41.1961855,-121.0925796,
parking,Unnamed,41.1681259,-121.0570231,
parking,Unnamed,41.1485879,-121.067182,96009
parking,Unnamed,41.2079718,-120.9874927,96006
parking,Stoney Ridge Trailhead Parking,40.8820692,-122.8753638,
parking,Canada Rd Cycling Parking Area,37.5063857,-122.3411259,94002
parking,Unnamed,35.6342647,-118.4925143,93205
parking,Unnamed,35.6356773,-118.4913101,93205
supermarket,Grocery Outlet,38.9627361,-122.634245,95422
supermarket,Smart & Final Extra!,33.9342491,-118.2137411,90262
parking,Unnamed,40.0218468,-123.7920402,95542
parking,Unnamed,37.3512381,-120.9590374,95374
supermarket,Andy's Sun Valley Market,37.9821747,-122.5477545,94901
supermarket,Grocery Outlet,37.3080992,-121.951509,95117
supermarket,Smart & Final,34.4699226,-117.3335698,92392
parking,Unnamed,38.6985959,-120.0306538,95646
parking,Unnamed,38.5355664,-120.2379008,
parking,Unnamed,38.5375632,-120.2396982,
parking,Unnamed,37.9912307,-121.7039944,94561
parking,Unnamed,37.1128537,-119.3098095,93664
parking,Unnamed,36.8797998,-119.150324,
parking,Hendy Woods State Park Day Use Area,39.0743746,-123.4661795,95473
parking,Monarch Valley Trailhead,36.7295694,-116.916948,
parking,Unnamed,37.1588405,-119.4942476,
parking,Unnamed,36.9961756,-118.9634827,
parking,Unnamed,36.9965697,-118.9645153,
parking,Unnamed,37.006374,-118.9714301,
parking,Unnamed,37.0080254,-118.9785051,
parking,Unnamed,37.0080607,-118.9781423,
parking,Unnamed,40.3608931,-121.3543113,
supermarket,Raley's,39.1333611,-121.637399,95933
parking,Unnamed,37.0078165,-118.9767851,
parking,Unnamed,37.0084323,-118.9789322,
parking,Unnamed,37.1061928,-118.9873382,
parking,Unnamed,37.0518913,-118.9816976,
parking,Unnamed,40.2756305,-122.1930367,
parking,Bel Marin Keys Unit V Wetland Restoration Project,38.0801784,-122.5261008,94949
parking,Pacheco's Pond,38.0781235,-122.5309607,94949
parking,Unnamed,37.3350336,-119.1578168,
parking,Unnamed,38.7734298,-123.0658815,
supermarket,Grocery Outlet,33.8734876,-118.373604,90278
parking,Unnamed,36.7572188,-119.8082548,93728
parking,Unnamed,36.7590735,-119.8007008,93741
mall,Petersen Plaza,34.4407414,-119.7277917,93105
parking,Unnamed,36.8305138,-118.8769466,
parking,Unnamed,32.7168541,-117.1719941,92101
parking,Indian Rock parking,37.2300796,-122.0939465,
parking,Unnamed,36.7430754,-119.001975,93633
supermarket,Unnamed,33.7909206,-118.3288994,90717
parking,Unnamed,41.2164692,-122.521036,
supermarket,Albertsons,35.1462715,-119.4662827,93268
supermarket,Gus's Community Market,37.7528381,-122.503584,94166
supermarket,GK Market & Liquor,34.1058507,-117.6287774,91761
supermarket,Food 4 Less,33.8016723,-117.994681,92804
supermarket,Guadalajara,33.8169476,-117.9915239,92804
supermarket,ABC Market,33.816633,-117.9745456,92804
parking,Unnamed,40.0271881,-121.2220807,95915
hotel,Courtyard Mar,34.145968,-118.76805,91301
supermarket,Smart & Final,34.6297005,-118.220231,
hotel,Hawthorn Suites,38.6308634,-121.2200624,95662
hotel,Comfort Inn,38.6286662,-121.2190921,95742
hotel,The Westin Mission Hills Golf Resort & Spa,33.8000224,-116.4174997,92270
parking,Unnamed,35.0464808,-118.1682285,93501
parking,Unnamed,35.0470433,-118.1714048,93501
parking,Unnamed,35.0472234,-118.170533,93501
parking,Unnamed,35.0472629,-118.1710185,93501
parking,Unnamed,35.0480315,-118.1715603,93501
parking,Unnamed,34.101448,-117.7825339,91750
supermarket,Albertsons,32.8330197,-116.7502676,91901
supermarket,The Whole Wheatery,34.6877903,-118.1471395,93534
hotel,Four Seasons Resort and Residences Napa Valley,38.5847929,-122.567908,94515
supermarket,Paradise Valley Produce & Grocery Market,32.6972688,-117.0177352,91977
hotel,"Four Seasons Residence Club Aviara, North San Diego",33.0970461,-117.2835067,92011
parking,Unnamed,39.4342247,-120.2048429,
supermarket,Santa Clara Produce and Mediterranean Market,37.3439781,-121.958945,95050
supermarket,Afghan Saffron Co.,37.5900568,-122.068149,94587
parking,Unnamed,38.7585489,-121.38297,95747
parking,Unnamed,37.4539786,-118.1977687,
hotel,Hotel California,33.6256063,-117.9264928,92663
hotel,Agate cove Inn,39.3161857,-123.799477,95460
hotel,Packard house,39.307253,-123.801838,95460
supermarket,Stater Bros.,34.6884109,-118.095865,93535
hotel,The Madrones,39.0590635,-123.4341054,95473
supermarket,Hawthorne Market,33.8040036,-118.350904,90505
parking,Unnamed,41.3270463,-122.3264793,96067
hotel,Vista Collina Resort,38.2470976,-122.2731791,94558
parking,Unnamed,38.2453189,-122.2754967,94559
parking,Unnamed,38.2462759,-122.2736036,94559
parking,Atwell Hockett Trailhead Parking,36.4646274,-118.6669815,
parking,Unnamed,33.7987901,-116.7485768,92546
parking,Unnamed,38.0842713,-122.106019,
parking,Unnamed,37.7178075,-122.3863603,94188
parking,Unnamed,37.7213297,-122.4076846,94134
parking,Unnamed,37.7233601,-122.3962416,94134
parking,Unnamed,37.7249673,-122.3958626,94134
parking,Unnamed,37.7249429,-122.3939216,94134
parking,Unnamed,37.7233467,-122.3939524,94134
parking,Unnamed,37.7232801,-122.38788,94188
parking,Unnamed,37.7230556,-122.3904871,94134
supermarket,Grocery Outlet,38.2593539,-122.0351753,94533
supermarket,Smart & Final,38.2751985,-122.0359625,94533
parking,Unnamed,33.8111091,-118.1501817,90808
parking,Unnamed,33.816174,-118.1589621,90755
parking,Unnamed,33.8112487,-118.1592425,90755
parking,Unnamed,33.8102503,-118.1539508,90755
parking,Unnamed,33.8097864,-118.1521678,90755
parking,Unnamed,33.8097724,-118.1523978,90755
parking,Unnamed,33.8168844,-118.1451597,90808
supermarket,North Park Produce,32.9526981,-117.0646315,92064
supermarket,SF Supermarket,38.0227801,-121.293185,95210
parking,Unnamed,38.3346278,-123.0496156,94923
hotel,Sonesta Select Camarillo,34.2143691,-119.005177,93012
parking,Unnamed,38.7984848,-121.3856194,95747
hotel,Hampton Inn & Suites,33.9043667,-117.4954902,92505
parking,Unnamed,33.0026551,-117.235363,92075
hotel,THE COVE HOTEL,33.8039308,-118.191136,90806
parking,Unnamed,37.869431,-122.0738549,94595
supermarket,Smart & Final,33.8502416,-117.550839,92877
supermarket,Albertsons,34.2094554,-118.554133,91335
hotel,Desert Hot Springs Spa Hotel,33.9695474,-116.502189,92240
hotel,Pine Mountain Hotel,34.8509668,-119.1650192,93222
supermarket,El Super,33.9683393,-118.0979276,90670
supermarket,Super A Foods,33.9641048,-118.150767,90201
parking,Unnamed,32.6056499,-116.4714033,
supermarket,Rolando's Market,32.7134368,-117.0166022,91977
supermarket,G & M Market,32.7142466,-117.0072678,91977
parking,Unnamed,37.9934239,-121.894879,94565
supermarket,Sprouts Farmers Market,33.0034502,-117.0583989,92128
hotel,Elwell Lakes Lodge,39.6974141,-120.6644353,
hotel,Gray Eagle Lodge,39.6931806,-120.6581268,
supermarket,O.C. Kosher Market,33.7383674,-117.8246967,92780
parking,Unnamed,37.7152108,-121.090401,95368
supermarket,Albertsons,33.9614979,-117.6955185,91709
supermarket,Food 4 Less,33.9285468,-118.212444,90262
parking,Unnamed,33.8835512,-118.3957177,90266
supermarket,El Super,33.9337423,-118.1832521,90262
supermarket,La Superior Mercados,38.6073034,-121.4751476,95833
supermarket,Wing Wa Seafood Supermarket,38.5169151,-121.4381705,95824
supermarket,A & A Supermarket,38.507466,-121.4336975,95824
supermarket,Mi Tierra,38.4953744,-121.3914747,95828
supermarket,New Asia Super Market,38.509703,-121.4365227,95824
supermarket,Mi Rancho Supermercado,38.4973722,-121.4834726,95822
supermarket,Pothong Market,38.6314637,-121.4563596,95838
supermarket,Your Family Groceries,38.5391237,-121.4355886,95820
supermarket,Welco Supermarket,38.5245054,-121.4211049,95824
supermarket,La Esperanza Supermarket,38.5294548,-121.4738866,95820
supermarket,King's Supermarkets,38.6104347,-121.457821,95815
supermarket,La Superior Mercados,38.5332484,-121.4745947,95820
supermarket,Safeway,38.5408513,-121.4837573,95818
supermarket,Viva Supermarket,38.6376695,-121.4301943,95838
supermarket,La Superior Mercados,38.672591,-121.3583445,95841
supermarket,Zanotto's,37.2754825,-121.89231,95118
parking,Unnamed,40.1203411,-123.8235633,95560
supermarket,ALDI,33.8458207,-118.262593,90746
parking,Prairie Lot / The Forum,33.9574563,-118.3437206,90292
parking,Unnamed,37.9440759,-120.4621922,95327
supermarket,Super King Food Center,38.02882,-121.321771,95210
supermarket,Ray's Food Place,41.0275532,-121.4223949,96056
hotel,Fall River Hotel,41.0028785,-121.4387147,96028
parking,Unnamed,41.4958428,-120.542249,96101
supermarket,La Surtidora Cash & Carry,34.069887,-117.417,92316
hotel,Neptune Palace Hotel,37.7748754,-122.2765888,94501
parking,Unnamed,39.361097,-123.8086451,95420
parking,Unnamed,32.5898032,-116.4668477,
parking,Unnamed,34.1654839,-117.5233721,
supermarket,Spice Valley Groceries,37.3216567,-121.9717447,95129
parking,Unnamed,39.3861909,-123.8172034,95420
parking,Unnamed,39.3887405,-123.8127214,95420
hotel,Travelodge Fairfield/Napa Valley,38.218343,-122.1318462,94534
parking,Unnamed,32.8428569,-116.5312577,91931
parking,Unnamed,41.7062291,-122.4721447,96064
parking,Unnamed,41.6914053,-122.4799472,96064
parking,Unnamed,41.7163627,-122.4952599,96064
parking,Unnamed,41.7120199,-122.4892357,96064
parking,Unnamed,41.6969952,-122.4791774,96064
parking,Unnamed,41.7029611,-122.487452,96064
parking,Unnamed,41.7043128,-122.4908531,96064
supermarket,99 Ranch Market,37.4919798,-121.9292613,94539
hotel,Hilton Garden Inn Fremont Milpitas,37.4949486,-121.9314,94539
supermarket,Superior Grocers,33.9577257,-118.3096485,90047
supermarket,Numero Uno 113,33.7996104,-118.2738004,90744
supermarket,Northgate Gonzalez Market,33.7920813,-118.2667024,90744
supermarket,Save Mart,39.1430493,-121.599581,95991
supermarket,Galleria Market,34.0523166,-118.308509,90006
mall,Studio City Shopping Mall,34.1411599,-118.375921,91604
parking,Unnamed,37.6639783,-121.8687476,94566
parking,Unnamed,37.6638935,-121.8682987,94566
supermarket,Unnamed,34.0555938,-117.7058685,91761
parking,Unnamed,33.9316057,-117.9001384,92821
supermarket,John's Produce,33.7439604,-117.969206,92683
hotel,Hotel Sausalito,37.8557868,-122.4790944,94965
hotel,The Inn Above Tide,37.8557614,-122.4785365,94965
supermarket,Allstate Insurance,37.3528196,-121.9563789,95050
supermarket,Elegant Hair & Nail,37.352944,-121.9561748,95050
supermarket,Sherwin-Williams Paint Store,37.3529432,-121.9563886,95050
hotel,Heritage Inn Bed & Breakfast,35.2864723,-120.6656624,93405
supermarket,FoodMaxx,38.7027309,-121.384466,95660
supermarket,Bel Air,38.6379171,-121.3305,95608
supermarket,WinCo Foods,38.6072589,-121.381167,95821
supermarket,Viva Supermarket,38.5900618,-121.3040377,95670
supermarket,Save Mart,38.5485728,-121.3601709,95826
parking,Pigeon Point Viewpoint Parking,37.1835178,-122.3843576,
hotel,Napa River Inn,38.2964125,-122.2828577,94559
supermarket,Super Tehran,37.9571735,-122.0393451,94520
hotel,Homewood Suites by Hilton Los Angeles International Airport,33.9460537,-118.392895,90045
hotel,"H Hotel Los Angeles, Curio Collection by Hilton",33.946053,-118.392718,90045
supermarket,Lucky,38.2454624,-122.6431783,94952
mall,LBC Salinas,36.7009987,-121.6526979,93906
parking,Unnamed,38.6765755,-121.8685358,
parking,Unnamed,38.675905,-121.8146399,95695
supermarket,El Super,33.9825405,-118.251688,90001
supermarket,Sav-on,34.2617659,-118.794586,93065
supermarket,99 Ranch Market,38.6906887,-121.125382,95630
supermarket,Hidalgo's Market,37.7052773,-121.7394918,94550
supermarket,Olive Oil and Beyond,33.606232,-117.889651,92662
supermarket,Unnamed,38.5467562,-121.3588357,95826
supermarket,Billy's Egg,34.0153783,-117.7244639,91710
supermarket,Elliott's Natural Foods,38.6108695,-121.385712,95821
parking,Unnamed,34.6886185,-117.8241308,
parking,Unnamed,34.6890429,-117.8235428,
parking,Unnamed,34.6763072,-117.8251874,
parking,Unnamed,38.0478944,-119.2630849,
hotel,Unnamed,32.7362232,-117.2551861,92107
parking,Unnamed,33.6687456,-117.7332496,92618
parking,Target driveup,34.1482822,-118.7942803,91361
supermarket,Sprouts Farmers Market,34.0953907,-118.1251822,91801
supermarket,Stater Bros.,34.1079945,-117.7355023,91711
supermarket,Jay's Market,34.0467048,-118.3237173,90019
parking,Unnamed,39.7189965,-123.6505563,95417
hotel,Cypress Inn,36.5540141,-121.9234298,93922
parking,Unnamed,32.9600257,-117.2661799,92014
supermarket,Trader Joe's,37.7641577,-121.9520829,94583
supermarket,Central Market,38.2423013,-121.5161558,95690
parking,Unnamed,37.6056068,-119.0098554,
parking,Unnamed,37.6119229,-119.0125202,
parking,Unnamed,33.0017251,-117.2358039,92075
parking,Unnamed,37.6498953,-118.9834145,93546
supermarket,Lola’s Market,38.2883254,-122.3094774,94559
supermarket,Grocery Outlet,33.9184754,-117.9954056,90638
hotel,Dwight's Home,37.4642619,-122.2392183,94061
parking,Unnamed,35.8925987,-121.442336,
supermarket,Smart & Final,34.0628263,-118.3497045,90036
supermarket,Marshall's Market,36.8888983,-121.6428367,
supermarket,Raley's,38.5974959,-121.3451622,95864
supermarket,Smart & Final Extra!,38.6325509,-121.3294818,95608
parking,Unnamed,33.9407342,-115.9703194,
parking,Unnamed,33.8891839,-115.824198,
parking,Unnamed,33.9596203,-115.9870008,
parking,Unnamed,33.9829385,-116.0166856,
supermarket,Whole Foods Market,34.0270753,-118.3726066,90016
parking,Unnamed,37.0254283,-122.1550754,95017
parking,Unnamed,34.6810059,-118.1666607,93539
parking,Unnamed,34.09248,-116.1530648,
parking,Unnamed,34.0946864,-116.1575369,
parking,Unnamed,32.7369079,-117.1474279,92101
parking,Unnamed,32.8470762,-117.030056,92071
parking,Unnamed,40.6730332,-121.4426004,96071
supermarket,Trader Joe's,34.1820159,-118.3956215,91606
supermarket,El Marlin Seafood Store,33.9541208,-118.0990797,90660
hotel,Unnamed,32.771055,-115.5337409,92243
hotel,WhyHotel,37.3383344,-121.8874674,95113
supermarket,SF Supermarket,34.0114724,-117.8854873,91792
supermarket,Grocery Outlet,34.3846897,-118.5315493,91321
parking,Unnamed,37.2874597,-119.5196441,93643
supermarket,Island Cove Market,37.8263913,-122.3704466,94130
parking,Unnamed,37.3312245,-119.190136,
parking,Coyote Outlook Trailhead,39.3154819,-120.997639,
hotel,Harbor House Inn,39.1356489,-123.719529,95432
supermarket,Seasons Asian Market,38.4224519,-121.415581,95758
parking,Unnamed,41.0588627,-124.1474431,
hotel,Hotel Lexen,34.377216,-118.5258317,91321
supermarket,Old Poway Market,32.9686351,-117.0358568,92064
supermarket,Safeway,38.2697049,-122.6389113,94954
supermarket,La Hacienda Market,35.5030678,-119.2774005,93263
supermarket,Thuan Phat,33.7377606,-117.9888866,92644
parking,Unnamed,37.684805,-121.7640032,94550
parking,Unnamed,34.0733094,-118.3743864,90048
hotel,Motel San Diego,32.8070511,-117.2196338,92109
parking,Unnamed,39.0571384,-120.1214081,96142
supermarket,Bonfare,37.471432,-122.2594604,94062
supermarket,Վարթաշեն Նպարատուն,34.2007767,-118.4143209,91605
parking,"""UCSD Theatre District Living and Learning Neighborhood"" Construction Parking",32.8891607,-117.247783,92093
supermarket,Halal Meats,37.2961964,-122.0311484,95014
supermarket,Grocery Outlet,39.0342514,-122.9167417,95453
supermarket,Bruno's Shop Smart,39.0338629,-122.9181453,95453
supermarket,Lilac Foods,33.2359752,-117.052162,92082
parking,Unnamed,32.6916753,-117.1952431,92135
parking,Unnamed,32.6927848,-117.1960411,92135
parking,Unnamed,32.6940489,-117.1988681,92135
parking,Unnamed,32.6982642,-117.1973728,92135
parking,Unnamed,32.7013147,-117.1974009,92135
parking,Unnamed,32.7001004,-117.1923074,92135
hotel,Mendocino Coast Reservations,39.3075304,-123.8000497,95460
hotel,MacCallum House,39.3057512,-123.7997358,95460
parking,Unnamed,37.0907803,-121.7210087,
parking,Stout Memorial Grove Parking,41.7893534,-124.085099,
parking,Unnamed,41.7721075,-124.0990587,75531
parking,Unnamed,36.2858629,-116.8261395,
hotel,The Estate Yountville,38.4000578,-122.3604533,94599
parking,Unnamed,37.1662977,-121.6417703,95037
supermarket,Smart & Final Extra!,35.3855515,-119.1119803,93312
parking,Unnamed,33.3422202,-118.3273408,90704
parking,Unnamed,38.4952997,-122.7488642,95439
supermarket,Food 4 Less,34.0409993,-118.2055794,90033
hotel,Highlands Ranch Resort,40.3592907,-121.4939435,96061
parking,Unnamed,35.4471962,-120.8709749,93430
parking,Unnamed,37.9536681,-122.529266,94904
hotel,Trixie Motel,33.8434213,-116.5478814,92292
parking,Unnamed,37.5690975,-121.68618,
parking,Unnamed,38.9484869,-122.9034716,
parking,Unnamed,39.1268506,-122.9952413,95453
parking,Unnamed,39.3457535,-122.7520829,
parking,Unnamed,39.4842163,-122.8579811,
parking,Unnamed,38.9364544,-122.9031352,
parking,Unnamed,38.9403941,-122.9059269,
parking,Unnamed,38.7929681,-122.6573055,95461
supermarket,Smart & Final,34.0397419,-118.4644315,90025
supermarket,Koshco Superstore,34.0546256,-118.383964,90035
parking,Unnamed,37.1458352,-121.6344988,95037
parking,Unnamed,36.2100009,-121.7392976,
parking,Unnamed,37.1167957,-121.6864707,95037
supermarket,Wilco,37.975235,-120.3704805,95370
parking,Unnamed,35.0657312,-118.4817848,
parking,Unnamed,35.4455356,-118.9174921,
parking,Unnamed,35.5528668,-118.133621,
supermarket,Superior,33.895143,-118.326006,90249
parking,Unnamed,37.4176276,-119.7307082,93601
supermarket,Smart & Final,34.0283717,-118.3354674,90505
parking,Unnamed,37.4300692,-122.2989649,94062
parking,Unnamed,33.7906031,-116.4923986,92234
parking,Unnamed,33.6715258,-116.4094901,92770
hotel,Vichy Springs Resort Inn,39.1670068,-123.1578904,95481
parking,Unnamed,38.1541568,-122.919683,94940
supermarket,American Precast Concrete Inc.,34.048887,-118.0249897,91732
parking,Unnamed,34.1017097,-117.2888692,92401
parking,Unnamed,37.9897621,-119.1417423,93541
parking,Unnamed,34.1977587,-118.8687006,91360
hotel,Blue Iguana Inn,34.4316316,-119.2805948,93023
supermarket,El Super,33.9755697,-118.2341456,90255
parking,Free Street Parking,32.9996739,-116.938033,
parking,Unnamed,37.3266251,-119.0135287,93642
parking,Unnamed,37.3259885,-119.0136132,
parking,Unnamed,37.3270421,-119.018873,93642
parking,Unnamed,39.5173093,-121.548253,95965
parking,Unnamed,38.7701532,-120.7005109,95709
parking,Unnamed,41.7686348,-124.110208,95531
parking,Unnamed,41.4389052,-124.0404871,
parking,Unnamed,34.6224798,-117.0996974,
parking,Unnamed,35.6807095,-116.421003,
parking,Unnamed,35.6950052,-116.3933937,
parking,Unnamed,36.6678916,-116.9105928,
parking,Unnamed,36.9187862,-120.8278567,
supermarket,Super King,34.1671536,-118.291654,91201
supermarket,Grocery Outlet,34.1358638,-116.0974441,92277
parking,Unnamed,37.4397483,-119.4776977,
parking,Unnamed,39.341599,-120.6492013,95715
parking,Unnamed,39.3445067,-120.6510056,95715
hotel,Lyfe Inn,34.240189,-118.3952069,91352
parking,VSP Parking,34.1962629,-118.3485491,91504
parking,Unnamed,33.7148648,-117.8268778,92780
parking,Unnamed,39.1571638,-120.5026364,
supermarket,Grocery Outlet,33.5752544,-117.1795481,92563
parking,Unnamed,39.526388,-120.0703505,
parking,Unnamed,39.6507771,-120.5389059,96125
parking,Unnamed,39.6216769,-120.6151494,96125
parking,Unnamed,39.6143731,-121.266733,95940
parking,Unnamed,33.3305417,-116.294071,
parking,Unnamed,33.2955906,-116.2979083,
parking,Unnamed,34.3422103,-117.6031843,92397
parking,Unnamed,41.5626806,-123.0487697,
supermarket,Young’s Payless IGA,38.156411,-121.1534949,95237
parking,Unnamed,38.6817151,-121.7670539,95695
parking,Indian Springs Trailhead,39.8715968,-121.6211468,95942
parking,Doe Mill Road Trailhead,39.9081788,-121.617849,95942
parking,Thomes Gorge Trailhead,39.8199283,-122.6476094,
parking,Unnamed,33.1277169,-117.1602692,92096
parking,Unnamed,33.1317011,-117.15966,92096
parking,Unnamed,33.1323503,-117.1594713,92096
parking,Unnamed,33.1424588,-117.1539984,92069
hotel,Unnamed,33.8713775,-118.0816891,90701
parking,Unnamed,32.89575,-116.5789412,91916
parking,Unnamed,39.9587279,-121.1352047,95984
parking,Unnamed,39.7424467,-120.701473,
parking,Unnamed,39.7635936,-120.713029,
supermarket,Pinoy Pam's Best,33.6200639,-117.7042051,92630
parking,Unnamed,37.0861242,-122.0541204,95041
parking,Unnamed,41.4505423,-120.2432918,
parking,Unnamed,37.3687443,-121.9619885,95054
supermarket,Royal Market,37.7802753,-122.4767481,94121
supermarket,Bel Air,38.6637765,-121.7398632,95776
parking,Unnamed,41.198156,-120.1878106,
parking,Unnamed,34.0880625,-118.343946,90038
supermarket,Unnamed,37.7563618,-122.2335097,94501
parking,disc golf parking,39.7765506,-121.7323351,95942
parking,Area M,39.7811813,-121.7472361,
parking,Unnamed,37.7151934,-119.6650936,
parking,Unnamed,36.9966043,-122.0618694,95064
parking,Unnamed,37.066986,-122.0056659,95066
supermarket,Grocery Outlet,38.4678154,-121.8217252,95620
supermarket,Commissary,32.8926447,-117.125355,92126
supermarket,R-N Market Visalia,36.3239632,-119.2623167,93292
parking,Unnamed,40.2021804,-122.9300451,
parking,Unnamed,40.2211777,-122.9791261,
parking,Unnamed,39.737883,-122.643533,
parking,Unnamed,39.1578871,-122.4794006,
parking,Unnamed,39.8942851,-122.9890211,
hotel,Best Western Plus,35.6024975,-119.3453662,93280
supermarket,Tropicana Supermarkets,35.6003123,-119.352975,93280
supermarket,Ralphs,33.9582719,-118.4183307,90045
parking,Unnamed,37.7468608,-120.0365956,
parking,Unnamed,37.7472181,-120.0379555,
parking,Phyllis Ellman Trailhead Parking,37.9209888,-122.4943987,94964
parking,Unnamed,37.4918068,-121.9297352,94539
supermarket,Indian Supermarket,38.6520142,-121.5031604,94834
hotel,Trillium Cafe & Inn,39.3050614,-123.8016708,95460
parking,Unnamed,33.8041279,-118.3903973,90277
parking,Little Bald Hills Trailhead,41.788675,-124.0731633,
parking,Unnamed,37.722921,-119.6243822,95389
supermarket,WinCo Foods,37.6708272,-121.0338484,95350
supermarket,WinCo Foods,38.0113991,-121.8576852,94565
parking,Unnamed,38.2774788,-122.2681567,94559
parking,Unnamed,38.2769318,-122.2678161,94559
parking,Unnamed,38.2773635,-122.268571,94559
parking,Unnamed,38.2787863,-122.2691249,94559
parking,Unnamed,38.2788632,-122.2698089,94559
parking,Unnamed,38.2796696,-122.2703533,94559
parking,Unnamed,38.2798202,-122.2709233,94559
parking,Unnamed,38.2792559,-122.2711661,94559
parking,Unnamed,38.2791516,-122.2717199,94559
parking,Unnamed,38.2793918,-122.2721241,94559
parking,Unnamed,38.2790387,-122.2722889,94559
parking,Unnamed,38.2788574,-122.2707668,94559
parking,Unnamed,38.278999,-122.2658773,94559
parking,Unnamed,38.2791347,-122.2617854,94559
parking,Unnamed,38.278916,-122.2606674,
parking,Unnamed,38.2784325,-122.2622793,94559
parking,Unnamed,38.2797031,-122.2574848,94559
parking,Unnamed,38.2762668,-122.2690156,94559
parking,Unnamed,38.2776643,-122.2700556,94559
parking,Unnamed,38.2775653,-122.2694111,94559
supermarket,Four Seasons Market,37.7389988,-122.4681512,94127
hotel,Navy Gateway Inn and Suites,32.6989096,-117.1941599,92135
parking,Unnamed,37.1527085,-121.6378757,95038
parking,Unnamed,37.6540073,-120.9583183,95354
parking,Unnamed,40.1779943,-121.0817939,96137
hotel,Walker mansion inn,40.3018006,-121.0008794,
parking,Unnamed,40.1729665,-121.0864077,
hotel,Rotex Hotel,34.0528926,-118.3124957,90064
parking,Unnamed,33.1266946,-115.9592376,
supermarket,Stater Bros.,33.9993043,-117.5769882,91761
parking,Unnamed,37.1238252,-118.4367357,
supermarket,Carniceria Del Valle,38.6965109,-121.3640413,95842
supermarket,Good Taste Market,38.695997,-121.3640845,95842
supermarket,Antelope Market,38.7190352,-121.3806712,95843
supermarket,Punjab Bazaar,38.7047026,-121.3267401,95842
parking,Unnamed,33.7182296,-118.280917,90731
parking,Unnamed,33.7212591,-118.2822237,90733
hotel,The National Exchange,39.2622862,-121.0180624,95959
parking,Unnamed,38.0131271,-119.885879,
parking,Unnamed,37.9882415,-119.8875092,
parking,Unnamed,37.9898256,-119.8868326,
supermarket,Food 4 Less,34.2752459,-118.4123679,91331
parking,Unnamed,38.1860098,-122.2601691,94503
supermarket,Smart & Final,34.022826,-118.2920912,90007
supermarket,Stater Bros.,33.9785717,-118.0512061,90601
supermarket,Ralphs,33.9819999,-118.0497247,90601
hotel,Hampton Inn and Suites,38.9510964,-119.950094,96150
parking,Unnamed,33.7378831,-116.5390136,
parking,Unnamed,33.7395771,-117.7838448,92782
parking,Unnamed,32.7380063,-117.0726175,92105
supermarket,7 Days Food Store,33.7379883,-118.283859,90732
hotel,Adara Hotel Palm Springs,33.804455,-116.5450384,92264
parking,Unnamed,32.7546596,-117.2461881,92017
mall,Hawthorne Center,33.9032758,-118.3530115,90275
supermarket,Food 4 Less,33.9410683,-118.0450936,90605
supermarket,El Super,33.9391581,-118.0480783,90670
parking,Unnamed,37.3212924,-119.0188907,
supermarket,Grocery Outlet,33.939156,-118.1327188,90241
supermarket,International India Bazaar,33.7390653,-117.8248729,92780
parking,Unnamed,37.6368856,-118.7266248,
parking,Planned Terminal B Parking Garage 2026,38.6914628,-121.5934743,95837
parking,Parking lot,37.9289245,-121.9188255,94517
parking,Parking lot,37.9398444,-121.9329779,94517
parking,Parking lot,37.9409993,-121.9347541,94517
parking,Unnamed,37.456999,-122.2296281,94061
supermarket,Guru Indian Grocery,37.6886231,-120.9568863,95355
parking,Unnamed,39.5164332,-123.0942317,
parking,Unnamed,37.9511322,-121.7769554,94531
hotel,Regency Inn,38.1354061,-122.2556919,94589
parking,Unnamed,39.3355981,-123.7569821,95460
parking,Unnamed,41.7683256,-124.2109709,75531
parking,Unnamed,41.770609,-124.210021,75531
parking,Unnamed,41.7716944,-124.2064116,75531
supermarket,Grocery Outlet,33.9738208,-117.3493965,92521
supermarket,Grocery Outlet,37.9597203,-122.5080891,94901
supermarket,Nadrich Accident Injury Lawyers,37.3080616,-120.485692,95340
parking,Death Valley National Park Eastern Entrance,36.3754557,-116.685043,
parking,Unnamed,36.3592931,-116.7982571,
supermarket,Attic Projects,32.8929395,-117.152788,92126
supermarket,168 Market,38.1271105,-122.2533395,94589
supermarket,Smart & Final Extra!,38.1280402,-122.2564681,94589
supermarket,Kassel And Kassel Law Offices,34.0689036,-117.2254738,92374
parking,Unnamed,37.6344133,-122.49031,94044
parking,Unnamed,36.6712908,-121.6041385,93905
supermarket,Food 4 Less,33.9938126,-118.273391,90037
parking,Unnamed,38.7012999,-121.2587214,95610
supermarket,歡迎光臨萬樂市場,34.2022646,-118.5363484,91335
supermarket,Whole Foods Market,38.4038177,-122.824025,95472
supermarket,El Super,33.9744208,-118.2686592,90201
supermarket,Molsberry’s Market,38.5016047,-122.7513416,95439
supermarket,East Market,38.6107663,-121.3851585,95821
parking,Unnamed,38.2438403,-122.9050222,94971
supermarket,Superior Grocers,33.9433438,-118.2665076,90003
supermarket,Super King,34.0800957,-117.7214336,91711
parking,Unnamed,34.0583976,-117.423527,92316
supermarket,Superior Grocers,33.9733991,-118.2470884,90001
supermarket,Food 4 Less,33.9258238,-118.2376001,90059
supermarket,El Super,33.9888385,-118.293159,90230
supermarket,Superior Grocers,33.9882527,-118.2898676,90044
parking,Unnamed,37.7270787,-119.6303281,95389
hotel,Trend Hotel LAX,33.9312588,-118.3509029,90304
supermarket,Susanville Supermarket IGA,40.4170984,-120.6531188,96130
supermarket,Market at the Ranch,32.9126577,-117.0794373,92131
parking,Unnamed,40.5768283,-124.2668682,
parking,Unnamed,40.5777675,-124.2681674,
parking,Unnamed,33.5035419,-117.1367569,92591
supermarket,Sprouts Farmers Market,33.6344767,-117.9184402,92627
supermarket,Food Barn,38.127596,-122.2503036,94589
supermarket,Grocery Outlet,37.9451802,-121.6954422,94513
hotel,The Castle House Estate,34.1652837,-116.2616379,92252
hotel,Home2 Suites,38.5821918,-121.5216029,95691
supermarket,Smart & Final,34.2726593,-118.692701,93063
parking,Unnamed,37.691714,-119.7050635,
parking,Unnamed,37.7093511,-119.7080367,95384
parking,Unnamed,37.6556376,-119.7029407,
parking,Unnamed,37.6725022,-119.7006112,
parking,Unnamed,37.7206779,-119.6293656,95389
parking,Unnamed,37.6626023,-119.710312,
parking,Unnamed,37.7223616,-119.7051954,
parking,Unnamed,37.6660531,-119.7127344,
parking,Unnamed,37.6566594,-119.7028599,
parking,Unnamed,37.7210565,-119.6449179,95389
parking,Unnamed,37.6689404,-119.6736992,
parking,Unnamed,37.7202122,-119.631117,95389
parking,Unnamed,37.671844,-119.7008319,
parking,Unnamed,37.6691417,-119.7109477,
parking,Unnamed,37.7205691,-119.6293087,95389
parking,Unnamed,37.6735714,-119.7007177,
parking,Unnamed,37.6714966,-119.7098338,
parking,Unnamed,37.6719241,-119.6773843,
parking,Unnamed,37.6849495,-119.7092214,95384
parking,Unnamed,37.6586319,-119.7120632,
parking,Unnamed,37.661633,-119.7061896,
parking,Unnamed,37.6909621,-119.7029385,
parking,Unnamed,37.6738858,-119.6968024,
parking,Unnamed,37.7169556,-119.652146,
parking,Unnamed,37.6782833,-119.7083395,
parking,Unnamed,37.727044,-119.6091014,95389
parking,Unnamed,37.6901766,-119.7004751,
parking,Unnamed,37.7028439,-119.7124607,95384
hotel,Hotel Catalina,33.3445405,-118.3279181,90704
hotel,Snug Harbor Inn,33.3437865,-118.3259363,90704
hotel,Casa Mariquita,33.3431624,-118.3282612,90704
hotel,Mt. Ada,33.3413819,-118.321433,90704
supermarket,La Superior Mercados,38.6800122,-121.7858835,95695
parking,Unnamed,33.4924538,-117.08608,92592
parking,Unnamed,33.4916985,-117.0866458,92592
parking,Unnamed,33.4918086,-117.0877751,92592
parking,Unnamed,32.7082775,-117.0726661,92114
parking,Unnamed,33.5331956,-117.1755389,92562
parking,Unnamed,33.5334929,-117.1742298,92562
parking,Unnamed,33.5336799,-117.1767821,92562
parking,Unnamed,33.533782,-117.1777834,92562
parking,Unnamed,33.531119,-117.1808813,92562
parking,Unnamed,33.5329869,-117.1791705,92562
parking,Unnamed,33.5309385,-117.1830756,92562
parking,Unnamed,33.5305342,-117.1812628,92562
parking,Unnamed,33.5332782,-117.1775303,92562
parking,Unnamed,33.5305045,-117.185913,92390
parking,Unnamed,33.5313347,-117.1835119,92562
parking,Unnamed,33.5308322,-117.1842569,92390
parking,Unnamed,33.5316581,-117.1847571,92562
parking,Unnamed,33.5296815,-117.1859716,92390
parking,Unnamed,33.5342843,-117.1780342,92562
supermarket,Smart & Final Extra!,34.1745125,-118.2925494,91201
parking,Unnamed,37.7790557,-119.1295168,93529
parking,Unnamed,38.4426174,-122.5308898,
supermarket,Red Top Market and Kitchen,34.1796504,-118.3009026,91502
supermarket,Safeway,37.3009318,-121.9518383,95117
supermarket,Ralphs,33.6293411,-117.9068694,92660
supermarket,Stater Bros. Markets,33.6506885,-117.9087398,92627
supermarket,Stater Bros. Markets,33.7263885,-117.9051156,92704
supermarket,Sprouts Farmers Market,33.7876719,-117.9606792,92841
supermarket,Stater Bros. Markets,33.7880294,-117.9769988,92841
supermarket,Albertsons,33.8338753,-118.0271603,90620
supermarket,Ralphs,33.818342,-118.0619768,90630
supermarket,Stater Bros. Markets,33.8747447,-118.0813914,90701
supermarket,Sprouts Farmers Market,33.8865739,-118.087416,90650
supermarket,Beni Kosher Market,34.178879,-118.6230237,91367
supermarket,Big Market Kosher,34.1794658,-118.623801,91367
parking,Unnamed,33.5414131,-117.0946191,95291
parking,Unnamed,37.7211867,-121.5290658,95391
parking,Unnamed,36.3213172,-119.300386,93277
parking,Unnamed,36.3237943,-119.3005584,93277
parking,Unnamed,33.5446974,-117.199696,92562
parking,Unnamed,36.5990875,-119.4432857,93654
parking,Unnamed,36.600339,-119.4437586,93654
supermarket,Grocery Outlet,33.9435303,-116.5020666,92240
supermarket,Safeway,37.2932065,-121.9666878,95008
supermarket,Mother's,34.090935,-118.3360353,90038
supermarket,Albertsons,35.3961086,-118.9659554,93306
supermarket,Sprouts Farmers Market,35.294601,-119.041661,93313
supermarket,Albertsons,35.3192809,-119.0902668,93309
supermarket,Trader Joe's,35.3570306,-119.0933723,93311
supermarket,Albertsons,35.3820332,-119.1463628,93314
supermarket,Sprouts Farmers Market,34.4216866,-119.6778499,93103
supermarket,ALDI,34.2610943,-119.2349949,93003
supermarket,Sprouts Farmers Market,34.261493,-119.2271717,93003
supermarket,Trader Joe's,34.2582554,-118.5787951,91311
supermarket,Ralphs,34.2566796,-118.5012823,91344
supermarket,Albertsons,34.2344938,-118.5014299,91325
supermarket,Whole Foods Market,34.1579877,-118.4141396,91423
supermarket,Trader Joe's,34.0711651,-118.3770707,90048
hotel,Courtyard By Marriott Marina del Rey,33.9744684,-118.457427,90292
supermarket,Ralphs,33.9248065,-118.2910157,90044
supermarket,Albertsons,33.7212827,-118.0407585,92649
supermarket,Ralphs Fresh Fare,33.7166377,-118.0379931,92649
supermarket,Sprouts Farmers Market,33.7021896,-117.9701078,92708
supermarket,Ralphs,33.6953742,-117.955767,92708
supermarket,Albertsons,33.693015,-117.955891,92708
supermarket,Trader Joe's,33.6517938,-117.954554,92646
supermarket,Ralphs Fresh Fare,33.6408004,-117.8756179,92660
supermarket,Trader Joe's,33.8896122,-117.7923302,92886
supermarket,Ralphs,33.877556,-117.8419466,92870
supermarket,Ralphs,33.8871996,-117.8672336,92831
supermarket,Stater Bros. Markets,33.9857344,-117.8707367,91748
supermarket,Stater Bros. Markets,34.0426982,-117.8522348,91789
supermarket,Stater Bros. Markets,34.0317908,-117.9130066,91792
supermarket,Sprouts Farmers Market,33.9187745,-117.9621206,90631
supermarket,Smart & Final Extra!,36.2997469,-119.3117257,93277
supermarket,El Super,33.9740383,-118.2907344,90044
parking,Unnamed,35.1356418,-119.8458543,
parking,Unnamed,34.9891937,-119.4804597,
parking,Unnamed,34.9902133,-119.4839868,
supermarket,Stater Bros. Markets,34.127077,-117.8301564,91740
supermarket,Smart & Final Extra!,33.8946156,-118.2209185,90221
hotel,Days Inn,34.0951365,-118.1286453,91801
hotel,Secret Garden Inn & Cottages,34.4272192,-119.7169867,93101
parking,Unnamed,34.3444403,-117.9711845,
parking,Unnamed,34.0872897,-118.4337384,90210
hotel,Stanly Ranch,38.2441635,-122.299168,94559
parking,Unnamed,34.2805501,-118.7087682,90363
supermarket,Smart & Final,34.6887779,-118.167648,93539
supermarket,DG Dollar General,33.6107279,-114.5847454,92226
parking,Unnamed,38.2478437,-122.2740947,94559
parking,Unnamed,34.2376599,-117.6578975,92358
parking,Unnamed,34.2382595,-117.6576723,92358
parking,Unnamed,34.3020666,-118.8373249,93021
supermarket,El Super,33.9598714,-118.2544907,90002
supermarket,Food 4 Less,33.9446015,-118.2439543,90002
parking,Unnamed,36.7100827,-120.8163419,
parking,Unnamed,34.2934088,-118.7144494,90363
parking,Unnamed,34.2934172,-118.7117091,90363
parking,Unnamed,34.3711327,-117.9970481,
parking,Unnamed,33.5409796,-117.1158502,92591
parking,Unnamed,33.5408262,-117.1163479,92591
parking,Unnamed,33.5425505,-117.1160602,92591
parking,Unnamed,33.5423733,-117.1166285,95291
parking,Unnamed,33.5410626,-117.1171448,92591
supermarket,Stater Bros.,33.9570878,-117.6218065,91708
hotel,Home2 Suites by Hilton Big Bear Lake,34.2438814,-116.8894491,92315
hotel,Hampton Inn Big Bear Lake,34.2438814,-116.8899446,92315
parking,Unnamed,36.5787475,-120.694693,
parking,Unnamed,33.5538488,-117.1362702,92589
parking,Unnamed,33.5552097,-117.1381491,92589
parking,Unnamed,33.5399276,-117.1425323,92591
parking,Unnamed,33.5524009,-117.1416681,92589
parking,Unnamed,33.5533951,-117.138636,92589
parking,Unnamed,33.5548478,-117.1366317,92589
parking,Unnamed,33.5378482,-117.144416,92591
parking,Unnamed,33.5383943,-117.1432429,92589
parking,Unnamed,33.537944,-117.1424971,92589
parking,Unnamed,33.5380927,-117.144362,92591
parking,Unnamed,33.5517658,-117.1373454,92589
parking,Unnamed,33.5510254,-117.1396415,92589
parking,Unnamed,33.5530789,-117.1373013,92589
parking,Unnamed,33.5383255,-117.1419177,92591
parking,Unnamed,33.5517664,-117.1420088,92589
parking,Unnamed,33.5383474,-117.1428524,92589
supermarket,La Paradita Peru,37.4948258,-122.2370588,94063
parking,Unnamed,32.924582,-117.1138356,92131
parking,Unnamed,37.6413221,-118.9141392,93546
parking,Unnamed,33.9325925,-118.3447778,90304
parking,Unnamed,33.9336884,-118.3451211,90292
parking,Unnamed,33.933246,-118.3450648,90304
parking,Unnamed,33.932331,-118.3435896,90292
parking,Unnamed,33.9384929,-118.3442082,90250
parking,Unnamed,33.9314082,-118.3431138,90292
parking,Unnamed,33.9400202,-118.3435474,90303
parking,Unnamed,33.9369684,-118.3436597,90303
parking,Unnamed,33.9379563,-118.3436924,90292
parking,Unnamed,33.9322126,-118.3445398,90292
parking,Unnamed,33.9379229,-118.3446855,90250
parking,Unnamed,33.9317808,-118.3436133,90292
parking,Unnamed,33.9312197,-118.3430636,90292
parking,Unnamed,33.9376559,-118.3453949,90250
parking,Unnamed,33.9396309,-118.3436303,90303
parking,Unnamed,33.9307172,-118.3432297,90292
parking,Unnamed,33.9389164,-118.344559,90304
parking,Unnamed,33.9403007,-118.3435463,90303
parking,Unnamed,33.9388855,-118.344205,90304
parking,Unnamed,34.1643407,-118.2813278,91201
parking,Unnamed,33.8993796,-116.3607256,
parking,Unnamed,33.5289238,-117.0733011,95291
hotel,Home2 Suites by Hilton San Jose South,37.2587233,-121.7846698,95138
supermarket,Antojitos Patry,37.7514061,-122.4182021,90103
supermarket,Konnekted,34.1896447,-118.6250279,91307
hotel,Holiday Inn Express,33.9252398,-116.9098425,92220
supermarket,Stater Bros. Markets,33.8041696,-116.9707775,92583
supermarket,Stater Bros. Markets,33.7467912,-116.9316848,92544
hotel,Days Inn,33.7478652,-116.9793141,92543
supermarket,Stater Bros. Markets,33.745628,-117.0053453,92545
supermarket,Stater Bros. Markets,33.6868861,-117.3679824,92530
supermarket,Ralphs Fresh Fare,33.5538624,-117.6873699,92677
supermarket,Ralphs,33.6719801,-117.7897901,92604
supermarket,Stater Bros. Markets,33.8495204,-117.8902113,92806
hotel,Home2 Suites,33.8115234,-117.9128178,92802
hotel,Residence Inn,34.1418429,-118.0235307,91006
supermarket,Sprouts Farmers Market,34.131587,-117.614893,91701
supermarket,Albertsons,34.1354126,-117.5574085,91701
supermarket,Stater Bros.,34.0784901,-117.6097259,91764
hotel,Days Inn,34.0780151,-117.6263257,91764
supermarket,Stater Bros. Markets,34.0183544,-117.7018292,91710
supermarket,Sprouts Farmers Market,33.9763949,-117.5902927,92880
supermarket,Stater Bros. Markets,33.974855,-117.524859,91752
supermarket,ALDI,33.9734131,-117.5463705,91752
supermarket,Ralphs Fresh Fare,33.9559109,-117.3321018,92507
hotel,Home2 Suites,33.8894781,-117.2746709,92518
supermarket,Sprouts Farmers Market,33.941835,-117.242605,92557
supermarket,Stater Bros. Markets,33.9482951,-117.2621968,92557
supermarket,Stater Bros. Markets,34.1221927,-117.2758318,92410
supermarket,Stater Bros. Markets,34.1368811,-117.2541087,92404
supermarket,Stater Bros. Markets,34.1629971,-117.305638,92407
supermarket,Stater Bros. Markets,34.1053989,-117.3600706,92376
hotel,Home2 Suites,34.0709154,-117.2682769,92408
supermarket,Payless Foods,33.9151817,-118.2646287,90061
supermarket,Smart & Final,33.9168555,-118.2548297,90059
supermarket,Grocery Outlet,33.9037083,-118.255119,90220
supermarket,Food 4 Less,33.901776,-118.2521388,90220
parking,Unnamed,37.8017553,-121.3675497,
hotel,Fairfield Inn & Suites,37.6087875,-122.4961427,94044
supermarket,Northgate Market,34.040179,-118.2129453,90033
parking,Unnamed,34.180563,-118.3948091,91606
supermarket,El Super,33.9558842,-118.2129472,90280
supermarket,Foods Co,36.8058782,-119.8596289,93711
supermarket,Save Mart,36.7922572,-119.8246784,93705
supermarket,Vallarta,36.7708458,-119.8350155,93705
supermarket,Smart & Final,34.0407282,-118.212986,90033
supermarket,Young's Market,40.0751095,-120.8402827,95983
supermarket,Lucky,38.3002767,-122.4766881,95476
supermarket,Vallarta,34.0277426,-118.2001058,90023
supermarket,Food 4 Less,34.0180895,-118.1983784,90023
supermarket,Grocery Outlet,37.9616469,-122.3468963,94806
supermarket,Grocery Outlet,37.6654635,-122.4523326,94080
supermarket,Ponderosa Market,37.0775693,-119.4849116,93667
parking,Unnamed,32.682437,-116.5169974,91906
supermarket,Sunrise Indian Market,38.5914915,-121.2664426,95670
parking,Unnamed,37.6531881,-121.0104515,95351
parking,Unnamed,38.0008042,-121.8761231,94565
parking,Unnamed,35.2838057,-120.6627329,93410
parking,Unnamed,35.2835284,-120.6624262,93410
supermarket,Groccery Outlet,38.6975599,-121.0002978,95682
parking,Unnamed,34.247128,-118.8351895,93065
supermarket,R-N Market,36.8351018,-119.7522239,93710
supermarket,Crossroads Specialty Foods,37.69389,-122.0619326,94540
parking,Unnamed,38.8914486,-121.2930271,95648
hotel,Firefall Ranch at Yosemite,37.8153739,-120.1102996,95321
supermarket,Los Reyes Market,35.321553,-119.0047212,93304
parking,Unnamed,33.8714513,-118.082875,90701
supermarket,Seafood City Supermarket,34.4296653,-118.5363212,93551
parking,Unnamed,34.2230392,-116.9750077,
parking,Unnamed,34.224157,-116.9461755,92333
hotel,Inn at the Pier,35.139305,-120.6422156,93449
parking,Unnamed,34.292793,-116.8643632,92314
parking,Unnamed,34.303939,-117.0131167,
hotel,Mission Pacific Beach Resort,33.194587,-117.3828887,92054
supermarket,Great Wall Supermarket,34.1021355,-118.0749348,91778
hotel,Creekside Inn and Resort,38.4992395,-122.9951791,95446
supermarket,Classic Wine Vinegar Co.,37.5789123,-120.9799027,95307
parking,Unnamed,37.6132387,-120.9439752,95319
supermarket,Lupita's Market,34.0917839,-118.223926,90065
parking,Unnamed,37.8265414,-122.5192317,94965
parking,Unnamed,40.5214516,-123.2355523,
supermarket,Smart & Final Extra!,34.0992822,-118.1195748,91802
supermarket,Food 4 Less,33.9869321,-118.1875177,90270
supermarket,Next Level Plumbing Services,37.5727972,-122.3818005,94010
supermarket,Grocery Outlet,33.8040207,-118.1888677,90806
parking,Unnamed,37.9842462,-122.3373372,94806
supermarket,Sprouts Farmers Market,37.6694806,-120.9931687,95350
parking,Unnamed,37.6697055,-120.9906656,95354
supermarket,Raley's,39.5071,-121.5495199,95965
supermarket,Grocery Outlet,39.5014164,-121.5630783,95965
supermarket,FoodMaxx,39.5023491,-121.5616269,95965
parking,Unnamed,37.8849857,-122.5706681,94941
parking,Unnamed,41.2277446,-122.7072066,
supermarket,Mercado Guadalajara 3,34.273927,-118.709577,93063
supermarket,Barons Market,33.5142365,-117.1024405,95291
supermarket,Grocery Outlet,36.3089999,-119.3155425,93277
parking,Unnamed,38.4412977,-121.9154993,
parking,Unnamed,34.1842957,-118.5744386,91371
supermarket,Cuisinery Food Market,32.8836409,-117.1556159,92126
parking,Unnamed,40.8034779,-124.1655911,95502
parking,Unnamed,40.8052226,-124.1646655,95502
parking,Unnamed,34.2506533,-118.4677301,91345
supermarket,Grocery Outlet,34.0929752,-117.6694657,91786
supermarket,Superior Grocers,34.0226595,-118.2516039,90011
supermarket,Island Savoy Market,37.7746417,-122.2643792,94501
hotel,Mine + Farm,38.5061749,-122.9606839,95471
parking,Unnamed,40.2703258,-122.2704781,96980
parking,Unnamed,40.2698772,-122.2698827,96980
supermarket,ALDI,34.0135212,-117.4606515,92509
parking,Saint Brigid Parish Parking,32.800889,-117.2532423,92109
parking,Unnamed,32.7986277,-117.2518315,92109
supermarket,Pine Grove Market,38.4126705,-120.6669079,95665
supermarket,ALDI,36.29077,-119.3112858,93277
parking,Unnamed,37.4430056,-118.1964999,
supermarket,Apna Market,37.6896049,-121.9025185,94588
hotel,Tuscan Garden Inn,34.0519059,-118.2814959,90064
parking,Unnamed,37.8296507,-122.2264813,94611
parking,Unnamed,37.425534,-118.1972376,
parking,Unnamed,37.4299177,-118.1984017,
parking,Unnamed,37.5075754,-118.205516,
parking,Unnamed,36.5119377,-117.9778598,
parking,Unnamed,38.7884709,-121.2387229,95677
supermarket,Tienda Guatemalteca El Quetzal,37.9668564,-121.2747664,95205
hotel,Hotel Atwater,33.343532,-118.3266966,90704
parking,Unnamed,37.4276576,-122.157919,94305
parking,Dry Boat Storage,37.8695236,-122.4983636,94965
supermarket,Zion Market,33.8828142,-117.995484,90621
parking,Unnamed,33.3276105,-116.8366001,92060
supermarket,Hannam Chain Super Market,33.8849277,-117.9972164,90621
supermarket,Seafood City,33.874564,-118.0713127,90703
parking,Unnamed,35.8391365,-121.3994658,
parking,Unnamed,33.6498791,-117.5820642,93688
parking,Unnamed,33.6235172,-117.5812162,92679
parking,Unnamed,33.6589466,-117.6181503,92579
parking,Unnamed,33.6509044,-117.5865893,93688
parking,Unnamed,33.6545313,-117.5851758,92678
parking,Unnamed,33.6613276,-117.6179943,92579
hotel,The Homestead,36.5527848,-121.9234153,93922
hotel,The Green Lantern,36.5535555,-121.9251064,93922
parking,Unnamed,38.5710652,-122.424372,94508
hotel,Edgemere Cottages,36.5458801,-121.9275261,93922
supermarket,Santa Paula Super Store,34.3535209,-119.061875,93060
hotel,Evergreen Lodge,37.8758593,-119.8579518,
